title,totalScore,reviewsCount,street,regions serviced,city,state,countryCode,website,phone,categoryName,url
Professional Phlebotomy Services,5,13,2108 Gateway Dr Ste E,,Opelika,Alabama,US,https://www.mobile-pps.com/,(334) 502-0023,Blood testing service,https://www.google.com/maps/search/?api=1&query=Professional%20Phlebotomy%20Services&query_place_id=ChIJe2TeCgTzjIgRMpNrEmXJMmE
T&G Medical Mobile Lab and Drug Screen LLC,5,195,3738 Opelika Rd B,,Phenix City,Alabama,US,https://tgmedicallab.com/,(706) 225-9384,Medical laboratory,https://www.google.com/maps/search/?api=1&query=T%26G%20Medical%20Mobile%20Lab%20and%20Drug%20Screen%20LLC&query_place_id=ChIJje08QgDPjIgRWJFzf8AAbeQ
Universal Medical Training Services,3,3,105 Main St,,Livingston,Alabama,US,http://universalmts.com/,(877) 919-8077,Training center,https://www.google.com/maps/search/?api=1&query=Universal%20Medical%20Training%20Services&query_place_id=ChIJCY5IUehMhIgREMa4ZxZFyWE
Pathway Clinical Institute,5,1,2675 Government Blvd,,Mobile,Alabama,US,http://www.pathwayci.com/,(251) 307-1722,Education center,https://www.google.com/maps/search/?api=1&query=Pathway%20Clinical%20Institute&query_place_id=ChIJHxe8jsZNmogRj5I_62Y6XgE
Synergy Laboratories,4.5,26,5570 Rangeline Rd,,Mobile,Alabama,US,https://www.synergylaboratories.com/,(251) 662-9760,Laboratory,https://www.google.com/maps/search/?api=1&query=Synergy%20Laboratories&query_place_id=ChIJtTmm4FlLmogRCb7PE_LzzO0
Sage Health,5,1,2318 St Stephens Rd,,Mobile,Alabama,US,https://sage.health/markets/mobile-al/,(251) 308-5689,Medical clinic,https://www.google.com/maps/search/?api=1&query=Sage%20Health&query_place_id=ChIJp4eHYDtRmogR6IUHDJvs5sQ
"Genesis Testing Solutions, LLC",5,6,1111 E Interstate 65 Service Rd S Suite 104,,Mobile,Alabama,US,http://www.genesistestingsolutionsllc.com/,(251) 206-5696,Drug testing service,https://www.google.com/maps/search/?api=1&query=Genesis%20Testing%20Solutions%2C%20LLC&query_place_id=ChIJL7dFrMlLmogRl0qmmy8AxwQ
American Red Cross,4.3,17,1004 Montezuma Ave,,Dothan,Alabama,US,http://www.redcross.org/alabama/about/chapters/wiregrass,(334) 792-9852,Social services organization,https://www.google.com/maps/search/?api=1&query=American%20Red%20Cross&query_place_id=ChIJ7wJ9SEOSkogR6sZp2DMF6BU
Lifesouth Community Blood Center,4.2,22,4139 Carmichael Rd,,Montgomery,Alabama,US,http://www.lifesouth.org/,(334) 260-0803,Blood donation center,https://www.google.com/maps/search/?api=1&query=Lifesouth%20Community%20Blood%20Center&query_place_id=ChIJY_WT-v_h-hQRNCwZ9Im-DOg
VIPcare Mobile – Grelot Commons,5,20,6720 Grelot Rd Suite D,,Mobile,Alabama,US,https://getvipcare.com/our-locations/mobile/?utm_source=GMB&utm_medium=digital&utm_campaign=Organic%20GMB,(251) 274-8957,Medical clinic,https://www.google.com/maps/search/?api=1&query=VIPcare%20Mobile%20%E2%80%93%20Grelot%20Commons&query_place_id=ChIJ77gZ93azm4gRvdOwovUUarM
NyWes Phlebotomy & Mobile Health Services LLC,2.6,5,2740 Central Pkwy #5,,Montgomery,Alabama,US,https://nywes.com/,(334) 233-1485,Medical clinic,https://www.google.com/maps/search/?api=1&query=NyWes%20Phlebotomy%20%26%20Mobile%20Health%20Services%20LLC&query_place_id=ChIJNWWQmP8qjIgRLvyh40--Krk
Safe Hands Phlebotomy LLC,3.7,3,3263 Demetropolis Rd Suite 9,,Mobile,Alabama,US,,(251) 263-0012,Surgical center,https://www.google.com/maps/search/?api=1&query=Safe%20Hands%20Phlebotomy%20LLC&query_place_id=ChIJ0z9pjwxNmogR9tFiuMOK_Ns
Alaska Mobile Laboratory,4.5,4,"Mile Post 1314, Alaska Hwy #5",,Tok,Alaska,US,,(907) 883-4446,Medical laboratory,https://www.google.com/maps/search/?api=1&query=Alaska%20Mobile%20Laboratory&query_place_id=ChIJy15-r6eJSlERKLCpyxRZ8sY
Valley Phlebotomy Service LLC.,3.4,9,951 Bogard Rd STE 102,,Wasilla,Alaska,US,https://www.facebook.com/Valley-Phlebotomy-Service-LLC-126436710743825/,(907) 376-6435,Drug testing service,https://www.google.com/maps/search/?api=1&query=Valley%20Phlebotomy%20Service%20LLC.&query_place_id=ChIJLWRoyD_eyFYRAa0a0K4znyc
"Northern Sky Phlebotomy Services, LLC",5,3,3327 Fairbanks St Unit E,,Anchorage,Alaska,US,,(907) 302-1674,Medical clinic,https://www.google.com/maps/search/?api=1&query=Northern%20Sky%20Phlebotomy%20Services%2C%20LLC&query_place_id=ChIJXbGHS0sfZY0RIrrsGWOH1Cg
Northwest Phlebotomy School Anchorage,5,24,721 Depot Dr Suite 118,,Anchorage,Alaska,US,https://www.nwphlebotomyschool.com/,(360) 522-3226,Vocational school,https://www.google.com/maps/search/?api=1&query=Northwest%20Phlebotomy%20School%20Anchorage&query_place_id=ChIJQ7zrBC29yFYRRssXdrwL5u8
Northern Sky Mobile Phlebotomy Services,,0,624 W International Airport Rd,,Anchorage,Alaska,US,https://www.northernskymobilephlebotomy.com/schedule-mobile-phlebotomy-services,(907) 302-1674,Medical laboratory,https://www.google.com/maps/search/?api=1&query=Northern%20Sky%20Mobile%20Phlebotomy%20Services&query_place_id=ChIJ__8vjJKXyFYROOVMifXzQ5c
ALS Geochemistry - Fairbanks,4.9,9,1060 Bush St,,Fairbanks,Alaska,US,https://www.alsglobal.com/en/geochemistry,(907) 452-2188,Laboratory,https://www.google.com/maps/search/?api=1&query=ALS%20Geochemistry%20-%20Fairbanks&query_place_id=ChIJ345pHyhFMlERMHDXePn8Z00
"Mobile Phlebotomy Arizona, LLC",5,1,455 N Mesa Dr Suite 16B,,Mesa,Arizona,US,http://www.mobilephlebotomyarizona.com/,(480) 565-7621,Medical group,https://www.google.com/maps/search/?api=1&query=Mobile%20Phlebotomy%20Arizona%2C%20LLC&query_place_id=ChIJRdKb2SenK4cRIipWqf9JRxs
XtreamVein Mobile Phlebotomy,5,7,"Floors 1&2, 3707 E Southern Ave",,Mesa,Arizona,US,https://xtreamvein.com/,(480) 577-9373,Home health care service,https://www.google.com/maps/search/?api=1&query=XtreamVein%20Mobile%20Phlebotomy&query_place_id=ChIJlxRdz9WvK4cRXRFPM0OdLWI
Ideal Mobile Lab Services LLC,5,9,Phoenix Metro,,Phoenix,Arizona,US,http://www.idealmobilelabservices.com/,(623) 272-0832,Medical laboratory,https://www.google.com/maps/search/?api=1&query=Ideal%20Mobile%20Lab%20Services%20LLC&query_place_id=ChIJZ8kttEgTK4cReQx4wyBJ0LY
"PediaLabs, LLC",5,308,4653 S Lakeshore Dr #1,,Tempe,Arizona,US,http://mypedialabs.com/,(480) 395-3972,Laboratory,https://www.google.com/maps/search/?api=1&query=PediaLabs%2C%20LLC&query_place_id=ChIJdxGubxcHK4cR8y_IeqBOuwY
Unique Lab Services,4.7,145,13253 N La Montana Dr # 103,,Fountain Hills,Arizona,US,http://uniquelabservices.com/,(480) 765-2677,Medical laboratory,https://www.google.com/maps/search/?api=1&query=Unique%20Lab%20Services&query_place_id=ChIJ___L54iYK4cRYGKHehBzEcQ
One Medical Primary Care Clinic - Four Embarcadero Center,4,41,Four Embarcadero Center Lobby Level (2nd Floor,,San Francisco,CA,US,https://onemedical.com/locations/sf/4ec?y_source=1_MTA1Mzk0OTM0MS03MTUtbG9jYXRpb24ud2Vic2l0ZQ%3D%3D,(888) 663-6331,Medical clinic,https://www.google.com/maps/search/?api=1&query=One%20Medical%20Primary%20Care%20Clinic%20-%20Four%20Embarcadero%20Center&query_place_id=ChIJpRm_M2GAhYAREu3rUbBzhac
Walls Phlebotomy,5,16,210 Estates Dr,,Roseville,California,US,https://www.wallsphlebotomy.com/,(916) 741-2944,Laboratory,https://www.google.com/maps/search/?api=1&query=Walls%20Phlebotomy&query_place_id=ChIJ48Oti9AtAG8R3bJwNLwhlcE
Anzel's Touch Mobile Phlebotomy,5,1,5161 Olivia Ln,,Riverside,California,US,https://anzel-s-touch-mobile-phlebotomy.ueniweb.com/?utm_campaign=gmb,(951) 220-4166,Medical laboratory,https://www.google.com/maps/search/?api=1&query=Anzel's%20Touch%20Mobile%20Phlebotomy&query_place_id=ChIJnyupDqa33IARlVda74uC_o4
From the Heart Mobile Phlebotomy LLC,5,1,2372 Morse Ave suite #994,,Irvine,California,US,https://www.fromtheheartmobilelabs.com/,(424) 295-5939,Blood testing service,https://www.google.com/maps/search/?api=1&query=From%20the%20Heart%20Mobile%20Phlebotomy%20LLC&query_place_id=ChIJIQkUMQnf3IARs0ucyId9fRo
Mobile Phlebotomy Services in Ventura County,5,202,1000 Town Center Dr #300,,Oxnard,California,US,http://www.thebiocells.com/,(833) 324-6235,Local medical services,https://www.google.com/maps/search/?api=1&query=Mobile%20Phlebotomy%20Services%20in%20Ventura%20County&query_place_id=ChIJrzcIEHnl9WIRxJf0HYmEG9I
Health Top Tier- Mobile Phlebotomy Services,5,12,3101 Ocean Park Blvd Ste 100 #403,,Santa Monica,California,US,https://healthtoptier.com/,(310) 912-0633,Home health care service,https://www.google.com/maps/search/?api=1&query=Health%20Top%20Tier-%20Mobile%20Phlebotomy%20Services&query_place_id=ChIJNa3cJWHUhWIRBG0lXDLayDM
Drawn To You Phlebotomy Care & More,5,92,770 County Square Dr #103,,Ventura,California,US,http://drawntoyoumobilephlebcare.com/,(805) 391-4756,Local medical services,https://www.google.com/maps/search/?api=1&query=Drawn%20To%20You%20Phlebotomy%20Care%20%26%20More&query_place_id=ChIJZXY2WkfGgUcRSqDMnOP9LU8
TravaLab,3.5,52,101 Jefferson Dr,,Menlo Park,California,US,http://travalab.com/,(800) 921-6933,Home health care service,https://www.google.com/maps/search/?api=1&query=TravaLab&query_place_id=ChIJE3k7fdmVj4ARTaWzDs60qqQ
Needles on Wheels Mobile Phlebotomy,,0,7869 Ventura Canyon Ave UNIT 202,,Panorama City,California,US,https://needlesonwheels.com/?utm_campaign=gmb,(818) 731-1009,Medical laboratory,https://www.google.com/maps/search/?api=1&query=Needles%20on%20Wheels%20Mobile%20Phlebotomy&query_place_id=ChIJk0rnJISXwoAR4oh019ETwRU
Mobile Phlebotomy Services,,0,229 N Central Ave # 103,,Glendale,California,US,https://www.vitusla.com/contact,(747) 300-8050,Laboratory,https://www.google.com/maps/search/?api=1&query=Mobile%20Phlebotomy%20Services&query_place_id=ChIJ3ZEqKlTAwoAR9z2vfChiOQ4
VeAr Mobile Phlebotomy,,0,705 Folsom Lake Drive Suite 250,,Folsom,California,US,http://vearmobile.com/,(408) 796-9768,Pathologist,https://www.google.com/maps/search/?api=1&query=VeAr%20Mobile%20Phlebotomy&query_place_id=ChIJZxenrX7jmoARVWR5M1WNhK8
Brentwood Center Lab,4.5,2,350 John Muir Pkwy #160,,Brentwood,California,US,https://www.sutterhealth.org/find-location/facility/brentwood-center-lab-1043246583,(510) 204-1920,Medical laboratory,https://www.google.com/maps/search/?api=1&query=Brentwood%20Center%20Lab&query_place_id=ChIJU6_Y90b5j4ARwLZHh3_bbYA
Phlebotomy Plus,5,119,4550 Balfour Rd suite b,,Brentwood,California,US,https://www.phlebotomyplusllc.com/?utm_source=google&utm_medium=gmb&utm_campaign=brentwood,(925) 239-4922,Trade school,https://www.google.com/maps/search/?api=1&query=Phlebotomy%20Plus&query_place_id=ChIJhVtaP8b_j4ARY6mwJB8gRmg
Bevel-up Mobile Phleb,,0,1291 Canyon Side Ave,,San Ramon,California,US,https://www.bevel-up.net/,(925) 465-2443,Home health care service,https://www.google.com/maps/search/?api=1&query=Bevel-up%20Mobile%20Phleb&query_place_id=ChIJY5FDuJPtj4ARxvIVNkqeQNE
BayPLS,3.6,16,841 San Bruno Ave W Unit 100,,San Bruno,California,US,https://bayareapls.com/?utm_source=google-maps&utm_medium=organic&utm_campaign=g-map-listing-home&utm_content=san-bruno,(415) 300-4436,Laboratory,https://www.google.com/maps/search/?api=1&query=BayPLS&query_place_id=ChIJd0WXUS5_j4ARt6k6P_pbla0
All Access Healthcare,5,12,636 Winslow St,,Crockett,California,US,https://www.allaccesshealthcare.net/,(888) 341-9098,Medical clinic,https://www.google.com/maps/search/?api=1&query=All%20Access%20Healthcare&query_place_id=ChIJN_Z5d4BxhYARYbHjNqYUclM
Accu Phleb,,0,191 Sand Creek Rd Suite 202B,,Brentwood,California,US,https://www.accuphleb.com/,(650) 383-4591,Medical laboratory,https://www.google.com/maps/search/?api=1&query=Accu%20Phleb&query_place_id=ChIJtb-o3-hSZEYR1wUN2Mohy0Y
Passionate Hands Phlebotomy Services LLC,,0,821 E 2nd St #201a,,Benicia,California,US,,(510) 776-1275,Laboratory,https://www.google.com/maps/search/?api=1&query=Passionate%20Hands%20Phlebotomy%20Services%20LLC&query_place_id=ChIJH6uext5vhYAR5eF8iECv9Qs
Precise Pokes Mobile Phlebotomy Service,,0,1652 W Texas St suite 121,,Fairfield,California,US,http://precisepokesmobilephlebotomyservice.com/,(916) 915-4669,Home health care service,https://www.google.com/maps/search/?api=1&query=Precise%20Pokes%20Mobile%20Phlebotomy%20Service&query_place_id=ChIJZ6fP5lzfoUcRR0UuX4sIV2E
The Vein Draw Phleb Mobile Phlebotomy Service,,0,1990 N California Blvd 8th floor floor,,Walnut Creek,California,US,http://www.theveindrawphleb.com/,(925) 393-4949,Home health care service,https://www.google.com/maps/search/?api=1&query=The%20Vein%20Draw%20Phleb%20Mobile%20Phlebotomy%20Service&query_place_id=ChIJkeqjVN5hhYARqDeLAfMaC48
5t's Mobile Collection Lab,,0,621 Tully Rd Suite 227,,San Jose,California,US,https://5t-s-mobile-collection-lab.ueniweb.com/?utm_campaign=gmb,(408) 818-9980,Medical laboratory,https://www.google.com/maps/search/?api=1&query=5t's%20Mobile%20Collection%20Lab&query_place_id=ChIJUapLnRE1joARKMCvOKaKaQk
valley mobile phlebotomy,4.7,3,2895 Newhalen St,,Manteca,California,US,https://www.valleymobilephleb.com/,(408) 718-6175,Home health care service,https://www.google.com/maps/search/?api=1&query=valley%20mobile%20phlebotomy&query_place_id=ChIJD32KdVFvSAsROwGw7eviztY
Nicks Mobile Lab LLC,,0,1255 Treat Blvd,,Walnut Creek,California,US,,(925) 279-4679,Medical clinic,https://www.google.com/maps/search/?api=1&query=Nicks%20Mobile%20Lab%20LLC&query_place_id=ChIJXUap7z1hhYARe_qE2LbOgV8
Mobile Med Services,5,7,200 Gregory Ln Suite B202,,Pleasant Hill,California,US,http://www.mobilemedservices.com/,(925) 871-8279,Laboratory,https://www.google.com/maps/search/?api=1&query=Mobile%20Med%20Services&query_place_id=ChIJ3el_dr3tj4AR58VneR57VyA
Laboratory Services Mountain View - El Camino Health,5,7,2500 Grant Rd,,Mountain View,California,US,https://www.getcare.elcaminohealth.org/locations/mountain-view-hospital-campus/2500-grant-rd/laboratory_svcs-mv?utm_campaign=listings&utm_source=google&utm_medium=location_link&utm_content=laboratory_svcs-mv,(650) 940-7022,Medical laboratory,https://www.google.com/maps/search/?api=1&query=Laboratory%20Services%20Mountain%20View%20-%20El%20Camino%20Health&query_place_id=ChIJWUQMuMO3j4ARXUtrksFZGVM
Sprinter Health,5,462,4600 Bohannon Dr # 100,,Menlo Park,California,US,http://www.sprinterhealth.com/,(209) 677-7468,Home health care service,https://www.google.com/maps/search/?api=1&query=Sprinter%20Health&query_place_id=ChIJpTXqEXnNj4ARlRsq1PxEA-E
BioSpecimen Solutions Inc,,0,63 Bovet Rd,,San Mateo,California,US,https://biospecimensolutions.com/,(877) 816-3521,Research institute,https://www.google.com/maps/search/?api=1&query=BioSpecimen%20Solutions%20Inc&query_place_id=ChIJlTo7Ilmej4ARLyjAnvZAv1o
TridentCare,,0,1954 Camden Ave #2,,San Jose,California,US,http://www.tridentcare.com/,,Medical diagnostic imaging center,https://www.google.com/maps/search/?api=1&query=TridentCare&query_place_id=ChIJTfAAUko1joARN4n4Aw29yIE
ARCpoint Labs of San Rafael,4.9,87,4340 Redwood Hwy Suite A33,,San Rafael,California,US,https://arcpointlabs.com/sanrafael/,(415) 475-4620,Drug testing service,https://www.google.com/maps/search/?api=1&query=ARCpoint%20Labs%20of%20San%20Rafael&query_place_id=ChIJZ-gqZraXhYARTxN3-UJsh_M
BayPLS,,0,331 Potrero Ave,,San Francisco,California,US,https://bayareapls.com/?utm_source=google-maps&utm_medium=organic&utm_campaign=g-map-listing-home&utm_content=san-francisco,(415) 300-4436,Medical laboratory,https://www.google.com/maps/search/?api=1&query=BayPLS&query_place_id=ChIJf38Z9DF-j4ARk8JRRdIVWvY
Patient Service Center,2.7,30,320 Dardanelli Ln. #13B,,Los Gatos,California,US,https://www.bioreference.com/patients/locations-patient-services/,(408) 370-0944,Medical laboratory,https://www.google.com/maps/search/?api=1&query=Patient%20Service%20Center&query_place_id=ChIJgYuweAs1joARA5iqvvZiA-k
Onsite Phlebotomy Solutions,5,118,595 N La Cadena Dr STE G,,Colton,California,US,http://onsitephlebotomysolutions.com/?utm_source=google&utm_medium=wix_google_business_profile&utm_campaign=18112328423465339391,(909) 554-3386,Medical laboratory,https://www.google.com/maps/search/?api=1&query=Onsite%20Phlebotomy%20Solutions&query_place_id=ChIJDQhBM5Wt3IARheOluwTgCIY
Rohnert Park Center Lab,3.3,21,6000 State Farm Dr #150,,Rohnert Park,California,US,https://www.sutterhealth.org/find-location/facility/6000-state-farm-drive-lab-1043247302,(707) 588-3020,Medical laboratory,https://www.google.com/maps/search/?api=1&query=Rohnert%20Park%20Center%20Lab&query_place_id=ChIJd-SCEk9KhIARaSGhpMxqSlY
Watsonville Center Lab,3.7,3,550 S Green Valley Rd,,Watsonville,California,US,https://www.sutterhealth.org/find-location/facility/watsonville-center-lab-1043246927,(831) 462-7110,Medical laboratory,https://www.google.com/maps/search/?api=1&query=Watsonville%20Center%20Lab&query_place_id=ChIJZ5jdD_cajoARioF4DiJDXa8
Natera Patient Service Center,4.5,33,15215 National Ave #103,,Los Gatos,California,US,https://www.natera.com/,(408) 357-9882,Medical laboratory,https://www.google.com/maps/search/?api=1&query=Natera%20Patient%20Service%20Center&query_place_id=ChIJWULgUzQ1joAR7NuNGkQHBh4
American Red Cross Solano County,3.8,6,490 Chadbourne Rd STE A134,,Fairfield,California,US,http://www.redcross.org/,(707) 438-7060,Social services organization,https://www.google.com/maps/search/?api=1&query=American%20Red%20Cross%20Solano%20County&query_place_id=ChIJuewpTswVhYARP8Dt-tRUXMk
TridentCare,,0,7075 Redwood Blvd Suite M,,Novato,California,US,http://www.tridentcare.com/,,Medical diagnostic imaging center,https://www.google.com/maps/search/?api=1&query=TridentCare&query_place_id=ChIJR5qLbkm9hYARbCOALRWtjrk
Quanta Laboratories,4.8,44,3199 De La Cruz Blvd,,Santa Clara,California,US,http://www.quantalabs.com/,(408) 988-0770,Laboratory,https://www.google.com/maps/search/?api=1&query=Quanta%20Laboratories&query_place_id=ChIJm29Y933Jj4ARXcSg5owtt7E
Full Service Mobile Lab Co.,4.6,29,4455 Murphy Canyon Rd #100,,San Diego,California,US,http://fullservicemobilelab.com/,(619) 943-3200,Blood testing service,https://www.google.com/maps/search/?api=1&query=Full%20Service%20Mobile%20Lab%20Co.&query_place_id=ChIJXXyFnWSytAURJ2gMBVXQ8OM
Gateway Mobile Phlebotomy,,0,400 Corporate Pointe #300,,Culver City,California,US,,(323) 744-2653,Laboratory,https://www.google.com/maps/search/?api=1&query=Gateway%20Mobile%20Phlebotomy&query_place_id=ChIJHXW1ASe3woAR66k3Mwm1LhM
North Valley Mobile Phlebotomy,5,3,1000 Lincoln Rd ste h,,Yuba City,California,US,http://northvalleylaboratory.com/,(530) 649-7945,Home health care service,https://www.google.com/maps/search/?api=1&query=North%20Valley%20Mobile%20Phlebotomy&query_place_id=ChIJW4U-bABTm4AR0yYYm6X3N6w
Mays Mobile Phlebotomy Services,5,1,9719 Lincoln Village Dr,,Sacramento,California,US,https://maysmobilephlebotomyservices.com/,(916) 800-2572,Health consultant,https://www.google.com/maps/search/?api=1&query=Mays%20Mobile%20Phlebotomy%20Services&query_place_id=ChIJc1NvlSXdmoAReBh1A0-5gkE
Mobile Lab Services,,0,,,Denver,Colorado,US,,(720) 261-7689,Laboratory,https://www.google.com/maps/search/?api=1&query=Mobile%20Lab%20Services&query_place_id=ChIJ_____8J4bIcRzYUMSn4AWdg
Acme Mobile Phlebotomy Service,3.7,3,1006 Depot Hill Rd ste b,,Broomfield,Colorado,US,http://acmemobilephlebotomyservice.com/,(720) 484-1834,Home health care service,https://www.google.com/maps/search/?api=1&query=Acme%20Mobile%20Phlebotomy%20Service&query_place_id=ChIJBy-hqceLa4cRPjOfYEDutwQ
ABOLabs LLC,4.9,74,10465 Melody Dr #305,,Northglenn,Colorado,US,http://www.abolabs.org/,(720) 218-8748,Home health care service,https://www.google.com/maps/search/?api=1&query=ABOLabs%20LLC&query_place_id=ChIJz6PZ_mZLaYcR5pgmBQxUupM
Academy of Medical Training Inc.,4.6,63,521 Wolcott St,,Waterbury,Connecticut,US,http://beacnact.com/,(203) 528-0433,Medical school,https://www.google.com/maps/search/?api=1&query=Academy%20of%20Medical%20Training%20Inc.&query_place_id=ChIJHYyD9t7A54kR-Mws60xL2P8
Northeast Medical Institute- Waterbury Campus | Phlebotomy Course & CNA Class,5,137,900 Straits Turnpike Suite C-203,,Middlebury,Connecticut,US,https://www.northeastmedicalinstitute.com/?utm_source=GMB+&utm_medium=Waterbury,(203) 391-6766,Nursing school,https://www.google.com/maps/search/?api=1&query=Northeast%20Medical%20Institute-%20Waterbury%20Campus%20%7C%20Phlebotomy%20Course%20%26%20CNA%20Class&query_place_id=ChIJ2eaUNgLB54kRaSTAF-bz-j0
Eazy Prickz Mobile Solutions,5,2,1266 E Main St Suite 700R,,Stamford,Connecticut,US,https://www.eazyprickz.com/,(833) 397-7425,Blood testing service,https://www.google.com/maps/search/?api=1&query=Eazy%20Prickz%20Mobile%20Solutions&query_place_id=ChIJgfb-OoM9JQwRi7NMoSeKBB0
PinPoint Phlebotomy LLC,5,1,1830 Park Ave,,Bridgeport,Connecticut,US,,(203) 685-7290,Medical clinic,https://www.google.com/maps/search/?api=1&query=PinPoint%20Phlebotomy%20LLC&query_place_id=ChIJS49DxRoP6IkR5Ryxj5KglrI
QuikDraw Phlebotomy School LLC,5,130,100 Beard Sawmill Rd #330,,Shelton,Connecticut,US,https://quikdrawschool.com/,(203) 529-7260,Training center,https://www.google.com/maps/search/?api=1&query=QuikDraw%20Phlebotomy%20School%20LLC&query_place_id=ChIJSeHiJIcL6IkRlGt5ZLRPS_k
Drawn to helping others,5,7,73 Waterbury Rd,,Prospect,Connecticut,US,https://www.drawntohelpothers.com/,(860) 983-0708,Laboratory,https://www.google.com/maps/search/?api=1&query=Drawn%20to%20helping%20others&query_place_id=ChIJnfWIxiPH54kRgyDZgpgA8Ho
Vampire on the go LLC Mobile Phlebotomist,,0,1423 Quinnipiac Ave,,New Haven,Connecticut,US,http://www.vampireonthegoct.com/,(475) 323-3059,Blood testing service,https://www.google.com/maps/search/?api=1&query=Vampire%20on%20the%20go%20LLC%20Mobile%20Phlebotomist&query_place_id=ChIJtbpvZqLX54kR92tO1Ytka2Y
"Amems Mobile Phlebotomist, LLC",5,39,63 Saddle Rd,,Norwalk,Connecticut,US,https://amemsmobilephlebotomist.com/,(203) 943-3293,Blood testing service,https://www.google.com/maps/search/?api=1&query=Amems%20Mobile%20Phlebotomist%2C%20LLC&query_place_id=ChIJlblTH-od6IkRZZMtzDhdlmE
Miss Diagnosis Mobile Phlebotomy,5,26,505 N Main St,,Naugatuck,Connecticut,US,https://miss-diagnosis-mobile-phlebotomy.square.site/?fbclid=IwQ0xDSwK8ch1leHRuA2FlbQIxMAABHoWUIoDHW-Za7yhiBCoF6hql5DyypF-smW2Ba0jmmqHMTJOtYm8NpoNzz89A_aem_Ruf8rOoerl-oPewecVhOTQ,(860) 777-0596,Blood testing service,https://www.google.com/maps/search/?api=1&query=Miss%20Diagnosis%20Mobile%20Phlebotomy&query_place_id=ChIJN0mIBgXD54kRGCkwKirYlkM
Mobile Phlebotomy Services,,0,73 Waterbury Rd,,Prospect,Connecticut,US,https://www.drawntohelpothers.com/,(800) 995-7714,Laboratory,https://www.google.com/maps/search/?api=1&query=Mobile%20Phlebotomy%20Services&query_place_id=ChIJNbTJQKnG54kRDZW39ADoVjg
Valley Medical Institute,3.5,37,4637 Main St,,Bridgeport,Connecticut,US,http://www.valleymedicalinstitute.com/,(203) 378-2210,Medical school,https://www.google.com/maps/search/?api=1&query=Valley%20Medical%20Institute&query_place_id=ChIJnZ8lidLG54kRCpvhz8JkCIE
"Blood Draw - Constitution Diagnostics Network, Sand Pit Rd. Danbury, part of Nuvance Health",4,45,79 Sand Pit Rd #202,,Danbury,Connecticut,US,https://findcare.nuvancehealth.org/provider/Blood+Draw+Sand+Pit+Road%2C+Danbury+-+Constitution+Diagnostics+Network+part+of+Danbury+Hospital/2456632?unified=blood+draw&sort=networks%2Crelevance%2Cavailability_density_best&from=search-list&_ga=2.124134474.172435005.1678978052-1342506751.1678308652&_gl=1*1q6boij*_ga*MTM0MjUwNjc1MS4xNjc4MzA4NjUy*_ga_R4WQ173P8V*MTY3ODk5MzA3OC4zLjEuMTY3ODk5NDMzOS4wLjAuMA%3Futm_source%3Dlistings&utm_medium=organic&utm_campaign=Yext&y_source=1_MzU2Mzc5MTUtNzE1LWxvY2F0aW9uLndlYnNpdGU%3D,(203) 749-5740,Diagnostic center,https://www.google.com/maps/search/?api=1&query=Blood%20Draw%20-%20Constitution%20Diagnostics%20Network%2C%20Sand%20Pit%20Rd.%20Danbury%2C%20part%20of%20Nuvance%20Health&query_place_id=ChIJzaUZADr_54kRHMuNQHnwSc0
"PHLEB STARZ MOBILE PHLEBOTOMY,LLC",5,7,200 Continental Dr,,Newark,Delaware,US,,,Blood testing service,https://www.google.com/maps/search/?api=1&query=PHLEB%20STARZ%20MOBILE%20PHLEBOTOMY%2CLLC&query_place_id=ChIJRfzNuPwBx4kRQzTBDQf7cIU
Mobile Phlebotomy Excellence,5,112,5825 US Hwy 27 N,,Sebring,Florida,US,http://mobilephlebexcellence.com/,(888) 915-2988,Laboratory,https://www.google.com/maps/search/?api=1&query=Mobile%20Phlebotomy%20Excellence&query_place_id=ChIJpzV9AzEgm4QRqxCOp-h41a8
Superior Care Mobile Phlebotomy LLC,5,40,3350 SW 148th Ave Suit 110,,Miramar,Florida,US,http://www.superiorcaremobile.com/,(954) 951-3999,Laboratory,https://www.google.com/maps/search/?api=1&query=Superior%20Care%20Mobile%20Phlebotomy%20LLC&query_place_id=ChIJTSebJ1Ov2YgRDmlPc8bce1A
ConveLabs Mobile Lab Services,5,161,1800 Pembrook Dr Suite 300,,Orlando,Florida,US,https://www.convelabs.com/,(941) 527-9169,Medical laboratory,https://www.google.com/maps/search/?api=1&query=ConveLabs%20Mobile%20Lab%20Services&query_place_id=ChIJXw6m5nZx54gRBg0C4uAM96I
"Angel Hands Mobile Phlebotomy Services, LLC",5,19,2007 S Westmoreland Dr,,Orlando,Florida,US,,(321) 878-7917,Laboratory,https://www.google.com/maps/search/?api=1&query=Angel%20Hands%20Mobile%20Phlebotomy%20Services%2C%20LLC&query_place_id=ChIJuQMLRk2R3YgRnnS79wx_hU0
VAMP Veteran Accuracy Mobile Phlebotomy,5,6,7901 4th St N #20352,,St. Petersburg,Florida,US,https://vamplabs.com/,(813) 578-8865,Blood testing service,https://www.google.com/maps/search/?api=1&query=VAMP%20Veteran%20Accuracy%20Mobile%20Phlebotomy&query_place_id=ChIJLRftgRfZwogRqLes-icRt8M
Elite Phlebotomy Service,,0,8370 W Flagler St STE 222,,Miami,Florida,US,,(786) 424-8595,Medical laboratory,https://www.google.com/maps/search/?api=1&query=Elite%20Phlebotomy%20Service&query_place_id=ChIJ62Boyh-52YgRLPG1I7Fl5nI
Island Life Phlebotomy,5,4,100410 Overseas Hwy #305,,Key Largo,Florida,US,https://islandlifephlebotomy.org/,(305) 879-9077,Laboratory,https://www.google.com/maps/search/?api=1&query=Island%20Life%20Phlebotomy&query_place_id=ChIJsRD-P7Rp14gRj8wYrq40u84
Dynamic Touch Mobile Phlebotomy Staffing,5,6,1550 Madruga Ave,,Coral Gables,Florida,US,http://dynamictouchstaffing.com/,(561) 249-9081,Laboratory,https://www.google.com/maps/search/?api=1&query=Dynamic%20Touch%20Mobile%20Phlebotomy%20Staffing&query_place_id=ChIJ0XkM-mbH2YgRUkhqqzOE9lY
OneBlood,4.4,38,1855 N University Dr #1827,,Coral Springs,Florida,US,https://www.oneblood.org/?utm_source=gmb&utm_medium=yext,(954) 282-5195,Blood donation center,https://www.google.com/maps/search/?api=1&query=OneBlood&query_place_id=ChIJteZhzD8F2YgRIhqnoFHhUGY
A Gentle Touch Inc,5,61,500 S Australian Ave #636,,West Palm Beach,Florida,US,http://phlebprovider.com/,(561) 320-3071,Blood testing service,https://www.google.com/maps/search/?api=1&query=A%20Gentle%20Touch%20Inc&query_place_id=ChIJbTxVy-lTN04RynxU0ZBIBHg
Ruby’s Academy for Health Occupations,4.6,49,4735 N University Dr,,Lauderhill,Florida,US,http://www.rubysacademyhealth.com/,(954) 584-1970,Nursing school,https://www.google.com/maps/search/?api=1&query=Ruby%E2%80%99s%20Academy%20for%20Health%20Occupations&query_place_id=ChIJp5OnUd4G2YgR31Ic62tiD4A
iComply Testing Solutions | Pompano Beach - Drug Test - Paternity Test - Mobile Blood Test,5,37,555 S Pompano Pkwy Suite 3,,Pompano Beach,Florida,US,http://www.icomplytesting.com/,(954) 859-5981,Drug testing service,https://www.google.com/maps/search/?api=1&query=iComply%20Testing%20Solutions%20%7C%20Pompano%20Beach%20-%20Drug%20Test%20-%20Paternity%20Test%20-%20Mobile%20Blood%20Test&query_place_id=ChIJ32hqSGgD2YgRmoG9WQouWIQ
Chancellor Institute,4.5,56,2900 W Cypress Creek Rd STE 7,,Fort Lauderdale,Florida,US,https://ichancellor.edu/,(954) 400-0620,Nursing school,https://www.google.com/maps/search/?api=1&query=Chancellor%20Institute&query_place_id=ChIJZwxNZI4E2YgRIAO7F9Ice-I
Any Lab Test Now,3.9,21,1676 S Congress Ave,,Palm Springs,Florida,US,https://www.anylabtestnow.com/palm-springs-33461/,(561) 323-2114,Blood testing service,https://www.google.com/maps/search/?api=1&query=Any%20Lab%20Test%20Now&query_place_id=ChIJzwu6TB3Y2IgRACleTZwF5f8
LA Medical Associates,4.8,116,11000 Prosperity Farms Rd STE 206,,Palm Beach Gardens,Florida,US,https://www.lamedicalpb.com/,(561) 433-5577,Doctor,https://www.google.com/maps/search/?api=1&query=LA%20Medical%20Associates&query_place_id=ChIJnaadaNUr34gRf0ICM3DanBs
American Health Associates,2.7,7,15712 SW 41st St #16,,Davie,Florida,US,https://www.americanhealthassociates.com/,(954) 349-1160,Medical laboratory,https://www.google.com/maps/search/?api=1&query=American%20Health%20Associates&query_place_id=ChIJfxGayTan2YgRx5v2S_bhpEM
Bloom Direct Primary Care,5,15,8890 Terrene Ct,,Bonita Springs,Florida,US,http://www.bloomdirectprimarycare.com/,(239) 799-4181,Medical office,https://www.google.com/maps/search/?api=1&query=Bloom%20Direct%20Primary%20Care&query_place_id=ChIJ7waV-JMZ24gRxaH_fX27-pU
Centrum Health,4.9,110,3690 Davie Blvd,,Fort Lauderdale,Florida,US,https://www.centrumhealth.com/,(954) 833-0010,Medical clinic,https://www.google.com/maps/search/?api=1&query=Centrum%20Health&query_place_id=ChIJQ5-B60gH2YgRBxL_v9JPS9g
Care Resource Community Health Centers,4.6,640,3510 Biscayne Blvd,,Miami,Florida,US,https://careresource.org/,(305) 576-1234,Community health center,https://www.google.com/maps/search/?api=1&query=Care%20Resource%20Community%20Health%20Centers&query_place_id=ChIJ6ftNf1ax2YgRFPPtaeyev-8
SMH Care Center at Clark Road,4.3,29,5880 Rand Blvd,,Sarasota,Florida,US,https://www.smh.com/Home/Locations/Health-Care-Center-at-Clark-Road,(941) 917-5111,Medical clinic,https://www.google.com/maps/search/?api=1&query=SMH%20Care%20Center%20at%20Clark%20Road&query_place_id=ChIJDW1lUqNGw4gRsUMHVRAbznI
"CRCS Mobile Health, LLC",5,1,,,Miami Beach,Florida,US,https://crcshealth.com/?utm_campaign=gmb,(786) 654-8131,Health spa,https://www.google.com/maps/search/?api=1&query=CRCS%20Mobile%20Health%2C%20LLC&query_place_id=ChIJg4TkzYK12YgRLNncHDeLPyw
Encore Medical Research of Weston LLC,4.9,32,2685 Executive Park Dr Suites 7 & 8,,Weston,Florida,US,https://encoremedicalresearch.com/,(954) 777-8827,Medical laboratory,https://www.google.com/maps/search/?api=1&query=Encore%20Medical%20Research%20of%20Weston%20LLC&query_place_id=ChIJe7MiEP-h2YgRYW0QD0PJIao
Millennium Physician Group - Naples Lab,4.9,171,6610 Willow Park Dr STE 101,,Naples,Florida,US,https://millenniumphysician.com/location/naples-willow-park-lab/,(239) 430-5571,Medical laboratory,https://www.google.com/maps/search/?api=1&query=Millennium%20Physician%20Group%20-%20Naples%20Lab&query_place_id=ChIJI2ecic0d24gRNxfPPSrPENc
UNILAB Over 35years in business,4,39,2145 Davie Blvd,,Fort Lauderdale,Florida,US,http://unilabhealth.com/,(877) 522-5678,Medical laboratory,https://www.google.com/maps/search/?api=1&query=UNILAB%20Over%2035years%20in%20business&query_place_id=ChIJ0SOZp7gA2YgRVKTme2v--a0
Radiant Recharge,5,55,466 SW Port St Lucie Blvd #114,,Port St. Lucie,Florida,US,https://www.radiantrecharge.com/,(772) 837-0500,Wellness center,https://www.google.com/maps/search/?api=1&query=Radiant%20Recharge&query_place_id=ChIJc_dyrc8bzWsRrb1iRV6QqUI
Immuno Laboratories,5,6,6801 Powerline Rd,,Fort Lauderdale,Florida,US,https://www.immunolabs.com/,(954) 691-2500,Laboratory,https://www.google.com/maps/search/?api=1&query=Immuno%20Laboratories&query_place_id=ChIJ6z3e2LoD2YgR9sPR0OjqTkA
Any Lab Test Now with Arcpoint Labs,4.6,173,23016 Sandalfoot Plaza Dr,,Boca Raton,Florida,US,https://www.anylabtestnow.com/boca-raton-33428/,(561) 237-5009,Blood testing service,https://www.google.com/maps/search/?api=1&query=Any%20Lab%20Test%20Now%20with%20Arcpoint%20Labs&query_place_id=ChIJeywTV5Ab2YgR0EJcO8Ip92s
Cell Science Systems,3.1,19,852 S Military Trail,,Deerfield Beach,Florida,US,https://cellsciencesystems.com/,(954) 426-2304,Laboratory,https://www.google.com/maps/search/?api=1&query=Cell%20Science%20Systems&query_place_id=ChIJq6qqqn4d2YgRJf8TTRwNo_I
DNA Profiles Inc.,5,179,1509 NE 167th St,,North Miami Beach,Florida,US,https://www.mydnaprofiles.com/,(305) 947-3990,Paternity testing service,https://www.google.com/maps/search/?api=1&query=DNA%20Profiles%20Inc.&query_place_id=ChIJiYDWbMat2YgRFpd6V4wFDC4
"Apex Laboratory, Inc.",2.8,31,800 NW 17th Ave,,Delray Beach,Florida,US,http://www.apexlabinc.com/,(561) 279-1852,Medical laboratory,https://www.google.com/maps/search/?api=1&query=Apex%20Laboratory%2C%20Inc.&query_place_id=ChIJQbwf8w7f2IgRNoDyY6ErSJ4
VENI SOLUTIONS MOBILE PHLEBOTOMY,,0,Federal Hwy,,Boynton Beach,Florida,US,,(561) 710-0624,Laboratory,https://www.google.com/maps/search/?api=1&query=VENI%20SOLUTIONS%20MOBILE%20PHLEBOTOMY&query_place_id=ChIJ7dMFRPTf2IgR-kDK0SCMLvY
Angel Touch Mobile Phlebotomy Services LLC,5,9,920 Coral Ridge Dr,,Coral Springs,Florida,US,,(716) 708-3788,Blood testing service,https://www.google.com/maps/search/?api=1&query=Angel%20Touch%20Mobile%20Phlebotomy%20Services%20LLC&query_place_id=ChIJNe7Un7QP2YgRRZrqNlZmyFE
TLC Concierge Mobile Lab LLC,5,20,433 Plaza Real,,Boca Raton,Florida,US,http://tlcconciergemobilelab.com/,(213) 315-3909,Blood testing service,https://www.google.com/maps/search/?api=1&query=TLC%20Concierge%20Mobile%20Lab%20LLC&query_place_id=ChIJYa7DNcHj2IgR-uI8tTPppt0
A&M Labs & Wellness & Mobile Services,4.9,39,1500 W Cypress Creek Rd # 303,,Fort Lauderdale,Florida,US,http://amwelllabs.com/,(954) 687-1204,Blood testing service,https://www.google.com/maps/search/?api=1&query=A%26M%20Labs%20%26%20Wellness%20%26%20Mobile%20Services&query_place_id=ChIJD24ksN0D2YgRuQ2D_Xcx0sI
BLOODLNK LLC,4,5,2505 Flagler Ave,,Key West,Florida,US,,(866) 932-1097,Laboratory,https://www.google.com/maps/search/?api=1&query=BLOODLNK%20LLC&query_place_id=ChIJ54_rZNCx0YgRcrP_s88g8_8
A-1 Screenings/mobile services,5,5,856 Ellicott Cir NW,,Port Charlotte,Florida,US,http://getmea1.com/,(239) 691-1436,Drug testing service,https://www.google.com/maps/search/?api=1&query=A-1%20Screenings%2Fmobile%20services&query_place_id=ChIJ305LEmmp3IgRhEH1galIP4s
Phlebotek Solutions,5,29,333 Las Olas Way,,Fort Lauderdale,Florida,US,,(224) 400-6051,Medical group,https://www.google.com/maps/search/?api=1&query=Phlebotek%20Solutions&query_place_id=ChIJTcRjI34B2YgRNx5CBVV4CnI
Minustouchmobilephlebotomyservices.health,5,5,980 N Federal Hwy Suites 110,,Boca Raton,Florida,US,https://www.minustouchmobilephlebotomyservices.health/,(877) 637-4506,Health spa,https://www.google.com/maps/search/?api=1&query=Minustouchmobilephlebotomyservices.health&query_place_id=ChIJGZ6Am27h2IgRHi1p4Dj78JE
MyTest Diagnostics,4.6,31,9671 Gladiolus Dr #102,,Fort Myers,Florida,US,,(239) 935-7775,Medical laboratory,https://www.google.com/maps/search/?api=1&query=MyTest%20Diagnostics&query_place_id=ChIJVx2ACP4-24gRotxNwZvbzAU
K&E Medical Training Center,4.9,152,1469 Colonial Blvd #200,,Fort Myers,Florida,US,https://kemedicaltrainingcenter.com/,(239) 206-1967,Medical school,https://www.google.com/maps/search/?api=1&query=K%26E%20Medical%20Training%20Center&query_place_id=ChIJtcaTTaVr24gRoWUeFyws_2w
Mobile Labsblood Services LLC,5,9,1251 Taylor Ln Suite 6A 2,,Lehigh Acres,Florida,US,https://www.httpsmobilelabsblood.com/,(239) 483-5311,Laboratory,https://www.google.com/maps/search/?api=1&query=Mobile%20Labsblood%20Services%20LLC&query_place_id=ChIJwcOalUECnkQRbMOBxziDYEY
Premier Mobile Phlebotomy,5,2,430 Muskegon Ave,,Fort Myers,Florida,US,,(239) 238-0992,Medical laboratory,https://www.google.com/maps/search/?api=1&query=Premier%20Mobile%20Phlebotomy&query_place_id=ChIJ2ZXUH3IiskMRZKOWRDwEcmI
Lab Express,4.8,149,814 SW Pine Island Rd Suite 306,,Cape Coral,Florida,US,https://www.labexpressservices.com/,(239) 488-2457,Drug testing service,https://www.google.com/maps/search/?api=1&query=Lab%20Express&query_place_id=ChIJWdDbyClH24gRZ03W_eUZb6g
Hi Doc Medical Center | Physicals | Weight Loss | Travel Vaccines | Lab | Pre-surgical Clearance| Concierge Medicine,4.9,251,3040 E Commercial Blvd,,Fort Lauderdale,Florida,US,https://hidocmedical.com/,(954) 289-3065,Medical clinic,https://www.google.com/maps/search/?api=1&query=Hi%20Doc%20Medical%20Center%20%7C%20Physicals%20%7C%20Weight%20Loss%20%7C%20Travel%20Vaccines%20%7C%20Lab%20%7C%20Pre-surgical%20Clearance%7C%20Concierge%20Medicine&query_place_id=ChIJ96NHSi8B2YgRXC7lNFpTZ44
Hollywood Career Institute,4.8,499,1617 S 21st Ave,,Hollywood,Florida,US,http://hollywoodcareerinstitute.com/,(954) 866-3220,Medical school,https://www.google.com/maps/search/?api=1&query=Hollywood%20Career%20Institute&query_place_id=ChIJRTETe4Or2YgRAwOf_bGBMBE
Any Lab Test Now with Arcpoint Labs,4.7,54,955 N University Dr,,Coral Springs,Florida,US,https://www.anylabtestnow.com/coral-springs-33071/,(954) 906-5983,Blood testing service,https://www.google.com/maps/search/?api=1&query=Any%20Lab%20Test%20Now%20with%20Arcpoint%20Labs&query_place_id=ChIJ0ayIKj0F2YgRw_aYp8hDqJM
Cape Coral Technical College,4.3,64,360 Santa Barbara Blvd N,,Cape Coral,Florida,US,http://www.capecoraltech.edu/,(239) 574-4440,College,https://www.google.com/maps/search/?api=1&query=Cape%20Coral%20Technical%20College&query_place_id=ChIJG9r-TJ9G24gRQ-nYsOLmz-g
Mobile Home Care Phlebotomy,5,12,2037 Rookery Bay Dr,,Naples,Florida,US,,(954) 440-5830,Medical laboratory,https://www.google.com/maps/search/?api=1&query=Mobile%20Home%20Care%20Phlebotomy&query_place_id=ChIJGQKVlm4XcmcRx1o2NM8EDHI
Apex Laboratories,1,1,601 N Congress Ave,South Florida,Delray Beach,Florida,US,https://apexlabinc.com/,(561) 279-1852,Medical laboratory,https://www.google.com/maps/search/?api=1&query=Apex%20Laboratories&query_place_id=ChIJJZRdmvPf2IgRuxcdUmjHZiM
Access Medical Laboratories,5,1182,5151 Corporate Way,,Jupiter,Florida,US,https://accessmedlab.com/,(866) 720-8386,Blood testing service,https://www.google.com/maps/search/?api=1&query=Access%20Medical%20Laboratories&query_place_id=ChIJKx9v4I7V3ogRGJ5ylNGAQEA
Gifted Hands Phlebotomy Llc,5,1,4909 N Monroe St,,Tallahassee,Florida,US,https://www.giftedhandsphlebotomy24.org/,,Laboratory,https://www.google.com/maps/search/?api=1&query=Gifted%20Hands%20Phlebotomy%20Llc&query_place_id=ChIJM9zgMQD37IgRqy5Q_4y1m9I
Gentle Touch Laboratory,5,40,118 Conner St NE,,Live Oak,Florida,US,https://gentletouchfl.com/,(386) 205-2207,Drug testing service,https://www.google.com/maps/search/?api=1&query=Gentle%20Touch%20Laboratory&query_place_id=ChIJLZRO-5jf7ogRDBTebFmDgm4
Patel Labs - Quest,4.8,192,10800 Panama City Beach Pkwy #200,,Panama City Beach,Florida,US,http://www.patellabs850.com/,(850) 964-0808,Laboratory,https://www.google.com/maps/search/?api=1&query=Patel%20Labs%20-%20Quest&query_place_id=ChIJ8dTY2I-Pk4gR4kc51Vex1cg
Medi Check Direct,4.1,14,154 Hickory Ave W,,Crestview,Florida,US,http://www.medicheckdirect.com/,(850) 682-5222,Physical examination center,https://www.google.com/maps/search/?api=1&query=Medi%20Check%20Direct&query_place_id=ChIJOyXza6h0kYgRcA1V4rkTX-s
Jet Medical Center - Tallahassee,2.9,35,1838 Jaclif Ct,,Tallahassee,Florida,US,https://jetmedicalcenter.com/jet-medical-center/,(850) 889-1234,Medical Center,https://www.google.com/maps/search/?api=1&query=Jet%20Medical%20Center%20-%20Tallahassee&query_place_id=ChIJt1kKBAdf7IgRdsVa9FTtBHk
OneBlood,4.3,36,2696 Martin Luther King Jr Blvd,,Panama City,Florida,US,https://www.oneblood.org/?utm_source=gmb&utm_medium=yext,(850) 785-9398,Blood donation center,https://www.google.com/maps/search/?api=1&query=OneBlood&query_place_id=ChIJrxeUsc6Dk4gRpTh3WKZC6iU
Gifted Hands Mobile Phlebotomy Llc,,0,4909 N Monroe St,,Tallahassee,Florida,US,https://giftedhandsmobilephlebotomyllc.com/,(229) 254-9203,Medical office,https://www.google.com/maps/search/?api=1&query=Gifted%20Hands%20Mobile%20Phlebotomy%20Llc&query_place_id=ChIJj2A93p_37IgRbzxKa8c_8Hc
Any Lab Test Now,4.9,130,330 W 23rd St Suite H,,Panama City,Florida,US,https://www.anylabtestnow.com/panama-city-32405/,(850) 200-0180,Drug testing service,https://www.google.com/maps/search/?api=1&query=Any%20Lab%20Test%20Now&query_place_id=ChIJMxbakgeDk4gR-It1K2-cIUs
Divine Mobile Phlebotomy Services,5,5,4751 Best Rd Suite 400P,,Atlanta,Georgia,US,https://www.dmpservice.site/?utm_source=google&utm_medium=wix_google_business_profile&utm_campaign=9597214995333659934,(470) 829-0120,Laboratory,https://www.google.com/maps/search/?api=1&query=Divine%20Mobile%20Phlebotomy%20Services&query_place_id=ChIJ68_E0orj9IgR8-Fe-Ctu488
Caring Hands Mobile Phlebotomy,5,8,1445 Woodmont Ln NW suite 558,,Atlanta,Georgia,US,https://caringhandsphlebo.com/,(678) 603-4240,Laboratory,https://www.google.com/maps/search/?api=1&query=Caring%20Hands%20Mobile%20Phlebotomy&query_place_id=ChIJyZFLxBcZjggRPfCq2f8C8_c
Lifesouth Community Blood Centers,3.9,10,301 Woodrow Wilson Dr,,Valdosta,Georgia,US,http://lifesouth.org/,(229) 219-1616,Blood donation center,https://www.google.com/maps/search/?api=1&query=Lifesouth%20Community%20Blood%20Centers&query_place_id=ChIJJ9Tc_iRn7ogRlo7cysRJ7CQ
Hawaii Medical Training Center - Honolulu,4.8,72,900 N Nimitz Hwy Suite 202,,Honolulu,Hawaii,US,http://www.gohmtc.com/,(808) 392-3037,Medical school,https://www.google.com/maps/search/?api=1&query=Hawaii%20Medical%20Training%20Center%20-%20Honolulu&query_place_id=ChIJhzD7xT9kAHwRXMEmKLC1AHU
Lab Services at Idaho Elks Children's Pavilion: Boise,,0,305 E Jefferson St,,Boise,Idaho,US,https://www.stlukesonline.org/communities-and-locations/facilities/labs-and-imaging-centers/lab-services-at-idaho-elks-childrens-pavilion,(208) 706-5437,Medical laboratory,https://www.google.com/maps/search/?api=1&query=Lab%20Services%20at%20Idaho%20Elks%20Children's%20Pavilion%3A%20Boise&query_place_id=ChIJreCK27n5rlQRwIizouRp9xo
Valor Health,4,148,1202 E Locust St,,Emmett,Idaho,US,http://www.valorhealth.org/,(208) 365-3561,Hospital,https://www.google.com/maps/search/?api=1&query=Valor%20Health&query_place_id=ChIJD9vsQosJr1QRmagF5riNLPU
Interpath Laboratory Inc,2.2,29,8660 W Emerald St #102,,Boise,Idaho,US,http://www.interpathlab.com/,(208) 375-2350,Medical laboratory,https://www.google.com/maps/search/?api=1&query=Interpath%20Laboratory%20Inc&query_place_id=ChIJzzRnAm5WrlQRPSnlztlH5f0
"St. Luke's Lab Services: Meridian, E. Copper Point Dr.",5,14,3041 E Copper Point Dr,,Meridian,Idaho,US,https://www.stlukesonline.org/communities-and-locations/facilities/labs-and-imaging-centers/st-lukes-lab-services-meridian-e-copper-point-dr,(208) 706-9899,Blood testing service,https://www.google.com/maps/search/?api=1&query=St.%20Luke's%20Lab%20Services%3A%20Meridian%2C%20E.%20Copper%20Point%20Dr.&query_place_id=ChIJAfNBc8lRrlQRpISI5PEzBe0
Lab Services at St. Luke's Meridian Medical Center,3.8,18,520 S Eagle Rd,,Meridian,Idaho,US,https://www.stlukesonline.org/communities-and-locations/facilities/labs-and-imaging-centers/lab-services-at-st-lukes-meridian-medical-center,(208) 706-1536,Blood testing service,https://www.google.com/maps/search/?api=1&query=Lab%20Services%20at%20St.%20Luke's%20Meridian%20Medical%20Center&query_place_id=ChIJJxdByu5XrlQRNUg0dwZj0mU
North Idaho College Workforce Training Center,4.2,29,525 Clearwater Loop,,Post Falls,Idaho,US,https://www.nic.edu/wtc/,(208) 769-3333,Trade school,https://www.google.com/maps/search/?api=1&query=North%20Idaho%20College%20Workforce%20Training%20Center&query_place_id=ChIJbTtoi9_cYVMR9NEcTAci_pw
"Veinpire, Mobile Phlebotomy Services & Training",4.5,80,500 W North St,,Springfield,Illinois,US,http://veinpirellc.com/,(866) 503-3443,Vocational school,https://www.google.com/maps/search/?api=1&query=Veinpire%2C%20Mobile%20Phlebotomy%20Services%20%26%20Training&query_place_id=ChIJoT8qmUw5dYgRLj1ySI4OQIs
Northwestern Medicine Laboratory Services Huntley,4,8,"Medical Office, 10350 Haligus Rd Building 1",,Huntley,Illinois,US,https://www.nm.org/locations/huntley-hospital-laboratory-services?utm_source=yext&utm_medium=other+location&utm_campaign=online+listings&y_source=1_OTg5MDM4NS03MTUtbG9jYXRpb24ud2Vic2l0ZQ%3D%3D,(630) 933-2633,Medical laboratory,https://www.google.com/maps/search/?api=1&query=Northwestern%20Medicine%20Laboratory%20Services%20Huntley&query_place_id=ChIJz98Bb4cTD4gR6bqkC6TGkyE
NICL Laboratories,3.8,17,306 Era Dr,,Northbrook,Illinois,US,http://nicl.com/,(847) 509-9779,Medical laboratory,https://www.google.com/maps/search/?api=1&query=NICL%20Laboratories&query_place_id=ChIJg-QJJka_D4gRQlIQfIvtDlU
STAT LABORATORY,5,1,10716 S Roberts Rd,,Palos Hills,Illinois,US,http://statlabinc.com/,(708) 608-8948,Medical laboratory,https://www.google.com/maps/search/?api=1&query=STAT%20LABORATORY&query_place_id=ChIJi75Bhf84DogRKjfnLraQldU
Trilab Health - Diagnostics,5,17,1780 Green Bay Rd Ste 205,,Highland Park,Illinois,US,https://g.page/r/Ce6o8dUQCnMFEAg/review,(847) 474-5391,Medical laboratory,https://www.google.com/maps/search/?api=1&query=Trilab%20Health%20-%20Diagnostics&query_place_id=ChIJfUf1EJ_BD4gR7qjx1RAKcwU
NICL Laboratories - McHenry,4.7,7,4302 W Crystal Lake Rd Unit B,,McHenry,Illinois,US,http://www.nicl.com/,(815) 578-1547,Medical laboratory,https://www.google.com/maps/search/?api=1&query=NICL%20Laboratories%20-%20McHenry&query_place_id=ChIJEz2kQG1xD4gRzP-Yyuhy1xY
Stars Academy School Of Phlebotomy,4.7,48,8077 W 95th St,,Hickory Hills,Illinois,US,http://www.stars-academy.net/,(708) 233-0590,Medical school,https://www.google.com/maps/search/?api=1&query=Stars%20Academy%20School%20Of%20Phlebotomy&query_place_id=ChIJkyTEhmo4DogRhnYVkOVEeAA
Stat Mobile Phlebotomy Laboratory,,0,1 O'Plaine Rd,,Gurnee,Illinois,US,https://www.smobilep.com/contact,(872) 813-4712,Medical laboratory,https://www.google.com/maps/search/?api=1&query=Stat%20Mobile%20Phlebotomy%20Laboratory&query_place_id=ChIJXb-bx2ySD4gRwUkLqsVMAjo
Insurance Physical Services / In-Home Phlebotomy services,5,1,3664 Congressional Pkwy,,Elgin,Illinois,US,,(224) 227-7675,Home health care service,https://www.google.com/maps/search/?api=1&query=Insurance%20Physical%20Services%20%2F%20In-Home%20Phlebotomy%20services&query_place_id=ChIJ95hwT1iqD4gRjTsaIBvaqyQ
STAT MOBILE PHLEBOTOMY AND LABORATORY LLC,4.3,6,2835 Belvidere Rd Suit 112,,Waukegan,Illinois,US,http://www.smobilep.com/,(872) 813-4712,Laboratory,https://www.google.com/maps/search/?api=1&query=STAT%20MOBILE%20PHLEBOTOMY%20AND%20LABORATORY%20LLC&query_place_id=ChIJF8DbQOOTD4gR5ldbP0J6l1o
Northwestern Medicine Laboratory Services Crystal Lake,4.6,5,360 Station Dr Suite 150,,Crystal Lake,Illinois,US,https://www.nm.org/locations/laboratory-services-crystal-lake?utm_source=yext&utm_medium=other+location&utm_campaign=online+listings&y_source=1_OTg5MDQxNy03MTUtbG9jYXRpb24ud2Vic2l0ZQ%3D%3D,(630) 933-2633,Medical laboratory,https://www.google.com/maps/search/?api=1&query=Northwestern%20Medicine%20Laboratory%20Services%20Crystal%20Lake&query_place_id=ChIJk_L3oslyD4gRcBFPx-0tHcQ
VIP Labs,5,1,722 W Exchange St,,Crete,Illinois,US,http://www.myviplabs.com/,(708) 852-3171,Medical laboratory,https://www.google.com/maps/search/?api=1&query=VIP%20Labs&query_place_id=ChIJW8dxoPggcK0R0XFrKZQSkPA
HEALTH IS WEALTH MOBILE PHLEBOTOMY LLC,5,6,3212 Mallard Cove Ln suite d,,Fort Wayne,Indiana,US,https://www.healthiswealthmobile.com/,(260) 999-3387,Blood testing service,https://www.google.com/maps/search/?api=1&query=HEALTH%20IS%20WEALTH%20MOBILE%20PHLEBOTOMY%20LLC&query_place_id=ChIJjcv9s8bnFYgRdKnaj3r4eXw
"LabLife Phlebotomy Services,LLC",5,10,607 S Lake St,,Gary,Indiana,US,https://lablifephlebotomy.com/,(219) 285-1522,Medical laboratory,https://www.google.com/maps/search/?api=1&query=LabLife%20Phlebotomy%20Services%2CLLC&query_place_id=ChIJn5HtBinBEYgRc4_3WWjY7d4
American Health Associates,,0,10204 Lantern Rd,,Fishers,Indiana,US,https://www.americanhealthassociates.com/,(800) 522-7556,Medical laboratory,https://www.google.com/maps/search/?api=1&query=American%20Health%20Associates&query_place_id=ChIJT1lTrUqzFIgRVGJL9pBhhW0
Mobile phlebotomy plus LLC,,0,814 Main St,,Benton,Kentucky,US,,(270) 205-5008,Medical laboratory,https://www.google.com/maps/search/?api=1&query=Mobile%20phlebotomy%20plus%20LLC&query_place_id=ChIJVVVFDmNDeogRy_Ww-6U0EOo
Hazard ARH Lab,,0,100 Medical Center Dr Suite 103,,Hazard,Kentucky,US,https://providers.arh.org/location/Hazard%20ARH%20Lab/LOC0000132790?utm_source=gbp&utm_medium=yext,(606) 439-6666,Medical laboratory,https://www.google.com/maps/search/?api=1&query=Hazard%20ARH%20Lab&query_place_id=ChIJT5VnU1HHRIgRGi8QAaJc88c
Highlands ARH Lab,,0,5000 KY-321 Suite 102,,Prestonsburg,Kentucky,US,https://providers.arh.org/location/Highlands%20ARH%20Lab/LOC0000132805?utm_source=gbp&utm_medium=yext,(606) 886-7775,Medical laboratory,https://www.google.com/maps/search/?api=1&query=Highlands%20ARH%20Lab&query_place_id=ChIJfzl3UwwHRYgRho1zaUJUv1g
APPS Paramedical of Lexington,,0,1795 Alysheba Way UNIT 1003,,Lexington,Kentucky,US,http://www.appslive.com/,(859) 554-5006,Home health care service,https://www.google.com/maps/search/?api=1&query=APPS%20Paramedical%20of%20Lexington&query_place_id=ChIJk50IMT1PQogRsiOkpLKV0OM
Mercy Health - Lourdes Lab Services,5,1,1532 Lone Oak Rd,,Paducah,Kentucky,US,https://www.mercy.com/locations/specialty-locations/lab-and-imaging-centers/mercy-health-lourdes-lab-services?utm_source=google&utm_medium=organic&utm_content=local_website_link,(270) 444-2148,Medical laboratory,https://www.google.com/maps/search/?api=1&query=Mercy%20Health%20-%20Lourdes%20Lab%20Services&query_place_id=ChIJa14cqWUbeogRRDRdkqJxsjQ
Owensboro Health Twin Lakes Medical Center Laboratory Services,4.8,23,910 Wallace Ave,,Leitchfield,Kentucky,US,https://www.owensborohealth.org/locations/ohmg-profile/owensboro-health-twin-lakes-medical-center-laboratory-services?utm_source=local-listing&utm_medium=organic&utm_campaign=website-link,(270) 259-9496,Medical laboratory,https://www.google.com/maps/search/?api=1&query=Owensboro%20Health%20Twin%20Lakes%20Medical%20Center%20Laboratory%20Services&query_place_id=ChIJc1QFGX1Nb4gRNXjiLALxAlI
Mobile Phlebotomy Plus Lab Services,,0,,,Mayfield,Kentucky,US,,,,https://www.google.com/maps/search/?api=1&query=Mobile%20Phlebotomy%20Plus%20Lab%20Services&query_place_id=ChIJm-Qa7dAxeogR3SkvT4QYoDk
Mercy Health - Paducah Lab Services,4.5,2,225 Medical Center Dr Suite 201A,,Paducah,Kentucky,US,https://www.mercy.com/locations/specialty-locations/lab-and-imaging-centers/mercy-health-paducah-lab-services?utm_source=google&utm_medium=organic&utm_content=local_website_link,(270) 444-4252,Medical laboratory,https://www.google.com/maps/search/?api=1&query=Mercy%20Health%20-%20Paducah%20Lab%20Services&query_place_id=ChIJRx-vy-YbeogRZ-xgwveHzzg
Medical Career & Technical College,4.6,67,630 University Shopping Center,,Richmond,Kentucky,US,https://medicalcareerandtechnicalcollege.edu/google/,(859) 624-1988,Medical school,https://www.google.com/maps/search/?api=1&query=Medical%20Career%20%26%20Technical%20College&query_place_id=ChIJGY_Y8wYCQ4gRpKE9qm542eY
Angels Phlebotomy Mobile Lab,5,4,2015 W Airline Hwy,,Laplace,Louisiana,US,http://angelsphlebotomy.com/,(504) 356-2207,Laboratory,https://www.google.com/maps/search/?api=1&query=Angels%20Phlebotomy%20Mobile%20Lab&query_place_id=ChIJI-UhIkTTIIYR_QUiuIKb4DM
The Mobile Phlebotomist Health and Wellness Testing,5,1,1901 Manhattan Blvd Building D #3622,,Harvey,Louisiana,US,http://www.themobilephlebotomist.com/,(504) 901-1017,Home health care service,https://www.google.com/maps/search/?api=1&query=The%20Mobile%20Phlebotomist%20Health%20and%20Wellness%20Testing&query_place_id=ChIJqbLv5canIIYR6OOzYelYFjw
One Stick That's It Lab,,0,2626 Charles Dr Suite C,,Chalmette,Louisiana,US,,(504) 516-3645,Laboratory,https://www.google.com/maps/search/?api=1&query=One%20Stick%20That's%20It%20Lab&query_place_id=ChIJGeNB9a4dnogR5ikRjxt1pBo
"Veintastic Skillz, LLC",,0,1 Galleria Blvd Suite 1900,,Metairie,Louisiana,US,http://www.veintasticskillz.com/,(504) 345-6009,Home health care service,https://www.google.com/maps/search/?api=1&query=Veintastic%20Skillz%2C%20LLC&query_place_id=ChIJX3d4fq2qSgYRXaawfSD1R5Y
Accurate Affordable Mobile Lab,,0,205 Holiday Blvd,,Covington,Louisiana,US,https://www.accurateaffordablemobilelabs.com/?utm_source=google&utm_medium=wix_google_business_profile&utm_campaign=18200922164796355534,(800) 376-1401,Local medical services,https://www.google.com/maps/search/?api=1&query=Accurate%20Affordable%20Mobile%20Lab&query_place_id=ChIJDRVAnXRdJ4YRpIXFgg7TiR0
Fleur De Lis Labs,4.7,22,1927 Corporate Square Dr,,Slidell,Louisiana,US,http://www.fleurdelislabs.com/,(985) 635-4585,Medical laboratory,https://www.google.com/maps/search/?api=1&query=Fleur%20De%20Lis%20Labs&query_place_id=ChIJN_w2ZfjnnYgRfLdZiO0CkCk
JenCare Senior Medical Center,4.6,139,3530 Houma Blvd Suite 300,,Metairie,Louisiana,US,https://www.jencaremed.com/find-a-location/new-orleans-louisiana/metairie/?utm_source=google&utm_medium=organic&utm_campaign=chenmed_local_listing&utm_content=gbp_metairie&y_source=1_Mzk0OTU3NS03MTUtbG9jYXRpb24ud2Vic2l0ZQ%3D%3D,(504) 264-5142,Medical clinic,https://www.google.com/maps/search/?api=1&query=JenCare%20Senior%20Medical%20Center&query_place_id=ChIJHcwMX1qwIIYR1lE-0Sp4tG8
Allimac Mobile Phlebotomy Lab,,0,4657 Westbank Expy,,Marrero,Louisiana,US,https://allimacmobilelab.com/contact-us,(504) 516-5988,,https://www.google.com/maps/search/?api=1&query=Allimac%20Mobile%20Phlebotomy%20Lab&query_place_id=ChIJ__-P_G2kIIYRgZVWywRmQzU
Impressive Healthcare Training & Laboratory Services,,0,10555 Lake Forest Blvd Ste 3g Bldg B,,New Orleans,Louisiana,US,,(888) 879-1492,Public educational institution,https://www.google.com/maps/search/?api=1&query=Impressive%20Healthcare%20Training%20%26%20Laboratory%20Services&query_place_id=ChIJy0tcO3sCnogR8eBYVQcPwAc
Terrebonne General Outpatient Laboratory,5,2,"Medical Atrium Building, #103",,Houma,Louisiana,US,https://www.tghealthsystem.com/clinics/outpatient-laboratory/,(985) 873-4039,Medical laboratory,https://www.google.com/maps/search/?api=1&query=Terrebonne%20General%20Outpatient%20Laboratory&query_place_id=ChIJEcDNeEYFIYYRO5TmbvoxZCE
Phlebotomy Lab at North Dartmouth,5,1,"Children's at North, 500 Faunce Corner Road Boston, North",,Dartmouth,MA,US,https://www.childrenshospital.org/patient-resources/your-visit,(781) 216-2400,Blood testing service,https://www.google.com/maps/search/?api=1&query=Phlebotomy%20Lab%20at%20North%20Dartmouth&query_place_id=ChIJuZOTesPl5IkRpoo90oQ8HVY
NorDx,3,50,100 Campus Dr #126,,Scarborough,Maine,US,https://www.mainehealth.org/Locations/NorDx/NorDx-Scarborough-Campus-Dr,(207) 396-7980,Medical laboratory,https://www.google.com/maps/search/?api=1&query=NorDx&query_place_id=ChIJgfHm2rafskwRlW3B_Av6qAg
Lacasse Phlebotomy Services,4.8,22,77 Sewall St Unit 1001,,Augusta,Maine,US,http://lacassephlebotomyservices.com/,(207) 492-3005,Home health care service,https://www.google.com/maps/search/?api=1&query=Lacasse%20Phlebotomy%20Services&query_place_id=ChIJTSLwIvv7rUwR9k7fRKEmUvA
NorDx,3,16,22 Bramhall St,,Portland,Maine,US,https://www.mainehealth.org/Locations/NorDx/NorDx-Portland-Congress,(800) 773-5814,Medical laboratory,https://www.google.com/maps/search/?api=1&query=NorDx&query_place_id=ChIJc1lr0wicskwRrYuOcO9eLuI
"Mobile Phlebotomy Heroes, LLC",5,8,7310 Ritchie Hwy Suite 200,,Glen Burnie,Maryland,US,https://www.mobilephlebotomyheroes.com/?utm_source=google&utm_medium=wix_google_business_profile&utm_campaign=4474247327471262685,(667) 228-2835,Laboratory,https://www.google.com/maps/search/?api=1&query=Mobile%20Phlebotomy%20Heroes%2C%20LLC&query_place_id=ChIJefTI91f9t4kRdHI9lPbFP8o
A & N Medical Mobile phlebotomy Services,5,32,14504 Greenview Dr #205,,Laurel,Maryland,US,http://www.anmphleb2021.wixsite.com/website,(202) 525-6015,Medical laboratory,https://www.google.com/maps/search/?api=1&query=A%20%26%20N%20Medical%20Mobile%20phlebotomy%20Services&query_place_id=ChIJW8r7S77dt4kRcwU5v6-QojY
HarmoniCare Mobile Phlebotmy Services,5,1,1410 Crain Hwy N #3b,,Glen Burnie,Maryland,US,http://harmonicarellc.com/,(410) 969-5227,Medical laboratory,https://www.google.com/maps/search/?api=1&query=HarmoniCare%20Mobile%20Phlebotmy%20Services&query_place_id=ChIJgamSi5n9t4kRfIaA20mgL8o
Mindful Practice Phlebotomy,5,6,5602 Baltimore National Pike,,Catonsville,Maryland,US,https://www.mindfulpracticephlebotomy.com/contact,(443) 531-0226,Vocational school,https://www.google.com/maps/search/?api=1&query=Mindful%20Practice%20Phlebotomy&query_place_id=ChIJq6o6QRscyIkR5R1Sj0BmQ3w
MedStar Health Pathology and Lab Center at MedStar St. Mary's Hospital,2.3,7,23000 Moakley St #205,,Leonardtown,Maryland,US,https://www.medstarhealth.org/services/pathology-and-laboratory-medicine,(301) 475-2494,Medical laboratory,https://www.google.com/maps/search/?api=1&query=MedStar%20Health%20Pathology%20and%20Lab%20Center%20at%20MedStar%20St.%20Mary's%20Hospital&query_place_id=ChIJLcNXGABmt4kRr1zfCX9R4cw
Diagnostic Center and Laboratory Medicine at GBMC,4.4,7,6701 MD-139 #3100,,Towson,Maryland,US,https://www.gbmc.org/diagnostic-lab,(443) 849-2213,Medical clinic,https://www.google.com/maps/search/?api=1&query=Diagnostic%20Center%20and%20Laboratory%20Medicine%20at%20GBMC&query_place_id=ChIJ64tzRZgPyIkRSbQi0a95Cps
"CMAG Health Solutions, LLC",5,1,11155 Dolfield Blvd Suite 110,,Owings Mills,Maryland,US,https://www.cmaghealth.com/,(410) 517-2624,Home health care service,https://www.google.com/maps/search/?api=1&query=CMAG%20Health%20Solutions%2C%20LLC&query_place_id=ChIJaQT8JXgXyIkRtkVdvkkKQVg
Emerson Health Lab - Concord,3.7,3,"Emerson Hospital Medical Office Building, 131 Old Rd to 9 Acre Corner",,Concord,Massachusetts,US,https://emersonhealth.org/locations/emerson-health-lab-at-emerson-hospital/,(978) 287-3366,Medical laboratory,https://www.google.com/maps/search/?api=1&query=Emerson%20Health%20Lab%20-%20Concord&query_place_id=ChIJNflVbCab44kRjcldNMKdqR4
Laboratory | Beverly Hospital,3.5,4,85 Herrick St,,Beverly,Massachusetts,US,https://beverlyhospital.org/services/laboratory,(978) 922-3000 ext. 6009,Medical laboratory,https://www.google.com/maps/search/?api=1&query=Laboratory%20%7C%20Beverly%20Hospital&query_place_id=ChIJhaWqgZMW44kRPl-_FPFtt9c
"Paris Paramedical Services, LLC",4.5,8,800 W Cummings Park # 5225,,Woburn,Massachusetts,US,https://www.parisparamedicalservices.com/,(603) 897-9277,Drug testing service,https://www.google.com/maps/search/?api=1&query=Paris%20Paramedical%20Services%2C%20LLC&query_place_id=ChIJK-jotTp144kRsm7DJhEq0Cg
Salem Hospital Laboratory,4.3,6,81 Highland Ave,,Salem,Massachusetts,US,https://www.massgeneralbrigham.org/en/patient-care/services-and-specialties/locations/salem-hospital-blood-draw-lab-north-shore-physicians-group-hospital-main-campus,(978) 354-4497,Medical laboratory,https://www.google.com/maps/search/?api=1&query=Salem%20Hospital%20Laboratory&query_place_id=ChIJhyVtu0A04ocRJScRZCUKnI8
Vital Draws,,0,100 Cummings Center Suite 207P,,Beverly,Massachusetts,US,https://www.vitaldraws.com/,(978) 702-3818,Home health care service,https://www.google.com/maps/search/?api=1&query=Vital%20Draws&query_place_id=ChIJFXAKXkcX44kRmj7PN1Q73fM
Phlebotomy Lab | Boston Children's Hospital,,0,"Children's Hospital, 300 Longwood Ave",,Boston,Massachusetts,US,https://www.childrenshospital.org/departments/laboratory-medicine,(617) 355-5618,Blood testing service,https://www.google.com/maps/search/?api=1&query=Phlebotomy%20Lab%20%7C%20Boston%20Children's%20Hospital&query_place_id=ChIJRYJGLFV544kRlopZoiGCeM8
Beyond Mobile Health Inc.,5,9,361 Newbury St #450,,Boston,Massachusetts,US,http://www.beyondmobilehealth.com/,(857) 557-7197,Home health care service,https://www.google.com/maps/search/?api=1&query=Beyond%20Mobile%20Health%20Inc.&query_place_id=ChIJDR5as0t744kRnOnKy2d8U2U
Mass Mobile Phlebotomy Services LLC,4.1,13,361 Newbury St,,Boston,Massachusetts,US,http://www.beyondmobilehealth.com/,(857) 557-7197,Home health care service,https://www.google.com/maps/search/?api=1&query=Mass%20Mobile%20Phlebotomy%20Services%20LLC&query_place_id=ChIJS5njn6J944kRAoWpSsn8w8g
"Global ProLab, Inc.",4.6,9,21 Vesey Rd,,Randolph,Massachusetts,US,http://www.globalprolab.com/,(781) 885-0742,Blood testing service,https://www.google.com/maps/search/?api=1&query=Global%20ProLab%2C%20Inc.&query_place_id=ChIJG_eGTPKD5IkRH0-lVHnAJls
Mildred Elley - Pittsfield Campus,4.1,34,100 West St,,Pittsfield,Massachusetts,US,https://www.mildred-elley.edu/campus/pittsfield/,(413) 358-4846,Medical school,https://www.google.com/maps/search/?api=1&query=Mildred%20Elley%20-%20Pittsfield%20Campus&query_place_id=ChIJ7f6gp0VO54kRPCoSZ-gJew4
Pinnacle Mobile Phlebotomy,5,28,27620 Farmington Rd b2,,Farmington Hills,Michigan,US,http://www.thephlebotomist.net/,(877) 678-9551,Laboratory,https://www.google.com/maps/search/?api=1&query=Pinnacle%20Mobile%20Phlebotomy&query_place_id=ChIJ-xt6LYuwJIgRWYQem5co0_g
Compassionate Touch Lab Services,5,15,21225 Kelly Rd unit 5F,,Eastpointe,Michigan,US,http://www.compassionatetouchlab.com/,(586) 328-7287,Laboratory,https://www.google.com/maps/search/?api=1&query=Compassionate%20Touch%20Lab%20Services&query_place_id=ChIJ3bGT0cvXJIgRNJ_T9oBRN_0
1 on 1 Phlebotomy,5,8,3200 Greenfield Rd,,Dearborn,Michigan,US,http://www.phlebotomyus.net/,(888) 509-8917,Laboratory,https://www.google.com/maps/search/?api=1&query=1%20on%201%20Phlebotomy&query_place_id=ChIJt2cKgM-vgocRsWT4P7DeR6M
One-Stop Screenings LLC,4.8,50,36358 Garfield Rd Suite 3,,Clinton Township,Michigan,US,https://one-stopscreenings.com/,(586) 350-0900,Blood testing service,https://www.google.com/maps/search/?api=1&query=One-Stop%20Screenings%20LLC&query_place_id=ChIJH4iQCIPZJIgR5I5hyNSsLts
"Mobile Phlebotomy Service Corporation,MPS",,0,9132 Norconk Rd,,Bear Lake,Michigan,US,,(231) 299-7928,Laboratory,https://www.google.com/maps/search/?api=1&query=Mobile%20Phlebotomy%20Service%20Corporation%2CMPS&query_place_id=ChIJSdvpqD8dR0ARfm2NStwOy_g
Marketlab,5,1,6850 Southbelt Dr,,Caledonia,Michigan,US,https://www.marketlab.com/,(866) 237-3722,Medical supply store,https://www.google.com/maps/search/?api=1&query=Marketlab&query_place_id=ChIJo6JefOlLGIgR00BONjkauvw
"MPCM Services, Mobile Phlebotomy of Central Michigan",5,1,139 N Midland St,,Merrill,Michigan,US,http://mpcmservices.com/,(989) 715-2050,Blood testing service,https://www.google.com/maps/search/?api=1&query=MPCM%20Services%2C%20Mobile%20Phlebotomy%20of%20Central%20Michigan&query_place_id=ChIJbf6Q9hw0IogRglHztzY393o
Munson Laboratories at Grand Traverse Commerce Centre,3.3,40,3287 W South Airport Rd,,Traverse City,Michigan,US,https://www.munsonhealthcare.org/locations/location-details?practice=81,(231) 392-0380,Medical laboratory,https://www.google.com/maps/search/?api=1&query=Munson%20Laboratories%20at%20Grand%20Traverse%20Commerce%20Centre&query_place_id=ChIJkRbXUKgzHogR6HJnIZkRrQE
Versiti Blood Center of Michigan,4.6,33,2575 Aero-Park Dr,,Traverse City,Michigan,US,https://www.versiti.org/blood-donation-locations/michigan/traverse-city-blood-donation-center?utm_source=google&utm_medium=organic&utm_campaign=google-my-business&utm_content=Yext,(866) 642-5663,Blood bank,https://www.google.com/maps/search/?api=1&query=Versiti%20Blood%20Center%20of%20Michigan&query_place_id=ChIJH0L7egzNH4gRz6wwSUQ4Rrk
Mobile Phlebotomist,5,2,7420 Unity Ave N,,Brooklyn Park,Minnesota,US,,(763) 445-9800,Medical laboratory,https://www.google.com/maps/search/?api=1&query=Mobile%20Phlebotomist&query_place_id=ChIJ5aOar7A7s1IR6YzsH8miXdE
KinnRidge Mobile Phlebotomy,5,4,9975 Valley View Rd suite f,,Eden Prairie,Minnesota,US,https://www.kinnridgemobilephlebotomy.com/?utm_source=google&utm_medium=wix_google_business_profile&utm_campaign=2909033922330665337,(612) 361-1381,Medical laboratory,https://www.google.com/maps/search/?api=1&query=KinnRidge%20Mobile%20Phlebotomy&query_place_id=ChIJ1avVWv0j9ocRIrzswR4Tedk
Pascagoula Hospital Outpatient Lab,5,1,2809 Denny Ave,,Pascagoula,Mississippi,US,https://singingriverhealthsystem.com/locations/pascagoula-hospital-outpatient-lab/?utm_source=gbp,(228) 809-5166,Diagnostic center,https://www.google.com/maps/search/?api=1&query=Pascagoula%20Hospital%20Outpatient%20Lab&query_place_id=ChIJnz4fNDDpm4gRAX0jI-uda0g
"Vital Hearts, LLC",5,312,731 S Pear Orchard Rd #8,,Ridgeland,Mississippi,US,https://www.vitalheartsllc.org/,(601) 473-1950,Vocational school,https://www.google.com/maps/search/?api=1&query=Vital%20Hearts%2C%20LLC&query_place_id=ChIJheIeL9bRKYYRuphd8DGvnkQ
MedFusion Inkk,1,1,321 S Main St,,Forest,Mississippi,US,https://www.medfusioninkk.com/,(601) 564-7141,Medical laboratory,https://www.google.com/maps/search/?api=1&query=MedFusion%20Inkk&query_place_id=ChIJj-p-kU9XgogRd-k6WBQTyII
MobiMed Plus,,0,12320 Ashley Dr d,,Gulfport,Mississippi,US,https://www.mobimedplus.com/,(228) 609-9752,Drug testing service,https://www.google.com/maps/search/?api=1&query=MobiMed%20Plus&query_place_id=ChIJkX-CvZoXnIgR9IKkKbuEnwA
"On the Road Labs, LLC",5,42,D'Iberville Blvd,,D'Iberville,Mississippi,US,http://www.ontheroadlabs.com/,(757) 726-7950,Laboratory,https://www.google.com/maps/search/?api=1&query=On%20the%20Road%20Labs%2C%20LLC&query_place_id=ChIJATrX1ZZc_q0R4LOflIaKc_4
Needles On The Go Mobile Phlebotomy,5,2,10001 E 67th St Suite 101,,Raytown,Missouri,US,http://www.needlesonthego.com/,(816) 616-8060,Laboratory,https://www.google.com/maps/search/?api=1&query=Needles%20On%20The%20Go%20Mobile%20Phlebotomy&query_place_id=ChIJt1SkQczjwIcRPr0gpeFy6aI
Tender Sticks Mobile Phlebotomy Service LLC,5,1,200 NE Missouri Rd Suit 200,,Lee's Summit,Missouri,US,http://www.tendersticks.com/,(816) 542-0900,Medical laboratory,https://www.google.com/maps/search/?api=1&query=Tender%20Sticks%20Mobile%20Phlebotomy%20Service%20LLC&query_place_id=ChIJsYaTRZgfwYcR7LkmIEL3Tzw
Kansas City School of Phlebotomy,4.7,267,2838 Warwick Trfy,,Kansas City,Missouri,US,http://www.kcphleb.com/,(816) 974-8823,Adult education school,https://www.google.com/maps/search/?api=1&query=Kansas%20City%20School%20of%20Phlebotomy&query_place_id=ChIJowyiSj3wwIcR3G9mKuX6luU
Caresticks Mobile Phlebotomy,5,40,547 Grand Blvd,,Kansas City,Missouri,US,http://www.caresticks.com/,(816) 295-2795,Home health care service,https://www.google.com/maps/search/?api=1&query=Caresticks%20Mobile%20Phlebotomy&query_place_id=ChIJXVhSo_nxwIcRvyvzuQxAFxI
Massey Mobile Phlebotomy Service LLC.,5,34,6439 Plymouth Ave #110,,St. Louis,Missouri,US,http://www.masseymps.com/,(314) 712-7166,Laboratory,https://www.google.com/maps/search/?api=1&query=Massey%20Mobile%20Phlebotomy%20Service%20LLC.&query_place_id=ChIJLd8GzIjL2IcRICW8nh5RTBQ
Bozeman Health Outpatient Services at North 19th,3.7,15,120 N 19th Ave D,,Bozeman,Montana,US,http://bozemanhealth.org/,(406) 414-4600,Medical laboratory,https://www.google.com/maps/search/?api=1&query=Bozeman%20Health%20Outpatient%20Services%20at%20North%2019th&query_place_id=ChIJk8tldbFFRVMRuqzpjVjAyuA
Exeter Hospital Laboratory,,0,5 Alumni Dr,,Exeter,New Hampshire,US,https://www.corephysicians.org/Services/Other-Services/Laboratory-Services,(603) 580-6600,Medical laboratory,https://www.google.com/maps/search/?api=1&query=Exeter%20Hospital%20Laboratory&query_place_id=ChIJZZkZlOju4okRjyInzxc-xsw
Advanced Mobile Phlebotomy Professionals,5,16,19 Colonial Woods Dr,,West Orange,New Jersey,US,https://www.advancedmobilephlebotomy.com/,(973) 609-2639,Blood testing service,https://www.google.com/maps/search/?api=1&query=Advanced%20Mobile%20Phlebotomy%20Professionals&query_place_id=ChIJcTkbkXwLF6YRc7aFiNH-uqs
TOPLAB,3.7,39,67-71 E Willow St,,Millburn,New Jersey,US,https://www.toplabdirect.com/,(877) 355-3580,Drug testing service,https://www.google.com/maps/search/?api=1&query=TOPLAB&query_place_id=ChIJDXM0jdGtw4kRpHv7nxQ8WvA
Aculabs Inc,2.5,20,2 Kennedy Blvd,,East Brunswick,New Jersey,US,http://www.aculabs.com/,(732) 777-2588,Medical laboratory,https://www.google.com/maps/search/?api=1&query=Aculabs%20Inc&query_place_id=ChIJw_6GV4DIw4kRpXj4L3xl9hQ
Patient Service Center,3.4,10,235 Parker Ave Suite B,,Manasquan,New Jersey,US,https://www.bioreference.com/patients/locations-patient-services/,(732) 612-3922,Medical laboratory,https://www.google.com/maps/search/?api=1&query=Patient%20Service%20Center&query_place_id=ChIJMUjBSryHwYkRFcUMVoNwgVI
Lincoln Reference Laboratory,4.7,133,1023 Commerce Ave,,Union,New Jersey,US,http://lincolnreference.com/,(908) 583-5421,Medical laboratory,https://www.google.com/maps/search/?api=1&query=Lincoln%20Reference%20Laboratory&query_place_id=ChIJL5iylMayw4kR_RIz379UgEg
UBERSTICKS MEDICAL LLC,5,41,17 Monroe St,,Passaic,New Jersey,US,https://ubersticksmedical.com/,(973) 272-3646,Medical laboratory,https://www.google.com/maps/search/?api=1&query=UBERSTICKS%20MEDICAL%20LLC&query_place_id=ChIJ5086gZUHuagRHwLOjCVoNls
Premier Medical Lab,4.3,15,35-37 Progress St Suite A2,,Edison,New Jersey,US,https://premierlab.info/,(908) 754-4300,Medical laboratory,https://www.google.com/maps/search/?api=1&query=Premier%20Medical%20Lab&query_place_id=ChIJZ4_xIti2w4kR8W-p4Plj058
Angel's Touch Lab Solutions,4.9,58,177 Valley St,,South Orange Village,New Jersey,US,https://www.angelstouchlabsolutions.com/,(862) 621-7984,Medical laboratory,https://www.google.com/maps/search/?api=1&query=Angel's%20Touch%20Lab%20Solutions&query_place_id=ChIJ52vRsqqtw4kRSZnrnHMH1rE
EverGreene Mobile Phlebotomy,5,2,60 Portland Ave,,Bergenfield,New Jersey,US,http://evergreenelab.com/,(201) 878-4542,Medical examiner,https://www.google.com/maps/search/?api=1&query=EverGreene%20Mobile%20Phlebotomy&query_place_id=ChIJs8WHl5z7wokRGLY6OJbrx5o
YanaPhleb,4.7,74,118 Westfield Ave Suite 1,,Clark,New Jersey,US,http://www.yanaphleb.com/,(347) 777-2330,Medical laboratory,https://www.google.com/maps/search/?api=1&query=YanaPhleb&query_place_id=ChIJwZzLVb2zw4kRrxHacYN5xFk
Bio-Vein Mobile Phlebotomy,,0,854 Kearny Ave,,Kearny,New Jersey,US,http://www.bio-vein.com/,(201) 428-1162,Medical laboratory,https://www.google.com/maps/search/?api=1&query=Bio-Vein%20Mobile%20Phlebotomy&query_place_id=ChIJLze9o6VVwokRQ0bW5IYj_8Q
Jayson Mobile Care Phlebotomist LLC,5,1,182 Little St,,Belleville,New Jersey,US,,(973) 866-7453,Medical laboratory,https://www.google.com/maps/search/?api=1&query=Jayson%20Mobile%20Care%20Phlebotomist%20LLC&query_place_id=ChIJ64E8WDBVwokRSh8gi_Bmta4
Mobile Lab Techs,5,30,362 Cedar Ln #12,,Teaneck,New Jersey,US,http://mobilelabtechs.com/,(866) 242-3826,Medical laboratory,https://www.google.com/maps/search/?api=1&query=Mobile%20Lab%20Techs&query_place_id=ChIJhfljXSLxwokRs2uvd7VaXXU
Timeless mobile phlebotomy solutions,4.9,31,131 Passaic Ave,,Belleville,New Jersey,US,http://www.tmpsnj.com/,(973) 969-1967,Blood testing service,https://www.google.com/maps/search/?api=1&query=Timeless%20mobile%20phlebotomy%20solutions&query_place_id=ChIJFTqRfZpVwokRprwgO31GlNQ
VEINEXPRESS,5,1,190 Ocean Ave #6,,Lakewood,New Jersey,US,http://www.veinexpress.com/,(318) 433-2737,Blood testing service,https://www.google.com/maps/search/?api=1&query=VEINEXPRESS&query_place_id=ChIJ3XvZ5rqDwYkRe-l2NyK1SFQ
Gentle Hands Mobile Phlebotomy,2.6,36,1999 Morris Ave # 1,,Union,New Jersey,US,,(862) 279-3418,Blood testing service,https://www.google.com/maps/search/?api=1&query=Gentle%20Hands%20Mobile%20Phlebotomy&query_place_id=ChIJ__9zlV6tw4kRMbb_gqPM7Kw
Angel’s Touch Mobile Phlebotomy Services,5,23,177 Valley St,,South Orange Village,New Jersey,US,https://www.angelstouchmps.com/,(862) 621-7984,Blood testing service,https://www.google.com/maps/search/?api=1&query=Angel%E2%80%99s%20Touch%20Mobile%20Phlebotomy%20Services&query_place_id=ChIJR1oWVsRKGyARqvs6MdITAXM
"Gentle Sticks Mobile Phlebotomy Services, LLC",5,17,5 Dickerson Rd,,Mt Tabor,New Jersey,US,https://www.gentlesticksphlebotomy.com/home,(609) 312-9281,Laboratory,https://www.google.com/maps/search/?api=1&query=Gentle%20Sticks%20Mobile%20Phlebotomy%20Services%2C%20LLC&query_place_id=ChIJ055faBc9TGgRI9zYTAsJmOY
Mobile Blood Services,5,4,6026 2nd St NW,,Albuquerque,New Mexico,US,http://mobilebloodservices.com/,(505) 296-9644,Blood testing service,https://www.google.com/maps/search/?api=1&query=Mobile%20Blood%20Services&query_place_id=ChIJv_Sl5KR1IocR7KBksiBi3us
Mobile Xpress Clinics,,0,7600 Jefferson St NE STE 6,,Albuquerque,New Mexico,US,http://www.mobilexpressclinics.com/,(858) 829-0220,Biotechnology company,https://www.google.com/maps/search/?api=1&query=Mobile%20Xpress%20Clinics&query_place_id=ChIJ2XmJK8x1IocR4ih-mO1AZqk
St Peter's Laboratory - Hackett Blvd.,3.4,5,62 Hackett Blvd,,Albany,New York,US,https://www.sphp.com/find-a-service-or-specialty/lab-services/,(518) 525-1475,Medical laboratory,https://www.google.com/maps/search/?api=1&query=St%20Peter's%20Laboratory%20-%20Hackett%20Blvd.&query_place_id=ChIJtfPoZWkK3okRBp1gW4Jw8ws
Apex Laboratory,3.8,11,30 Undercliff Ave,,Elmsford,New York,US,https://www.apexlabinc.com/htdocs/contact/contact_apex.asp,(631) 753-3900,Laboratory,https://www.google.com/maps/search/?api=1&query=Apex%20Laboratory&query_place_id=ChIJIYqBlCOVwokRlQ5rMIeBzRg
Vassar's Mobile Phlebotomy,5,3,112 W Fulton St,,Johnstown,New York,US,https://www.vassarsmp.org/,(518) 902-5940,Laboratory,https://www.google.com/maps/search/?api=1&query=Vassar's%20Mobile%20Phlebotomy&query_place_id=ChIJbXkpDACN3okRCnobcCk-s_4
Optum Lab Draw Station - Rhinebeck,,0,6734 US-9,,Rhinebeck,New York,US,https://east.optum.com/locations/lab-draw-station-rhinebeck?cid=OC_80.6+dirc+os+NY+Optum_cmm+newpat+netnew+gprac+ggl+eng+na+l,,Diagnostic center,https://www.google.com/maps/search/?api=1&query=Optum%20Lab%20Draw%20Station%20-%20Rhinebeck&query_place_id=ChIJU1W395oN3YkRLml91JcyI3s
St. Peter's Laboratory,3.2,26,315 S Manning Blvd 1st Floor,,Albany,New York,US,https://www.sphp.com/services/lab-services,(518) 525-1475,Medical laboratory,https://www.google.com/maps/search/?api=1&query=St.%20Peter's%20Laboratory&query_place_id=ChIJ74eASvIK3okR2N4L6YlugX8
Lite Touch Mobile Phlebotomy Services,5,37,88-15 168th St,,Jamaica,New York,US,https://litetouchmps.com/,(347) 385-1719,Blood testing service,https://www.google.com/maps/search/?api=1&query=Lite%20Touch%20Mobile%20Phlebotomy%20Services&query_place_id=ChIJUTMX7x9hwokR6pYsp4Jj6u4
Just A Pinch Mobile Phlebotomy,5,25,200-02 Linden Blvd,,St. Albans,New York,US,https://www.justapinchmobilephlebotomy.com/contact,(516) 500-2757,Blood testing service,https://www.google.com/maps/search/?api=1&query=Just%20A%20Pinch%20Mobile%20Phlebotomy&query_place_id=ChIJ___Dl1lhwokRSnSeOQusecU
Guthrie Big Flats Laboratory Services,2.3,3,31 Arnot Rd,,Horseheads,New York,US,https://www.guthrie.org/locations/big-flats-laboratory-services?utm_source=other&utm_medium=listing&utm_campaign=yext,(607) 795-5100,Medical laboratory,https://www.google.com/maps/search/?api=1&query=Guthrie%20Big%20Flats%20Laboratory%20Services&query_place_id=ChIJneU9mZJB0IkR_VlLOJdwZ00
RRH Labs,3.5,21,2000 Empire Blvd,,Webster,New York,US,https://www.rochesterregional.org/locations/labs/bay-creek?y_source=1_OTkwMDgyMy03MTUtbG9jYXRpb24ud2Vic2l0ZQ%3D%3D,(585) 922-5227,Medical laboratory,https://www.google.com/maps/search/?api=1&query=RRH%20Labs&query_place_id=ChIJmYXq6m7J1okRJj96StySyg0
ACM Labs,4.3,20,2273 S Clinton Ave,,Rochester,New York,US,https://www.acmgloballab.com/,(585) 247-3500,Medical laboratory,https://www.google.com/maps/search/?api=1&query=ACM%20Labs&query_place_id=ChIJKaU9niRL0YkRLJ8V0D0AD9s
Rosia B. Mobile Phlebotomy Services LLC,5,9,40 Gardenville Pkwy W Suite 114,,West Seneca,New York,US,http://rosiabphlebotomy.com/,(716) 939-1776,Home health care service,https://www.google.com/maps/search/?api=1&query=Rosia%20B.%20Mobile%20Phlebotomy%20Services%20LLC&query_place_id=ChIJY2cuG3ZSaCgRS79OHRpxOtA
Northwell Health Labs at 242 Mason Avenue,4.3,7,242 Mason Ave,,Staten Island,New York,US,https://www.northwell.edu/northwell-health-labs/locations/242-mason-avenue?utm_source=provider_listing&utm_medium=partner&utm_campaign=doctor_dot_com,(718) 226-6120,Medical laboratory,https://www.google.com/maps/search/?api=1&query=Northwell%20Health%20Labs%20at%20242%20Mason%20Avenue&query_place_id=ChIJZSLkFMpPwokRAkH28JwAEMo
Speedy Sticks,4,4,1655 Union St,,Brooklyn,New York,US,https://www.speedysticks.com/,(347) 292-9570,Medical laboratory,https://www.google.com/maps/search/?api=1&query=Speedy%20Sticks&query_place_id=ChIJ9yb1GYBcwokRCnqdDppk6HI
Northwell Health Labs at Plainview,3.1,24,377 S Oyster Bay Rd,,Plainview,New York,US,https://nwhlabs.northwell.edu/locations/plainview?utm_source=provider_listing&utm_medium=partner&utm_campaign=yext,(516) 858-4126,Medical laboratory,https://www.google.com/maps/search/?api=1&query=Northwell%20Health%20Labs%20at%20Plainview&query_place_id=ChIJXwpw5K6BwokRsDbGK8pXv2Q
WestMed Lab,1.6,8,210 Westchester Ave,,White Plains,New York,US,https://www.westmedgroup.com/services/lab-and-pathology/hours,(914) 682-0700,Medical laboratory,https://www.google.com/maps/search/?api=1&query=WestMed%20Lab&query_place_id=ChIJQU7omGSXwokRbZaVhYZOl8M
Laboratory/Pathology Services,3.5,2,55 Palmer Ave,,Bronxville,New York,US,https://www.nyp.org/lawrence/laboratory,(914) 787-3276,Medical laboratory,https://www.google.com/maps/search/?api=1&query=Laboratory%2FPathology%20Services&query_place_id=ChIJAc8eBLKSwokRM7ZQw7w3Yso
ArmHug,,0,33 Nassau Ave,,Brooklyn,New York,US,https://armhug.com/,(925) 331-0029,Medical supply store,https://www.google.com/maps/search/?api=1&query=ArmHug&query_place_id=ChIJ7fbfLD1ZwokRTKCIrOzPSiE
The New Millennium Training Center,4.8,40,331 Seaview Ave,,Staten Island,New York,US,http://www.thenewmillenniumtrainingcenter.com/,(718) 667-7741,Nursing school,https://www.google.com/maps/search/?api=1&query=The%20New%20Millennium%20Training%20Center&query_place_id=ChIJrcdUksROwokRW5A0ckLHvqI
Speedy Sticks,3.9,111,980 6th Ave,,New York,New York,US,https://www.speedysticks.com/,(347) 292-9570,Medical laboratory,https://www.google.com/maps/search/?api=1&query=Speedy%20Sticks&query_place_id=ChIJ4bfo0atZwokRoFV22i_o83s
Vita Mobile Care,5,5,1055 E Tremont Ave,,Bronx,New York,US,https://vitamobilecare.com/,(877) 231-6601,Hospital department,https://www.google.com/maps/search/?api=1&query=Vita%20Mobile%20Care&query_place_id=ChIJ2ZHHx831wokRlVyJLbwNxD4
Speedy Sticks (25 Broad Saint ),4,4,25 Broad St,,New York,New York,US,,(347) 292-9570,Medical laboratory,https://www.google.com/maps/search/?api=1&query=Speedy%20Sticks%20(25%20Broad%20Saint%20)&query_place_id=ChIJfShbwBZawokRRKndxpHcmdM
Speedy Sticks,5,2,80 Broad St,,New York,New York,US,https://www.speedysticks.com/,(347) 292-9570,Medical laboratory,https://www.google.com/maps/search/?api=1&query=Speedy%20Sticks&query_place_id=ChIJmS8DBRRawokRvfXvcrM9UHQ
Primitis Mobile Examiners LLC,5,1,5997 Riverdale Ave,,Bronx,New York,US,,(929) 522-8054,Blood testing service,https://www.google.com/maps/search/?api=1&query=Primitis%20Mobile%20Examiners%20LLC&query_place_id=ChIJOxTC-U7ywokRm6v5LUY28Es
VeniStat Mobile Labs,4.6,56,353 W 48th St Suite 450,,New York,New York,US,http://www.venistatmobilelabs.com/,(929) 529-7799,Medical laboratory,https://www.google.com/maps/search/?api=1&query=VeniStat%20Mobile%20Labs&query_place_id=ChIJtS0asApZwokRRrT1cxA2qOY
Sunrise Medical Laboratories,3.1,53,694 Motor Pkwy #5,,Hauppauge,New York,US,https://www.sunriselab.com/,(631) 273-1806,Medical laboratory,https://www.google.com/maps/search/?api=1&query=Sunrise%20Medical%20Laboratories&query_place_id=ChIJacHxVVIw6IkRpb0YoqL8hss
Speedy Sticks,4.3,69,16 E 34th St,,New York,New York,US,https://www.speedysticks.com/,(347) 292-9570,Medical laboratory,https://www.google.com/maps/search/?api=1&query=Speedy%20Sticks&query_place_id=ChIJu9ivMqhZwokRhkwHSQJvm-E
Speedy Sticks,3.5,50,60 W 13th St,,New York,New York,US,https://www.speedysticks.com/,(347) 292-9570,Medical laboratory,https://www.google.com/maps/search/?api=1&query=Speedy%20Sticks&query_place_id=ChIJ__-vx5dZwokRyY-a3kM-f_M
ALLIANCE Laboratories,3,67,3611 14th Ave,,Brooklyn,New York,US,https://alliancelaboratories.com/,(718) 851-5773,Medical laboratory,https://www.google.com/maps/search/?api=1&query=ALLIANCE%20Laboratories&query_place_id=ChIJA0NRvc5bwokRtx8yW5aBP8w
Elite Mobile Examiners,,0,341 Carol Dr,,Massapequa Park,New York,US,https://www.nyelitemobileexaminers.com/,(516) 795-1245,Medical examiner,https://www.google.com/maps/search/?api=1&query=Elite%20Mobile%20Examiners&query_place_id=ChIJ14wz9avDRqARyFvUFYOeo4A
BIO-CARE SERVICES INC,5,180,3201 Grand Concourse # 2n,,Bronx,New York,US,http://www.biocareservicesinc.com/,(718) 313-0432,Blood testing service,https://www.google.com/maps/search/?api=1&query=BIO-CARE%20SERVICES%20INC&query_place_id=ChIJbxc5X_DzwokRtAEomWrh2-4
Optum Lab Draw Station - Fishkill - Merrit Blvd,,0,60 Merritt Blvd,,Fishkill,New York,US,https://east.optum.com/locations/lab-draw-station-fishkill-merritt-blvd?cid=OC_80.6+dirc+os+NY+Optum_cmm+newpat+netnew+gprac+ggl+eng+na+l,,Diagnostic center,https://www.google.com/maps/search/?api=1&query=Optum%20Lab%20Draw%20Station%20-%20Fishkill%20-%20Merrit%20Blvd&query_place_id=ChIJMY5OocQ33YkRn9vHqgkN190
Quest Diagnostics,3.8,24,86 Briggs St Ste 2A,,Johnstown,New York,US,https://locations.questdiagnostics.com/ny/johnstown/86-briggs-st,(518) 736-4665,Medical laboratory,https://www.google.com/maps/search/?api=1&query=Quest%20Diagnostics&query_place_id=ChIJwacRxyuN3okRFIgxdJ_vApQ
Guthrie Lourdes Hospital Laboratory Services,3.1,13,169 Riverside Dr,,Binghamton,New York,US,https://www.guthrie.org/locations/lourdes-hospital-laboratory-services?utm_source=other&utm_medium=listing&utm_campaign=yext,(607) 798-5216,Medical laboratory,https://www.google.com/maps/search/?api=1&query=Guthrie%20Lourdes%20Hospital%20Laboratory%20Services&query_place_id=ChIJQd2IszLv2okRXEl_-S--rM4
UR Medicine Labs – Rochester (Culver Road),3.4,32,905 Culver Rd,,Rochester,New York,US,https://www.urmc.rochester.edu/locations/labs-perinton,(585) 758-0510,Medical laboratory,https://www.google.com/maps/search/?api=1&query=UR%20Medicine%20Labs%20%E2%80%93%20Rochester%20(Culver%20Road)&query_place_id=ChIJL3dV3Yi11okRMDe3sJysSlc
Outpatient Blood Drawing Lab,2.3,3,90 Presidential Ct # 1,,Syracuse,New York,US,https://www.upstate.edu/pathology/healthcare/patient-info/service_centers.php,(315) 464-2545,Medical laboratory,https://www.google.com/maps/search/?api=1&query=Outpatient%20Blood%20Drawing%20Lab&query_place_id=ChIJLZwCRbvz2YkRqIaFusHoYC0
Upstate Pathology Laboratory,,0,6620 Fly Rd #202,,East Syracuse,New York,US,https://www.upstate.edu/pathology/healthcare/patient-info/service_centers.php,(315) 464-1640,Medical laboratory,https://www.google.com/maps/search/?api=1&query=Upstate%20Pathology%20Laboratory&query_place_id=ChIJFQyn456S2YkRUVL3nHezNq0
The Lab: Mobile Phlebotomy Svcs LLC,5,16,101 N Tryon St Suite 600,,Charlotte,North Carolina,US,,(980) 433-0730,Medical laboratory,https://www.google.com/maps/search/?api=1&query=The%20Lab%3A%20Mobile%20Phlebotomy%20Svcs%20LLC&query_place_id=ChIJI1bICJqhVogRcmebFxm5ZE0
Meridian Laboratory,5,4,2401 Whitehall Park Dr Suite 700,,Charlotte,North Carolina,US,http://www.meridianlaboratory.com/,(704) 992-0708,Medical laboratory,https://www.google.com/maps/search/?api=1&query=Meridian%20Laboratory&query_place_id=ChIJx6xlB3IjIRURg3fTk_kvtTQ
"Straight To The Vein , Phlebotomy services",5,10,2 Centerview Dr,,Greensboro,North Carolina,US,https://straighttothevein8.godaddysites.com/,(833) 378-8834,Medical laboratory,https://www.google.com/maps/search/?api=1&query=Straight%20To%20The%20Vein%20%2C%20Phlebotomy%20services&query_place_id=ChIJC4fylwQR_IARM7WoOMRCRRQ
Piedmont Paramedical Association Inc,4.3,4,7204 W Friendly Ave A,,Greensboro,North Carolina,US,http://www.piedmontparamedical.com/,(336) 315-0704,Drug testing service,https://www.google.com/maps/search/?api=1&query=Piedmont%20Paramedical%20Association%20Inc&query_place_id=ChIJKUxzfyfQJRUR9wGE8BhEe2s
Lighthouse Lab Services,4.3,29,1337 Hundred Oaks Dr Suite A,,Charlotte,North Carolina,US,https://www.lighthouselabservices.com/?utm_campaign=gmb,(844) 789-4874,Consultant,https://www.google.com/maps/search/?api=1&query=Lighthouse%20Lab%20Services&query_place_id=ChIJJ9fCNWaNrIkR_rfhugKULuE
Top Phlight Lab Services,,0,1213 W Morehead St 5th Floor,,Charlotte,North Carolina,US,,(704) 778-4400,Medical laboratory,https://www.google.com/maps/search/?api=1&query=Top%20Phlight%20Lab%20Services&query_place_id=ChIJFdmKDeGhVogR3w_y4zQrV30
"Serenity Mobile Phlebotomy, LLC",,0,8511 Davis Lake Pkwy C6-149,,Charlotte,North Carolina,US,https://www.serenitymobilephlebotomy.com/,(910) 882-3555,Medical office,https://www.google.com/maps/search/?api=1&query=Serenity%20Mobile%20Phlebotomy%2C%20LLC&query_place_id=ChIJGWWnjaunVogRTcoZZkAEd-Q
Caring Hands Medical Lab Services,5,704,116 Salem Towne Ct,,Apex,North Carolina,US,http://caringhandsmls.com/,(888) 351-9922,Medical laboratory,https://www.google.com/maps/search/?api=1&query=Caring%20Hands%20Medical%20Lab%20Services&query_place_id=ChIJaWnAk6VnrIkRh8cKq9-bJOc
OML Wellness Solutions / Phlebotomy/ DOT Physicals/ Drug Screening Testing / DNA Testing/ Mobile Services,1,1,322 Lamar Ave Ste 105,,Charlotte,North Carolina,US,http://omlwellness.com/,(980) 207-0638,Laboratory,https://www.google.com/maps/search/?api=1&query=OML%20Wellness%20Solutions%20%2F%20Phlebotomy%2F%20DOT%20Physicals%2F%20Drug%20Screening%20Testing%20%2F%20DNA%20Testing%2F%20Mobile%20Services&query_place_id=ChIJMa9TJEOfVogRNAfvlMCwO7M
"Collaborative Diagnostics, LLC",5,10,29339 Euclid Ave Ste 300,,Wickliffe,Ohio,US,https://www.collabdiagnostics.com/,(440) 901-5227,Drug testing service,https://www.google.com/maps/search/?api=1&query=Collaborative%20Diagnostics%2C%20LLC&query_place_id=ChIJS3N6be6qMYgRrp_Z9OnmGuE
Cleveland Reliable Draw,4.7,15,781 Beta Dr H,,Mayfield,Ohio,US,https://www.clevelandreliabledraw.com/,(216) 855-0967,Medical laboratory,https://www.google.com/maps/search/?api=1&query=Cleveland%20Reliable%20Draw&query_place_id=ChIJgQU8sD2XmWYRhLfKqMaImmo
One Vein Mobile Phlebotomy,4.5,2,815 Superior Ave STE 1618,,Cleveland,Ohio,US,https://www.oneveinmobilephlebotomy.com/,(234) 973-8454,Laboratory,https://www.google.com/maps/search/?api=1&query=One%20Vein%20Mobile%20Phlebotomy&query_place_id=ChIJ3XsKMI77MIgRrwnj6imMfow
We’re Near The Vein Mobile Phlebotomist,4.6,10,23611 Chagrin Blvd # 120,,Beachwood,Ohio,US,http://www.werenearthevein.com/,(216) 939-6768,Blood testing service,https://www.google.com/maps/search/?api=1&query=We%E2%80%99re%20Near%20The%20Vein%20Mobile%20Phlebotomist&query_place_id=ChIJ5QjT2tkZaqkR4KcJeNdpILk
Moody Mobile Lab Services LLC,3.7,3,12023 Willard Ave,,Garfield Heights,Ohio,US,,(216) 855-2658,Home health care service,https://www.google.com/maps/search/?api=1&query=Moody%20Mobile%20Lab%20Services%20LLC&query_place_id=ChIJf6_RzOnjMIgRNYE-Pxh7Y2I
Mercy Health - Westfield Lab Services,4.2,13,3425 Executive Pkwy Suite 215,,Toledo,Ohio,US,https://www.mercy.com/locations/specialty-locations/lab-and-imaging-centers/mercy-health-westgate-lab-services?utm_source=google&utm_medium=organic&utm_content=local_website_link,(419) 407-3650,Medical laboratory,https://www.google.com/maps/search/?api=1&query=Mercy%20Health%20-%20Westfield%20Lab%20Services&query_place_id=ChIJt6myFxB_PIgRlMHobqbfRIw
"QuickDraws Mobile Lab, LLC",4.9,21,1577B Goodman Ave Suite 3,,Cincinnati,Ohio,US,https://quickdrawsllc.com/,(513) 202-3410,Medical laboratory,https://www.google.com/maps/search/?api=1&query=QuickDraws%20Mobile%20Lab%2C%20LLC&query_place_id=ChIJAUuXNG5LQIgRtw3uIy-DoeM
APPS Paramedical,2.5,8,5050 Pine Creek Dr,,Westerville,Ohio,US,http://www.appsparamedical.com/,(614) 839-2777,Medical examiner,https://www.google.com/maps/search/?api=1&query=APPS%20Paramedical&query_place_id=ChIJicULDm5gOIgRzhHJxPATNAU
"TridentCare, formally known as MobileX USA",2.3,10,6185 Huntley Rd Suite P,,Columbus,Ohio,US,http://www.mobilexusa.com/,(614) 888-2226,X-ray lab,https://www.google.com/maps/search/?api=1&query=TridentCare%2C%20formally%20known%20as%20MobileX%20USA&query_place_id=ChIJ924_sq6MOIgRchXqwVNe2U0
OhioHealth Laboratory Services - Marion Medical Campus,3.3,4,1040 Delaware Ave,,Marion,Ohio,US,https://www.ohiohealth.com/locations/laboratory/laboratory-services-marion-medical-campus,(740) 383-7999,Medical laboratory,https://www.google.com/maps/search/?api=1&query=OhioHealth%20Laboratory%20Services%20-%20Marion%20Medical%20Campus&query_place_id=ChIJ62NU4LAbOYgRKcrc-uUsq38
TruBlood LLC,5,6,341 S 3rd St,,Columbus,Ohio,US,https://www.trublood.org/,(614) 367-6578,Wellness program,https://www.google.com/maps/search/?api=1&query=TruBlood%20LLC&query_place_id=ChIJ96oHS9wshEARjhTFzMCLI_M
Mercy Health - Salem Lab Services,2.5,2,564 E 2nd St,,Salem,Ohio,US,https://www.mercy.com/locations/specialty-locations/lab-and-imaging-centers/mercy-health-salem-lab-services?utm_source=google&utm_medium=organic&utm_content=local_website_link,(234) 567-8150,Medical laboratory,https://www.google.com/maps/search/?api=1&query=Mercy%20Health%20-%20Salem%20Lab%20Services&query_place_id=ChIJPxAXVGCrNogRbZvk4905YR0
OhioHealth Laboratory Services - Shelby Hospital,1,2,199 W Main St,,Shelby,Ohio,US,https://www.ohiohealth.com/locations/laboratory/laboratory-services-shelby-hospital,(419) 342-1727,Medical laboratory,https://www.google.com/maps/search/?api=1&query=OhioHealth%20Laboratory%20Services%20-%20Shelby%20Hospital&query_place_id=ChIJSdixM5iROYgRcIDH-iNyTzU
Essential Life Diagnostics,5,7,7049 Taylorsville Rd D2,,Huber Heights,Ohio,US,https://www.essentiallifediag.com/,(937) 251-6446,Laboratory,https://www.google.com/maps/search/?api=1&query=Essential%20Life%20Diagnostics&query_place_id=ChIJOYSZLel9P4gRXnF8nihgqJg
Guardian Labs Phlebotomy School,,0,2323 Montana Ave Suite 500,,Cincinnati,Ohio,US,https://guardianlabsllc.com/,(513) 888-6471,School,https://www.google.com/maps/search/?api=1&query=Guardian%20Labs%20Phlebotomy%20School&query_place_id=ChIJneQ0vom1QYgRTRgDF2nSXyM
Katura Laboratory Mobile Phlebotomy Services,,0,"Corporate office, Elm St ste 270 1178",,Cincinnati,Ohio,US,http://katuralab.com/,(833) 528-8721,Laboratory,https://www.google.com/maps/search/?api=1&query=Katura%20Laboratory%20Mobile%20Phlebotomy%20Services&query_place_id=ChIJZaDUTDuxQYgRV1Ff9J-our0
Empress Mobile Phlebotomy Services LLC,,0,2345 Ashland Ave,,Cincinnati,Ohio,US,https://empressmps.com/about-us/,(513) 512-2272,Laboratory,https://www.google.com/maps/search/?api=1&query=Empress%20Mobile%20Phlebotomy%20Services%20LLC&query_place_id=ChIJAyKRlcuzQYgR8oKC4esmIXw
VENISTAT Mobile Phlebotomy LLC,5,2,221 Outer Belle Dr,,Dayton,Ohio,US,https://venistat.org/contact,(937) 307-9639,Medical laboratory,https://www.google.com/maps/search/?api=1&query=VENISTAT%20Mobile%20Phlebotomy%20LLC&query_place_id=ChIJ___P4r1_QIgRh2vLqsfghEY
Stellar Labs NW,,0,"6464 SW Borland Rd, 1 2 Suite C-5",,Tualatin,OR,US,http://stellarlabsnw.com/,(503) 878-5418,Laboratory,https://www.google.com/maps/search/?api=1&query=Stellar%20Labs%20NW&query_place_id=ChIJW-wZZXJzlVQRf10p-s24JSE
VenaCare NW Wellness Clinics and Mobile Phlebotomy,4.8,35,6464 SW Borland Rd Suite C-5,,Tualatin,Oregon,US,http://www.venacarenwlabs.com/,(503) 878-5418,Medical laboratory,https://www.google.com/maps/search/?api=1&query=VenaCare%20NW%20Wellness%20Clinics%20and%20Mobile%20Phlebotomy&query_place_id=ChIJDyKXCz5zlVQRodOXQ8AFEzs
Legacy Laboratory Services - Good Samaritan Building 3 Patient Service Center,3.7,29,1130 NW 22nd Ave Ste 360,,Portland,Oregon,US,,(503) 413-6589,Medical clinic,https://www.google.com/maps/search/?api=1&query=Legacy%20Laboratory%20Services%20-%20Good%20Samaritan%20Building%203%20Patient%20Service%20Center&query_place_id=ChIJHQKuefAJlVQR2bTxuU2Lbxc
St. Charles Redmond Family Care Clinic Laboratory,3.3,6,211 NW Larch Ave,,Redmond,Oregon,US,https://www.stcharleshealthcare.org/locations/family-care-redmond-laboratory?utm_source=local-listing&utm_medium=organic&utm_campaign=website-link,(541) 706-7717,Medical laboratory,https://www.google.com/maps/search/?api=1&query=St.%20Charles%20Redmond%20Family%20Care%20Clinic%20Laboratory&query_place_id=ChIJ3cj0tuwqv1QR6aRwuvBYgHU
AIMS Vascular Access,5,15,1859 Rambling Dr,,Springfield,Oregon,US,https://aimsvascularaccess.com/,(541) 505-7386,Home health care service,https://www.google.com/maps/search/?api=1&query=AIMS%20Vascular%20Access&query_place_id=ChIJq6pOZA_hwFQRNKn_F5qTvsc
Phlebotomy Training Specialists,4.9,119,8800 SE Sunnyside Rd #2185,,Clackamas,Oregon,US,https://www.phlebotomyusa.com/oregon/clackamas-phlebotomy-courses/?c=clackamas,(888) 531-8378,Vocational school,https://www.google.com/maps/search/?api=1&query=Phlebotomy%20Training%20Specialists&query_place_id=ChIJxUKncTh1lVQRGKoQVHRQh4c
VenaCareNW Wellness Clinics and Mobile Phlebotomy,5,3,6464 SW Borland Rd,,Tualatin,Oregon,US,,,Laboratory,https://www.google.com/maps/search/?api=1&query=VenaCareNW%20Wellness%20Clinics%20and%20Mobile%20Phlebotomy&query_place_id=ChIJz0hNtudzlVQRB7MsMJXG1nU
Stumptown Lab Services LLC,5,83,1355 NW Everett St #100,,Portland,Oregon,US,http://stumptownlabservices.com/,(971) 433-5334,Blood testing service,https://www.google.com/maps/search/?api=1&query=Stumptown%20Lab%20Services%20LLC&query_place_id=ChIJufIAuWPRQIYRoc-SIzXyAFc
Oquirrh Mountain Phlebotomy School,4.1,30,12725 SW Millikan Way Suit 300,,Beaverton,Oregon,US,https://oqmps.com/oregon/,(971) 231-8600,Vocational school,https://www.google.com/maps/search/?api=1&query=Oquirrh%20Mountain%20Phlebotomy%20School&query_place_id=ChIJxRaR76EOlVQRrn-b0CPldbc
"OHSU Outpatient Lab, South Waterfront",3.8,33,"First Floor, 3485 S Bond Ave Building 2",,Portland,Oregon,US,https://www.ohsu.edu/lab-services/outpatient-phlebotomy-services?utm_source=gmb&utm_medium=organic&utm_content=lab-south-waterfront,(503) 494-4214,Medical laboratory,https://www.google.com/maps/search/?api=1&query=OHSU%20Outpatient%20Lab%2C%20South%20Waterfront&query_place_id=ChIJkRHjKhQLlVQR5tIYPjYzW8w
Elite Phlebotomy,2,20,5331 S Macadam Ave #380,,Portland,Oregon,US,,(360) 784-0748,Medical clinic,https://www.google.com/maps/search/?api=1&query=Elite%20Phlebotomy&query_place_id=ChIJuSwrPfgKlVQRbRKghbC-Mno
"Oregon Medical Training, Private Career School",4.4,7,1126 Gateway Loop #108,,Springfield,Oregon,US,http://www.oregonmedicaltraining.com/,(541) 343-3100,School,https://www.google.com/maps/search/?api=1&query=Oregon%20Medical%20Training%2C%20Private%20Career%20School&query_place_id=ChIJg89E4wAdwVQRQyNsq-SkjFc
Wellness Labs Mobile Phlebotomy,5,9,196 W Ashland St,,Doylestown,Pennsylvania,US,https://wellnesslabsmobile.com/,(267) 983-4706,Laboratory,https://www.google.com/maps/search/?api=1&query=Wellness%20Labs%20Mobile%20Phlebotomy&query_place_id=ChIJu-sRxjapxokRiEbiRAbeUZE
Gentle Touch Mobile Phlebotomy LLC,5,22,610 Old York Rd,,Jenkintown,Pennsylvania,US,http://gentletouchmp.com/,(856) 431-3013,Medical laboratory,https://www.google.com/maps/search/?api=1&query=Gentle%20Touch%20Mobile%20Phlebotomy%20LLC&query_place_id=ChIJAQDAn-6wxokRCYFM6JYLh7o
"Divine Touch Mobile Phlebotomy Service, LLC",5,1,6725 Grovers Ave,,Philadelphia,Pennsylvania,US,,,Medical laboratory,https://www.google.com/maps/search/?api=1&query=Divine%20Touch%20Mobile%20Phlebotomy%20Service%2C%20LLC&query_place_id=ChIJX7s-RhfExokRSL-bKdm4-6o
Quikstiks Mobile Lab Service,,0,15917 Kinsack Rd,,Centerville,Pennsylvania,US,https://quikstiks-mobile-lab-service.ueniweb.com/?utm_campaign=gmb,(814) 547-3460,Medical laboratory,https://www.google.com/maps/search/?api=1&query=Quikstiks%20Mobile%20Lab%20Service&query_place_id=ChIJH5-CCfbpMogRWd8D7MivmO0
Compassionate Care Phlebotomy & Medical LLC,4.6,22,413 S Washington Ave,,Scranton,Pennsylvania,US,,(570) 239-4604,Medical clinic,https://www.google.com/maps/search/?api=1&query=Compassionate%20Care%20Phlebotomy%20%26%20Medical%20LLC&query_place_id=ChIJYTv1QwXfxIkRFFvb9yBNjXo
Guthrie Sayre Laboratory Services,,0,1 Guthrie Sq,,Sayre,Pennsylvania,US,https://www.guthrie.org/locations/sayre-laboratory-services?utm_source=other&utm_medium=listing&utm_campaign=yext,(570) 887-4719,Medical laboratory,https://www.google.com/maps/search/?api=1&query=Guthrie%20Sayre%20Laboratory%20Services&query_place_id=ChIJzSUVOToJ0IkRlzzNBaVSEEQ
Geisinger Medical Office Building Wyoming Valley Lab,5,5,950 E Mountain Blvd,,Wilkes-Barre,Pennsylvania,US,https://locations.geisinger.org/Geisinger-Medical-Office-Building-Wyoming-Valley-Lab,(570) 271-6326,Laboratory,https://www.google.com/maps/search/?api=1&query=Geisinger%20Medical%20Office%20Building%20Wyoming%20Valley%20Lab&query_place_id=ChIJs0YerbkbxYkRZe9Xra-WNZs
J C Blair Medical Laboratory,5,4,18831 Sandy Ridge Station,,Orbisonia,Pennsylvania,US,https://www.phhealthcare.org/location/outpatient-care-services/quicklab-orbisoniaa-service-of-penn-highlands-huntingdon-lab-collection-site-596,(814) 447-9511,Medical laboratory,https://www.google.com/maps/search/?api=1&query=J%20C%20Blair%20Medical%20Laboratory&query_place_id=ChIJSb3hsCliyYkR9PD0SbI3SrU
PFM Mobile Phlebotomy and Wellness LLC,,0,19 Arnold St,,Woonsocket,Rhode Island,US,https://www.pfmphlebotomy.com/about-us,(401) 241-9605,,https://www.google.com/maps/search/?api=1&query=PFM%20Mobile%20Phlebotomy%20and%20Wellness%20LLC&query_place_id=ChIJhXfshlBq5IkRxGwwORgrpoI
"Gentle Sticks Mobile Phlebotomy, LLC",4.9,54,4371 Charlotte Hwy Ste 22,,Lake Wylie,South Carolina,US,http://www.gentlesticks.com/,(803) 589-7999,Laboratory,https://www.google.com/maps/search/?api=1&query=Gentle%20Sticks%20Mobile%20Phlebotomy%2C%20LLC&query_place_id=ChIJEzho-raBtmkRg12cZXCw088
Gifted Touch Mobile Phlebotomy,5,22,4235 Hillsboro Pike #300,,Nashville,Tennessee,US,https://nashvillemobilephlebotomy.com/,(615) 768-9406,Community health center,https://www.google.com/maps/search/?api=1&query=Gifted%20Touch%20Mobile%20Phlebotomy&query_place_id=ChIJXV-AsiZlZIgR0qvW-kmWgmE
Prostixmp,,0,1331 Union Ave ste 1002,,Memphis,Tennessee,US,https://prostixmp.com/,(901) 646-5724,Blood testing service,https://www.google.com/maps/search/?api=1&query=Prostixmp&query_place_id=ChIJ8-U6-b9_1YcRt4mdfbvKLrw
Compassionate Care Technical Center,3.8,29,900 E Woodland Ave,,Knoxville,Tennessee,US,,(865) 394-9960,Nursing school,https://www.google.com/maps/search/?api=1&query=Compassionate%20Care%20Technical%20Center&query_place_id=ChIJ38U7Ej89XIgRxZSBZpvhTjU
Divine Testing Solutions,,0,740C Conference Dr,,Goodlettsville,Tennessee,US,http://www.101divineservices.org/,(615) 473-3394,Medical laboratory,https://www.google.com/maps/search/?api=1&query=Divine%20Testing%20Solutions&query_place_id=ChIJW1zKMTlFZIgRcSPHiwHSST0
Fortis Institute in Nashville,4.4,150,3354 Perimeter Hill Dr Suite 105,,Nashville,Tennessee,US,https://www.fortis.edu/campuses/tennessee/nashville.html,(615) 320-5917,Vocational school,https://www.google.com/maps/search/?api=1&query=Fortis%20Institute%20in%20Nashville&query_place_id=ChIJ21vgfVZuZIgR5EnhJ7n6Otk
Lifeline Blood Services,4.4,26,183 Sterling Farms Dr,,Jackson,Tennessee,US,http://lifelinebloodserv.org/,(731) 427-4431,Blood donation center,https://www.google.com/maps/search/?api=1&query=Lifeline%20Blood%20Services&query_place_id=ChIJn44sl9OmfogRG0rfq2Ao18s
Humble Solutions Lab Services,5,12,394 W Main St STE B9,,Hendersonville,Tennessee,US,https://www.humblesolutionslabservices.com/,(615) 697-3871,Medical laboratory,https://www.google.com/maps/search/?api=1&query=Humble%20Solutions%20Lab%20Services&query_place_id=ChIJmcdczFf6NgwR819Ma78iWoc
Vanderbilt Laboratory Services Central One Hundred Oaks,3.1,21,719 Thompson Ln #23108,,Nashville,Tennessee,US,https://vanderbilthealth.com/locations/vanderbilt-laboratory-services-central-one-hundred-oaks?utm_source=Yext,(615) 322-5000,Medical laboratory,https://www.google.com/maps/search/?api=1&query=Vanderbilt%20Laboratory%20Services%20Central%20One%20Hundred%20Oaks&query_place_id=ChIJS3Bn9KNlZIgRaJkVr-p8rec
My Health Check Lab,5,41,845 Bell Rd,,Antioch,Tennessee,US,http://www.myhealthchecklab.com/,(615) 728-0881,Blood testing service,https://www.google.com/maps/search/?api=1&query=My%20Health%20Check%20Lab&query_place_id=ChIJUd1RfPBtZIgRzlg78Wl3leY
Vanderbilt Laboratory Services,5,1,1301 Medical Center Dr Room 1602,,Nashville,Tennessee,US,https://vanderbilthealth.com/locations/vanderbilt-laboratory-services?utm_source=Yext,(615) 322-5000,Medical laboratory,https://www.google.com/maps/search/?api=1&query=Vanderbilt%20Laboratory%20Services&query_place_id=ChIJr108oSlnZIgRbL6tBeHsnLs
Just Do LaBs Mobile Concierge Services,4.9,9,4091 Mallory Ln #114,,Franklin,Tennessee,US,https://www.justdolabs.com/?utm_source=google&utm_medium=wix_google_business_profile&utm_campaign=16431543382020799453,(615) 596-9878,Blood testing service,https://www.google.com/maps/search/?api=1&query=Just%20Do%20LaBs%20Mobile%20Concierge%20Services&query_place_id=ChIJhy8HK2x_ZIgRawN4qiACiLI
"One Call We Draw Mobile Phlebotomy Services, LLC",5,21,15488 Old Jacksonville Hwy Suite 100,,Tyler,Texas,US,https://onecallwedraw.com/,(430) 287-2081,Medical laboratory,https://www.google.com/maps/search/?api=1&query=One%20Call%20We%20Draw%20Mobile%20Phlebotomy%20Services%2C%20LLC&query_place_id=ChIJs6E695XLSYYR7vF-iF3cwTY
D of J Mobile Phlebotomy Services LLC,5,1,4830 Wilson Rd suite 300 # 231,,Humble,Texas,US,http://www.dofjmps.com/,(346) 215-1553,Blood testing service,https://www.google.com/maps/search/?api=1&query=D%20of%20J%20Mobile%20Phlebotomy%20Services%20LLC&query_place_id=ChIJCTxP7GexQIYRk6QudlqooXI
Feather Touch Mobile Phlebotomy,5,9,2459 E Hebron Pkwy #130,,Carrollton,Texas,US,https://www.feathertouchphleb.com/?utm_source=google&utm_medium=wix_google_business_profile&utm_campaign=13281473808518637643,(833) 467-4532,Laboratory,https://www.google.com/maps/search/?api=1&query=Feather%20Touch%20Mobile%20Phlebotomy&query_place_id=ChIJTxxclt4lTIYRhpMIs5mm5CA
Gentle Hands Mobile Phlebotomy and More LLC,5,6,14405 Walters Rd Ste 807,,Houston,Texas,US,https://www.ghmpandmorellc.com/,(346) 317-1192,Laboratory,https://www.google.com/maps/search/?api=1&query=Gentle%20Hands%20Mobile%20Phlebotomy%20and%20More%20LLC&query_place_id=ChIJQffNMHPNQIYRe_K--7j9_aQ
Precision Mobile Phlebotomy Services LLC,,0,8330 Lyndon B Johnson Fwy #674,,Dallas,Texas,US,,(888) 428-2218,Medical laboratory,https://www.google.com/maps/search/?api=1&query=Precision%20Mobile%20Phlebotomy%20Services%20LLC&query_place_id=ChIJ7RKVYOIhTIYRknvyDyL3YpM
"Dee's Mobile Phlebotomy Services,LLC",4.4,21,9894 Bissonnet St #715,,Houston,Texas,US,http://www.dmphlebotomy.com/,(713) 485-4167,Medical clinic,https://www.google.com/maps/search/?api=1&query=Dee's%20Mobile%20Phlebotomy%20Services%2CLLC&query_place_id=ChIJP6CV6ajCQIYRU25yZHATk0U
Comfort Mobile Phlebotomy LLC,5,19,2310 N Henderson Ave suite B 1215,,Dallas,Texas,US,https://comfortmobilephlebotomy.com/,(214) 779-3531,Retail space rental agency,https://www.google.com/maps/search/?api=1&query=Comfort%20Mobile%20Phlebotomy%20LLC&query_place_id=ChIJyZwEwoufToYRq1TDyYo1apk
Various Veins Mobile Phlebotomy Services,5,5,801 Travis St Ste 2101,,Houston,Texas,US,https://www.variousveins.com/,(713) 893-7765,Blood testing service,https://www.google.com/maps/search/?api=1&query=Various%20Veins%20Mobile%20Phlebotomy%20Services&query_place_id=ChIJjbR87si_QIYRvcRUlYI8C1g
On The Go Mobile Phlebotomy,5,162,13612 Midway Rd #412,,Farmers Branch,Texas,US,http://www.onthegolabs.com/,(214) 997-3046,Drug testing service,https://www.google.com/maps/search/?api=1&query=On%20The%20Go%20Mobile%20Phlebotomy&query_place_id=ChIJaUcqIu6JToYR5IZ6eZkhSp4
One Stick Lab,5,26,4201 Cypress Creek Pkwy Suite 225,,Houston,Texas,US,https://onesticklab.com/,(281) 919-2188,Laboratory,https://www.google.com/maps/search/?api=1&query=One%20Stick%20Lab&query_place_id=ChIJIQNDeefLQIYR80bPZ3bxZgI
Soft Touch Lab Services,5,52,3617 Broadway #501,,San Antonio,Texas,US,http://www.softtouchmpsllc.com/,(210) 605-3319,Medical laboratory,https://www.google.com/maps/search/?api=1&query=Soft%20Touch%20Lab%20Services&query_place_id=ChIJsSNe98mNXIYRNyqgs3V_8R0
Labcorp,3,61,864 Central Blvd Ste 900,,Brownsville,Texas,US,https://locations.labcorp.com/tx/brownsville/7096/,(956) 547-6600,Medical laboratory,https://www.google.com/maps/search/?api=1&query=Labcorp&query_place_id=ChIJ7R59JROUb4YREy_wYSbegto
New Start School,4.7,137,709 N Main St,,McAllen,Texas,US,http://www.newstartschool.com/,(956) 682-5670,Nursing school,https://www.google.com/maps/search/?api=1&query=New%20Start%20School&query_place_id=ChIJDaUPuDmnZYYR0vwS6UttV70
All Star Medical Supply,5,12,1408 E Jasmine Ave Ste D,,McAllen,Texas,US,https://allstarmedsupply.us/laboratory-diagnostic-supplies-our-products/,(956) 618-1330,Medical supply store,https://www.google.com/maps/search/?api=1&query=All%20Star%20Medical%20Supply&query_place_id=ChIJSz_8n8CgZYYRQPPq3lqlA0c
Harmony Mobile Phlebotomy LLC,,0,2582 Main St,,Ingleside,Texas,US,https://www.harmonymobilephlebotomy.com/,(361) 229-7217,Laboratory,https://www.google.com/maps/search/?api=1&query=Harmony%20Mobile%20Phlebotomy%20LLC&query_place_id=ChIJy6WQOC1RaIYRoWZWVW__zvo
RGTC Mobile Lab Service LLC,4.9,93,2000 25th Ave N Suite 109,,Texas City,Texas,US,http://rgtcmobilelabservicellc.com/?utm_source=gmb&utm_medium=referral,(409) 526-5237,Drug testing service,https://www.google.com/maps/search/?api=1&query=RGTC%20Mobile%20Lab%20Service%20LLC&query_place_id=ChIJDadajiF5P4YRFcpynaQiGHA
Labdraw Express,5,12,302 N Houston Ave #201,,Humble,Texas,US,http://www.labdrawex.com/,(832) 776-7399,Medical laboratory,https://www.google.com/maps/search/?api=1&query=Labdraw%20Express&query_place_id=ChIJJRbYgTHJQIYRfshiT0FaLlI
Medical Mobile Services,5,1,7211 Regency Square Blvd # 106,,Houston,Texas,US,http://medicalmobileservicescompany.com/,(832) 343-6014,Medical laboratory,https://www.google.com/maps/search/?api=1&query=Medical%20Mobile%20Services&query_place_id=ChIJ48LZ914nQYYRWqMMWctFeHE
Izzy's Care,5,1,3417 73rd St #68,,Lubbock,Texas,US,,(806) 401-6044,Home health care service,https://www.google.com/maps/search/?api=1&query=Izzy's%20Care&query_place_id=ChIJe7aliYsuPA4RdPc2FQ7tT8A
Elite Phlebotomy Mobile Services,,0,8990 Kirby Dr Ste. 220,,Houston,Texas,US,,(800) 442-9038,Health consultant,https://www.google.com/maps/search/?api=1&query=Elite%20Phlebotomy%20Mobile%20Services&query_place_id=ChIJpVted7Tc4SIRNq8qiuavxgU
Sincere touch mobile phlebotomy llc and phlebotomy training center And Lab,5,14,1166 Country Club Ln suites 8/10,,Fort Worth,Texas,US,http://sinceremobilephlebotomy.net/,(817) 939-3117,Blood testing service,https://www.google.com/maps/search/?api=1&query=Sincere%20touch%20mobile%20phlebotomy%20llc%20and%20phlebotomy%20training%20center%20And%20Lab&query_place_id=ChIJ23EKUg97ToYRNny80ppmtW4
"Dr. Monzer H. Yazji, MD",2.2,203,502 S Closner Blvd,,Edinburg,Texas,US,http://www.yazjimd.com/,(956) 292-0100,Internist,https://www.google.com/maps/search/?api=1&query=Dr.%20Monzer%20H.%20Yazji%2C%20MD&query_place_id=ChIJtcUxehShZYYRLJZKmsX5BPg
The Blood Fairy Mobile Phlebotomy,5,10,3200 Wilcrest Dr Ste 170=-11,,Houston,Texas,US,https://www.tbfmobilephlebotomy.com/,(346) 608-3443,Local medical services,https://www.google.com/maps/search/?api=1&query=The%20Blood%20Fairy%20Mobile%20Phlebotomy&query_place_id=ChIJnxF7U5MXbWgRXoAYru3MSIA
Physicians Preferred Laboratory,3.9,15,3501 S Soncy Rd # 116,,Amarillo,Texas,US,https://www.apgppl.com/,(806) 358-1211,Medical laboratory,https://www.google.com/maps/search/?api=1&query=Physicians%20Preferred%20Laboratory&query_place_id=ChIJzcjRLfRQAYcRtke3asgXDPE
Prime Medical Testing,2.8,24,3400 Olsen Blvd,,Amarillo,Texas,US,http://www.primemedicaltesting.com/,(806) 359-7600,Drug testing service,https://www.google.com/maps/search/?api=1&query=Prime%20Medical%20Testing&query_place_id=ChIJ2dDdKcVPAYcRff80kELZB6A
Premier Mobile Phlebotomy,,0,115 Dixie Dr STE 130,,Lake Jackson,Texas,US,,(979) 248-7149,Blood testing service,https://www.google.com/maps/search/?api=1&query=Premier%20Mobile%20Phlebotomy&query_place_id=ChIJEWsvzcNBQIYRvdcE43ZGtrE
Dynamic Touch Mobile Phlebotomy Staffing,4.5,2,2626 S Loop W Ste 250,,Houston,Texas,US,https://dynamictouchstaffing.com/,(561) 249-9081,Laboratory,https://www.google.com/maps/search/?api=1&query=Dynamic%20Touch%20Mobile%20Phlebotomy%20Staffing&query_place_id=ChIJubxlnm3BQIYRtWzNWCU1PrY
Shark Techs Mobile Phlebotomy,1,1,6609 Blanco Rd,,San Antonio,Texas,US,,(210) 838-6991,Laboratory,https://www.google.com/maps/search/?api=1&query=Shark%20Techs%20Mobile%20Phlebotomy&query_place_id=ChIJSXcFhWlhXIYR0sO85w8_qi0
Shaw's Mobile Phlebotomy,,0,6060 Montgomery Dr Suite 116,,San Antonio,Texas,US,,(210) 233-9779,Medical laboratory,https://www.google.com/maps/search/?api=1&query=Shaw's%20Mobile%20Phlebotomy&query_place_id=ChIJx3gDAIPzXIYRT4dg61_Fxak
Rezultz International INC,,0,1001 Texas Ave,,Houston,Texas,US,https://www.rezultz.org/,,Educational consultant,https://www.google.com/maps/search/?api=1&query=Rezultz%20International%20INC&query_place_id=ChIJi-NH-76_QIYR1XunfIiiZ0s
"LB Diagnostic Laboratory, LLC",4.7,7,814 Maranon Ln,,Houston,Texas,US,https://www.lb-diagnostic-laboratory-llc.net/,(832) 292-4862,Laboratory,https://www.google.com/maps/search/?api=1&query=LB%20Diagnostic%20Laboratory%2C%20LLC&query_place_id=ChIJfXhsfDnLQIYRGSRhpVG0kvg
Discounted Labs,4.3,6,1302 Waugh Dr #143,,Houston,Texas,US,http://discountedlabs.com/,(281) 740-7989,Laboratory,https://www.google.com/maps/search/?api=1&query=Discounted%20Labs&query_place_id=ChIJmZJRuqbAQIYRgG4FK1ftL7I
Finlay Training Institute - Licensed and Certified Medical School,5,132,14521 Old Katy Rd Suite 200,,Houston,Texas,US,https://finlayti.com/,(832) 871-4800,Medical school,https://www.google.com/maps/search/?api=1&query=Finlay%20Training%20Institute%20-%20Licensed%20and%20Certified%20Medical%20School&query_place_id=ChIJkRkbf4zbQIYRdedDlCasAlA
Butterfly Phlebotomy,5,6,151 Park Ave Suite 130,,League City,Texas,US,https://butterflyphlebotomy21.org/,(409) 877-6466,Laboratory,https://www.google.com/maps/search/?api=1&query=Butterfly%20Phlebotomy&query_place_id=ChIJ45zi1yAxZU8RaGQdPktbUoY
1st choice mobile phlebotomy,,0,,,San Antonio,Texas,US,http://www.1stchoicemobilephlebotomy.com/,(726) 203-5437,Medical laboratory,https://www.google.com/maps/search/?api=1&query=1st%20choice%20mobile%20phlebotomy&query_place_id=ChIJixZUHeNZXIYRrtA9A5ppkBE
Brighton Mobile Phlebotomy,,0,17350 Tomball Pkwy,,Houston,Texas,US,http://brightonblooddraw.com/,(855) 426-7522,Blood testing service,https://www.google.com/maps/search/?api=1&query=Brighton%20Mobile%20Phlebotomy&query_place_id=ChIJ0d2lT-fNQIYRvEhrfiEOO9o
ARCpoint Labs of Katy,4.9,256,21777 Merchants Way Suite 420,,Katy,Texas,US,https://arcpointlabs.com/katy/,(713) 832-9993,Drug testing service,https://www.google.com/maps/search/?api=1&query=ARCpoint%20Labs%20of%20Katy&query_place_id=ChIJKcCPt84nQYYR3AncVo00F2U
Cavala Scientific,5,5,21803 Morton Rd STE 650-200,,Katy,Texas,US,http://www.cavalascientific.com/,(346) 300-3929,Medical supply store,https://www.google.com/maps/search/?api=1&query=Cavala%20Scientific&query_place_id=ChIJ48JyUrwnQYYRJcgvck_Tvfg
The Blood Connector,5,5,440 Louisiana St #900,,Houston,Texas,US,http://thebloodconnector.square.site/,(832) 919-6753,Medical laboratory,https://www.google.com/maps/search/?api=1&query=The%20Blood%20Connector&query_place_id=ChIJjbAOuqu1eS4RBlL-UNkx1VQ
Houston Mobile Lab,1,1,9920 Hwy 90 Alt Suite D160,,Sugar Land,Texas,US,http://www.houstonmobilelab.com/,(832) 947-3036,Medical laboratory,https://www.google.com/maps/search/?api=1&query=Houston%20Mobile%20Lab&query_place_id=ChIJ3cUcr9XnQIYRTjK1ZPiScZU
"KS Health Services, LLC",5,13,7999 Hansen Rd ste 305,,Houston,Texas,US,http://www.kshealthservices.com/,(772) 353-6120,Medical laboratory,https://www.google.com/maps/search/?api=1&query=KS%20Health%20Services%2C%20LLC&query_place_id=ChIJ_whfDqKdQIYRR3prFGCIaJ0
Ashley's Phlebotomy School,5,10,4205 Broadway St #207,,Pearland,Texas,US,http://www.ashleyphelbs.com/,(281) 935-8937,Vocational secondary school,https://www.google.com/maps/search/?api=1&query=Ashley's%20Phlebotomy%20School&query_place_id=ChIJ0dp_gEiRQIYREldmrW3UYaU
ARCpoint Labs of Houston Northwest,4.9,477,11200 Northwest Fwy #500,,Houston,Texas,US,https://www.arcpointlabs.com/houston-northwest/?utm_source=GMrB&utm_medium=organic&utm_campaign=Houston,(832) 583-0050,Drug testing service,https://www.google.com/maps/search/?api=1&query=ARCpoint%20Labs%20of%20Houston%20Northwest&query_place_id=ChIJ9ySQ731t7ywR6uM1of6TCzI
360 Mobile Labs,4.9,103,"2600 SOUTH LOOP W SUITE 475M 340 N SAM HOUSTON PKWY E HOUSTON TX 77060, 2600 S Loop W SUITE 328",,Houston,TX,US,http://www.360mobilelabs.net/,(844) 622-8466,Education center,https://www.google.com/maps/search/?api=1&query=360%20Mobile%20Labs&query_place_id=ChIJ2_eB8MnBQIYRLK52cz-yDpE
blood Squad Labs,,0,,,Katy,TX,US,https://www.bloodsquadlabs.com/?utm_source=google&utm_medium=wix_google_business_profile&utm_campaign=4695957506398914211,(346) 205-1815,Home health care service,https://www.google.com/maps/search/?api=1&query=blood%20Squad%20Labs&query_place_id=ChIJsyt6RnAlQYYRyv-ZFm3hvlU
VeniLabs | Mobile Phlebotomy And Health Screenings In Utah,5,11,7533 Center View Ct Suite R,,West Jordan,Utah,US,http://venilaboratories.com/,(801) 610-6036,Medical laboratory,https://www.google.com/maps/search/?api=1&query=VeniLabs%20%7C%20Mobile%20Phlebotomy%20And%20Health%20Screenings%20In%20Utah&query_place_id=ChIJhxBr7FFEH2ERHEqapoPtQpE
Zamadhi’s Mobile Phlebotomy,5,1,,,Provo,Utah,US,,,Blood testing service,https://www.google.com/maps/search/?api=1&query=Zamadhi%E2%80%99s%20Mobile%20Phlebotomy&query_place_id=ChIJ0eXvHLSXTYcRrAV96Vcet8g
Epic Mobile Phlebotomy and Drug Testing Services,5,6,2011 Princess Anne St ste 205,,Fredericksburg,Virginia,US,https://www.epicmobilephlebotomy.com/,(540) 702-8199,Blood testing service,https://www.google.com/maps/search/?api=1&query=Epic%20Mobile%20Phlebotomy%20and%20Drug%20Testing%20Services&query_place_id=ChIJofrbedrDtokR19fAh-Y8zQs
Moores Mobile Solutions,4.9,32,5116 Williamson Rd,,Roanoke,Virginia,US,https://www.mooresmobile.com/,(540) 929-0300,Drug testing service,https://www.google.com/maps/search/?api=1&query=Moores%20Mobile%20Solutions&query_place_id=ChIJ7TFeNbYPTYgR33fSNMGap38
QuantumLab Solutions Mobile Phlebotomy Services,4.6,11,7304 Lakewood Dr W Suite 22,,Lakewood,Washington,US,http://quantummobilesolutions.com/,(888) 522-7443,Blood testing service,https://www.google.com/maps/search/?api=1&query=QuantumLab%20Solutions%20Mobile%20Phlebotomy%20Services&query_place_id=ChIJ5yaKhlGe3KIRggeaYtH52oo
Connect Mobile Phlebotomy,5,6,4730 University Wy NE,,Seattle,Washington,US,https://connectmobilephlebotomy.com/,(360) 220-7615,Home health care service,https://www.google.com/maps/search/?api=1&query=Connect%20Mobile%20Phlebotomy&query_place_id=ChIJcXFHlngVkFQRyU8psekDXvA
Best Of Care Mobile Phlebotomy,5,11,3008 Valley Rd NE,,Moses Lake,Washington,US,https://www.bestofcarephlebotomy.com/,(509) 793-3069,Blood testing service,https://www.google.com/maps/search/?api=1&query=Best%20Of%20Care%20Mobile%20Phlebotomy&query_place_id=ChIJvQEaP711oWwRHN6rCLQfcWk
Phlebelle Mobile Services,5,18,2102 E McLoughlin Blvd ste 102,,Vancouver,Washington,US,http://www.phlebellemobile.com/,(253) 881-6984,Laboratory,https://www.google.com/maps/search/?api=1&query=Phlebelle%20Mobile%20Services&query_place_id=ChIJa8-6TQCvlVQR-qo0uDSjz3s
Spokane Testing Solutions,4.6,36,357 E 3rd Ave,,Spokane,Washington,US,http://www.spokanetestingsolutions.com/,(509) 838-7133,Drug testing service,https://www.google.com/maps/search/?api=1&query=Spokane%20Testing%20Solutions&query_place_id=ChIJ33MznogYnlQROmURH4IRj40
Mariposa Mobile Phlebotomy,5,28,,,,Louisiana,US,https://www.mariposaphlebotomy.com/,(707) 280-3651,Home health care service,https://www.google.com/maps/search/?api=1&query=Mariposa%20Mobile%20Phlebotomy&query_place_id=ChIJoeP8ynZLhIAR84hBnHhr4JI
Vein-U Mobile Blood Draw,5,52,,Capital Region,,Washington,US,https://www.veinublooddraw.com/,(518) 386-8678,Home health care service,https://www.google.com/maps/search/?api=1&query=Vein-U%20Mobile%20Blood%20Draw&query_place_id=ChIJbyw_8MQN3okRhMtyg4uWqcQ
Eazy Prickz Mobile Solutions,,0,67 Sand Pit Rd,,Danbury,Connecticut,US,http://www.eazyprickz.com/,(833) 397-7425,Medical laboratory,https://www.google.com/maps/search/?api=1&query=Eazy%20Prickz%20Mobile%20Solutions&query_place_id=ChIJiWgsHp6MLaIR09AykjonbFQ
PFM Mobile Phlebotomy and Wellness LLC,5,26,,,New England,Connecticut,US,http://pfmphlebotomy.com/,(401) 241-9605,Medical group,https://www.google.com/maps/search/?api=1&query=PFM%20Mobile%20Phlebotomy%20and%20Wellness%20LLC&query_place_id=ChIJo-9odR275YkRrddJBW_aJIo
Phlebstick Mobile LLC,5,96,,,,Connecticut,US,https://www.phlebstickmobile.com/,(860) 964-6533,Blood testing service,https://www.google.com/maps/search/?api=1&query=Phlebstick%20Mobile%20LLC&query_place_id=ChIJhynWIC2z54kRQRfjeL9HCl0
VeinEx Mobile Phlebotomy LLC,5,25,,,,Connecticut,US,http://www.veinexct.com/,(203) 489-5418,Blood testing service,https://www.google.com/maps/search/?api=1&query=VeinEx%20Mobile%20Phlebotomy%20LLC&query_place_id=ChIJt6D3UtCXDacRquQIM4gLGBQ
Sufficient Mobile Labs LLC,5,37,,,,Pennsylvania,US,http://sufficientmobilelabs.com/,(475) 281-9394,Blood testing service,https://www.google.com/maps/search/?api=1&query=Sufficient%20Mobile%20Labs%20LLC&query_place_id=ChIJuSYYfyUWJKgRLdUAlraSwkM
603 Mobile Phlebotomy Services,5,2,,,,New Hampshire,US,https://www.603mobilephlebotomyservices.com/,(603) 496-2088,Blood testing service,https://www.google.com/maps/search/?api=1&query=603%20Mobile%20Phlebotomy%20Services&query_place_id=ChIJTUHVdqyBdwQRo5abEF51Tys
Gentle Touch Mobile Phlebotomy,5,17,,,,Oregon,US,http://www.gentletouchmobilephlebotomy.com/,(360) 690-6364,Laboratory,https://www.google.com/maps/search/?api=1&query=Gentle%20Touch%20Mobile%20Phlebotomy&query_place_id=ChIJ7fOTSdellVQRrax2Uyyh2Yc
Bella Mobile Phlebotomy Services,5,29,,,Seattle,Washington,US,https://bellamobilephlebotomyservices.com/,(206) 356-5392,Laboratory,https://www.google.com/maps/search/?api=1&query=Bella%20Mobile%20Phlebotomy%20Services&query_place_id=ChIJne6lBOMbkFQRD6gPf-_MBnI
Busy B Mobile Phlebotomy,4.6,10,,,"Pompano Beach, Boca Raton, Fort Lauderdale",Florida,US,,(954) 480-3585,Laboratory,https://www.google.com/maps/search/?api=1&query=Busy%20B%20Mobile%20Phlebotomy&query_place_id=ChIJ_TAvWc8F2YgRyDJ-2h1J1iM
Labcare Express Mobile Phlebotomy Services,5,35,,,Jacksonville,Florida,US,http://www.labcarexpress.com/,(904) 999-4771,Medical laboratory,https://www.google.com/maps/search/?api=1&query=Labcare%20Express%20Mobile%20Phlebotomy%20Services&query_place_id=ChIJx8x50osmwE0RHFqIUUwLCZc
At Home Mobile Phlebotomy,5,17,,,Sacramento ,California,US,https://www.athomemedlabs.com/,(530) 908-1096,Laboratory,https://www.google.com/maps/search/?api=1&query=At%20Home%20Mobile%20Phlebotomy&query_place_id=ChIJpZQs75QcI04Rm87hvbFU3mI
PHLEBS MOBILE PHLEBOTOMY SERVICES LLC,5,13,23131 Michigan Ave #1204,,Dearborn,Michigan,US,https://www.phlebsmobilephlebotomyservicesllc.com/,(248) 832-2859,Laboratory,https://www.google.com/maps/search/?api=1&query=PHLEBS%20MOBILE%20PHLEBOTOMY%20SERVICES%20LLC&query_place_id=ChIJo8_MXtHXH6gRWJ0Xz16eVBs
Mobile Phlebotomy Express,3.7,3,,,,,US,https://mobilephlebotomyexpress.com/,(813) 526-5439,Laboratory,https://www.google.com/maps/search/?api=1&query=Mobile%20Phlebotomy%20Express&query_place_id=ChIJpwgzbeR3OmwRewgOVi1DYv0
GetBlood Mobile Phlebotomy,5,86,,,Tampa,Florida,US,,(323) 948-2555,Home health care service,https://www.google.com/maps/search/?api=1&query=GetBlood%20Mobile%20Phlebotomy&query_place_id=ChIJCyGYBdu3woARAbPPWDvVlNs
The Phleb Mobile Phlebotomy Services,5,5,,,Santa Barbara,California,US,http://www.thephlebservices.com/,,Blood testing service,https://www.google.com/maps/search/?api=1&query=The%20Phleb%20Mobile%20Phlebotomy%20Services&query_place_id=ChIJ0U6CVDalJC8R7M8dtelrveQ
Sunshine Mobile Phlebotomy Services,5,79,3500 Posner Blvd,,Davenport,Florida,US,https://sunshinemobilephlebotomy.com/,(689) 407-6243,Medical laboratory,https://www.google.com/maps/search/?api=1&query=Sunshine%20Mobile%20Phlebotomy%20Services&query_place_id=ChIJFWu0D7p73YgRfb7kk647fkA
Express Mobile Phlebotomy,5,64,,,Fort Myers,Florida,US,http://www.expressmobilephlebotomy.com/,(239) 322-6544,Blood testing service,https://www.google.com/maps/search/?api=1&query=Express%20Mobile%20Phlebotomy&query_place_id=ChIJZwQb1UAH24gRd9IUGsI3f4I
"ALLSTIX MOBILE PHLEBOTOMY SERVICES, LLC.",4.9,43,,,Atlanta,Georgia,US,https://allstixmobile.com/,(833) 500-1965,Blood testing service,https://www.google.com/maps/search/?api=1&query=ALLSTIX%20MOBILE%20PHLEBOTOMY%20SERVICES%2C%20LLC.&query_place_id=ChIJ3VCDw9U8g6QRCLgZiEJhMEw
Oasis Mobile Phlebotomy LLC.,5,11,,"Broward County, Miami-Dade County",,Florida,US,https://www.oasisphlebotomy.com/,(877) 735-3531,Blood testing service,https://www.google.com/maps/search/?api=1&query=Oasis%20Mobile%20Phlebotomy%20LLC.&query_place_id=ChIJKRL5Bz4A12QROUuuCl0j1ys
One Stop Exam Mobile Phlebotomy Service,4.9,74,,,,Virginia,US,http://www.onestopexam.com/,(301) 818-1206,Medical laboratory,https://www.google.com/maps/search/?api=1&query=One%20Stop%20Exam%20Mobile%20Phlebotomy%20Service&query_place_id=ChIJCwyCneWArg0Rshii-RgBhTg
PhlebCARE Mobile Phlebotomy,5,24,,,San Diego,California,US,https://www.mobilephlebcare.com/,(888) 959-9382,Blood testing service,https://www.google.com/maps/search/?api=1&query=PhlebCARE%20Mobile%20Phlebotomy&query_place_id=ChIJgSPr8kDsNC0Rlush056l4VQ
LabCall Mobile Phlebotomy Services,5,6,,Tri-Cities,,Washington,US,https://mylabcall.com/,(509) 567-5873,Medical clinic,https://www.google.com/maps/search/?api=1&query=LabCall%20Mobile%20Phlebotomy%20Services&query_place_id=ChIJY2JC5HUEkgsRcNKy3yxBJH0
Reset Mobile Phlebotomy Services,5,11,,,Baltimore,Maryland,US,https://resetmobilephlebotomyservice.com/,(443) 272-1423,Laboratory,https://www.google.com/maps/search/?api=1&query=Reset%20Mobile%20Phlebotomy%20Services&query_place_id=ChIJydaq0L6B-yIRZqsXkC1km_I
Mariposa mobile phlebotomy,5,2,,Bay Area,,California,US,https://www.mariposaphlebotomy.com/,(707) 280-3651,Laboratory,https://www.google.com/maps/search/?api=1&query=Mariposa%20mobile%20phlebotomy&query_place_id=ChIJwYvhFZsSakkR9d6A4Nk8-XI
Superior Phlebotomy Mobile Technician LLC,5,41,,,Philadelphia,Pennsylvania,US,http://www.superiorphlebotomymt.org/,(856) 447-2200,Medical laboratory,https://www.google.com/maps/search/?api=1&query=Superior%20Phlebotomy%20Mobile%20Technician%20LLC&query_place_id=ChIJdyq4ycVB-AgRZZHp3U3ZXAo
"Gentle Touch Lab Services, Inc Mobile Phlebotomy",5,1,,,,Oregon,US,,(971) 241-9891,Establishment,https://www.google.com/maps/search/?api=1&query=Gentle%20Touch%20Lab%20Services%2C%20Inc%20Mobile%20Phlebotomy&query_place_id=ChIJATJH4O1NlVQRKGziwiWeJ7k
Lab dash Mobile LLC Mobile Phlebotomy Services,5,2,,,Los Angeles,California,US,https://labdashmobile.com/,(661) 714-9505,Blood testing service,https://www.google.com/maps/search/?api=1&query=Lab%20dash%20Mobile%20LLC%20Mobile%20Phlebotomy%20Services&query_place_id=ChIJB6YfR-vEXA0R6YEAp7N5zvY
"Mobile Phlebotomy Services of Florida, LLC",5,477,,"South Florida, Treasure Coast",,Florida,US,http://mobilephlebotomyservicesfl.com/,(754) 227-9238,Medical laboratory,https://www.google.com/maps/search/?api=1&query=Mobile%20Phlebotomy%20Services%20of%20Florida%2C%20LLC&query_place_id=ChIJTU1Ur8UJ2YgR0rvjDqiw6iE
Hands of Care Mobile Phlebotomy,5,26,,"Sacramento County, Yolo County, Placer County, El Dorado County",,California,US,http://www.handsofcaremobile.com/,(916) 730-9633,Laboratory,https://www.google.com/maps/search/?api=1&query=Hands%20of%20Care%20Mobile%20Phlebotomy&query_place_id=ChIJuXoTOk53FqoRtEnYSNqAarE
Wonder Stick Mobile Phlebotomy,5,5,,,Philadelphia,Pennsylvania,US,https://www.wonderstick.health/,(888) 978-4256,Blood testing service,https://www.google.com/maps/search/?api=1&query=Wonder%20Stick%20Mobile%20Phlebotomy&query_place_id=ChIJzaReE5ozWCIR8lGlyX9YCrE
"Advanced Mobile Phlebotomy Service, LLC",5,12,,,"Charlotte, Statesville, Mooresville, Hntersville, Winston Salem, LakeNorman, Hickory",North Carolina,US,http://www.advancedmobilephlebotomyservice.com/,(704) 437-1780,Laboratory,https://www.google.com/maps/search/?api=1&query=Advanced%20Mobile%20Phlebotomy%20Service%2C%20LLC&query_place_id=ChIJvQo-CrdiB4IR3dZTUBPzK8M
Lab Exodus Mobile Phlebotomy Hawaii,5,12,,,Kalaheo,Hawaii,US,https://www.labexodus.com/,(808) 634-4298,Laboratory,https://www.google.com/maps/search/?api=1&query=Lab%20Exodus%20Mobile%20Phlebotomy%20Hawaii&query_place_id=ChIJ18XEZOVxUEcRyhKMWC1sTeU
Speedy Mobile Phlebotomy LLC,5,139,,"Broward County, Miami-Dade County, Palm Beach County",,Florida,US,http://www.smpofflorida.com/,(954) 675-1044,Laboratory,https://www.google.com/maps/search/?api=1&query=Speedy%20Mobile%20Phlebotomy%20LLC&query_place_id=ChIJ91el61mk2YgRn-YpwiGXBEw
Home Draw Mobile Phlebotomy,5,30,,,,Illinois,US,https://www.homedrawmobile.com/,(630) 277-9456,Laboratory,https://www.google.com/maps/search/?api=1&query=Home%20Draw%20Mobile%20Phlebotomy&query_place_id=ChIJIb896VXvDogRt-oQDQWlCII
Mobile Phlebotomy of The South,5,1,,,Baton Rouge,Louisiana,US,,(225) 384-6657,Medical laboratory,https://www.google.com/maps/search/?api=1&query=Mobile%20Phlebotomy%20of%20The%20South&query_place_id=ChIJC9UHgjujJoYRhSwimtnGEYo
Veinpro Mobile Phlebotomy Services,5,8,,"Orange County, Los Angeles County",,California,US,https://joycemcat.wixsite.com/veinpro-mobile-phleb,(714) 756-1642,Laboratory,https://www.google.com/maps/search/?api=1&query=Veinpro%20Mobile%20Phlebotomy%20Services&query_place_id=ChIJmb_xieEhMQQRmD24zatjWqU
EDG Mobile Phlebotomy Services,5,19,,,San Diego,California,US,https://edgmobilephlebotomyservices.com/,(858) 722-9036,Blood testing service,https://www.google.com/maps/search/?api=1&query=EDG%20Mobile%20Phlebotomy%20Services&query_place_id=ChIJVfzXth4vh6wRioQiS6X8gZM
Aloha Mobile Phlebotomy LLC,5,4,,,,Hawaii,US,https://www.alohamobilephlebotomy.com/,(808) 829-8920,Home help service agency,https://www.google.com/maps/search/?api=1&query=Aloha%20Mobile%20Phlebotomy%20LLC&query_place_id=ChIJPzETO0YVAHwRBb-XiBcjUx4
On My Way Mobile Phlebotomy Services,5,10,,,Abilene,Texas,US,https://omw-mobile-lab.square.site/,(325) 320-7917,Medical laboratory,https://www.google.com/maps/search/?api=1&query=On%20My%20Way%20Mobile%20Phlebotomy%20Services&query_place_id=ChIJvWkRxUAewocR8wKPTd3L6jw
Labs2You Mobile Phlebotomy,5,11,,,"Stockton, Modesto, Sacramento",California,US,https://www.labs2you.com/,(209) 594-7076,Home health care service,https://www.google.com/maps/search/?api=1&query=Labs2You%20Mobile%20Phlebotomy&query_place_id=ChIJSfLPCh-9NA0RKx6dqGxW7V8
DS Blessed Hands Mobile Phlebotomy,,0,,,Detroit,Michigan,US,,(313) 208-8595,Laboratory,https://www.google.com/maps/search/?api=1&query=DS%20Blessed%20Hands%20Mobile%20Phlebotomy&query_place_id=ChIJbYVqDWECmKIRO7RulziV1Uk
InstaLabs of Michigan,5,1,,,,Michigan,US,http://www.instalabsofmichigan.com/,(734) 355-7887,Home health care service,https://www.google.com/maps/search/?api=1&query=InstaLabs%20of%20Michigan&query_place_id=ChIJUQrB_hJKla0RhbepcMf_XK0
"Small Gentle Hands, LLC",5,7,,,Buffalo,New York,US,https://www.smallgentlehandsllc.org/,(716) 259-6954,Home health care service,https://www.google.com/maps/search/?api=1&query=Small%20Gentle%20Hands%2C%20LLC&query_place_id=ChIJ2cfODAAT04kR-LdUzKhNwIY
VEINFLOW Mobile Phlebotomy,5,15,,Monroe County ,,New York,US,http://www.veinflow.org/,(585) 770-7003,Blood testing service,https://www.google.com/maps/search/?api=1&query=VEINFLOW%20Mobile%20Phlebotomy&query_place_id=ChIJdeJ-Uoup-w4Rp3y_tpBvalY
Mobile Labs Pro,5,6,,Northeast Ohio,,Ohio,US,https://www.mobilelabspro.com/?utm_source=google&utm_medium=wix_google_business_profile&utm_campaign=1073147446677621108,(440) 328-8125,Community health center,https://www.google.com/maps/search/?api=1&query=Mobile%20Labs%20Pro&query_place_id=ChIJ1Yfa-DIibqYRZBb3FaAysBg
Lord of the Veins Mobile Phlebotomy and Diagnostics LLC,5,17,,,Fremont,California,US,http://www.lordoftheveins.life/,(510) 556-9413,Blood testing service,https://www.google.com/maps/search/?api=1&query=Lord%20of%20the%20Veins%20Mobile%20Phlebotomy%20and%20Diagnostics%20LLC&query_place_id=ChIJSUYZGYsr40ARSjLvkZp72ss
Bevel-up At home blood draw and delivery - Mobile Phlebotomy,5,7,,"East Bay, Northern California",,California,US,https://www.bevel-up.net/,(925) 465-2443,Blood testing service,https://www.google.com/maps/search/?api=1&query=Bevel-up%20At%20home%20blood%20draw%20and%20delivery%20-%20Mobile%20Phlebotomy&query_place_id=ChIJweIqVku2J04RSVkr-wP7MWk
Peace of Mind Mobile phlebotomist.com,5,11,,Bay Area,,California,US,https://peaceofmindmobilephlebotomist.com/,(925) 481-9542,Blood bank,https://www.google.com/maps/search/?api=1&query=Peace%20of%20Mind%20Mobile%20phlebotomist.com&query_place_id=ChIJQYizc_xr8qoRuG6htYsTcUk
Zamadhi's Mobile Phlebotomy,5,2,,Utah County,,Utah,US,https://yakcisneros6.wixsite.com/zamadhisblooddraws,(385) 221-0945,Blood testing service,https://www.google.com/maps/search/?api=1&query=Zamadhi's%20Mobile%20Phlebotomy&query_place_id=ChIJj6bO96uXTYcRyHlZpq6bLwg
Smoothsticks Mobile Phlebotomy,5,2,,,Kansas City,Missouri,US,,(816) 974-3408,Laboratory,https://www.google.com/maps/search/?api=1&query=Smoothsticks%20Mobile%20Phlebotomy&query_place_id=ChIJ9Rsf81obwYcRD6gV12EhkK4
Expert Mobile Blood Draws,5,3,,,Fort Myers,Florida,US,,(239) 292-7626,Blood testing service,https://www.google.com/maps/search/?api=1&query=Expert%20Mobile%20Blood%20Draws&query_place_id=ChIJxbVCzhlREAARxse2_d2Ij-4
NR Mobile Labs,5,2756,,,"Fort Lauderdale, Miami, Boca Raton, Palm Beach, Jupiter, Weston",Florida,US,http://www.nrmobilelabs.com/,(954) 822-8501,Home health care service,https://www.google.com/maps/search/?api=1&query=NR%20Mobile%20Labs&query_place_id=ChIJWZ6v3foB2YgRU2_JADIL8fI
KM Professional Mobile Phlebotomy,,0,,,"Boca Raton, West Palm Beach",Florida,US,,(561) 907-1619,Laboratory,https://www.google.com/maps/search/?api=1&query=KM%20Professional%20Mobile%20Phlebotomy&query_place_id=ChIJUQeU93kjy68R1Mm6_EbXICw
KRL Mobile Lab,5,22,,"Broward County, Miami-Dade County, Palm Beach County",,Florida,US,http://www.krlmobilelab.com/,(888) 553-9994,Laboratory,https://www.google.com/maps/search/?api=1&query=KRL%20Mobile%20Lab&query_place_id=ChIJO4ZE35HECY4Rx96rYyCdZ04
OneStick USA Concierge Mobile Lab,5,70,,"Broward County, Miami-Dade County, Palm Beach County",,Florida,US,https://onestickusa.wixsite.com/one-stick-usa,(954) 670-3184,Blood testing service,https://www.google.com/maps/search/?api=1&query=OneStick%20USA%20Concierge%20Mobile%20Lab&query_place_id=ChIJN-taNFPuHAwRmjFM85g5LZA
preferred home phlebotomy - mobile phlebotomy,,0,,"Broward County, Miami-Dade County, Palm Beach County",,Florida,US,https://preferredhomephlebotomy.com/,(561) 739-0915,Medical laboratory,https://www.google.com/maps/search/?api=1&query=preferred%20home%20phlebotomy%20-%20mobile%20phlebotomy&query_place_id=ChIJT525igs4km4RWFlHLS8f-lY
Angel Touch Mobile Phlebotomy Services LLC,,0,,"Broward County, Miami-Dade County, Palm Beach County",,Florida,US,,(716) 708-3788,Laboratory,https://www.google.com/maps/search/?api=1&query=Angel%20Touch%20Mobile%20Phlebotomy%20Services%20LLC&query_place_id=ChIJsci_0h-2mS8RGV-JOzDqlQg
Quick Lab Mobile,5,3,,,Miami,Florida,US,https://quicklabmobile.com/,(855) 729-1756,Blood testing service,https://www.google.com/maps/search/?api=1&query=Quick%20Lab%20Mobile&query_place_id=ChIJSazz5aRqO0YRJlG5yDWtorY
Helping Hands Mobile Medical Service,5,8,,,Cleveland,Ohio,US,,(216) 785-8549,Medical laboratory,https://www.google.com/maps/search/?api=1&query=Helping%20Hands%20Mobile%20Medical%20Service&query_place_id=ChIJm480pwj7MIgRWF0EnEj8Zpc
MobileBloodDraw,5,4,,,Sacramento ,California,US,https://www.mobileblooddraw.org/?utm_source=google&utm_medium=wix_google_business_profile&utm_campaign=18199357006027082474,(916) 205-0235,Home health care service,https://www.google.com/maps/search/?api=1&query=MobileBloodDraw&query_place_id=ChIJF4A7hhO6kCUR5gdk69xakQc
Simply Draw Phlebotomy LLC.,,0,,"Broward County, Miami-Dade County",,Florida,US,https://simplydraw.org/,(305) 741-1310,Medical laboratory,https://www.google.com/maps/search/?api=1&query=Simply%20Draw%20Phlebotomy%20LLC.&query_place_id=ChIJ9QDs5OWbT0ARDijzFphnxTw
DELICATELY TOUCHED LLC Mobile Phlebotomy,,0,,,West Palm Beach,Florida,US,,(561) 853-5389,Home health care service,https://www.google.com/maps/search/?api=1&query=DELICATELY%20TOUCHED%20LLC%20Mobile%20Phlebotomy&query_place_id=ChIJY2fwwQl11wARBNONPiOkxjs
Meraki Exclusive Phlebotomy Mobile Service,,0,,,Miami,Florida,US,,(305) 434-6843,Laboratory,https://www.google.com/maps/search/?api=1&query=Meraki%20Exclusive%20Phlebotomy%20Mobile%20Service&query_place_id=ChIJRWL7bRYu540R5TiOnax_JRg
Bloodugo | Mobile Lab Services,5,6,,Bay Area,,California,US,https://bloodugo.square.site/,(408) 673-7935,Home health care service,https://www.google.com/maps/search/?api=1&query=Bloodugo%20%7C%20Mobile%20Lab%20Services&query_place_id=ChIJpU4B4ZrJj4ARfhw5g6AqDUY
Mobile Virtuous Phlebotomy,5,5,,"Broward County, Miami-Dade County, Palm Beach County",,Florida,US,,(954) 861-9390,Laboratory,https://www.google.com/maps/search/?api=1&query=Mobile%20Virtuous%20Phlebotomy&query_place_id=ChIJr68UmR9f04YRGtwDpNjWXBE
Sanguis health mobile phlebotomy,,0,,,"Fort Lauderdale, Miami",Florida,US,https://sanguishealth.life/,(954) 696-6980,Home health care service,https://www.google.com/maps/search/?api=1&query=Sanguis%20health%20mobile%20phlebotomy&query_place_id=ChIJyYmk1U4ihYMRzojA9hGWPRA
Delicate Hands Mobile Lab L.L.C~Your lab on Wheels,5,21,,"Broward County, Miami-Dade County",,Florida,US,http://www.delicatehandsmobilelab.com/,(786) 613-9822,Laboratory,https://www.google.com/maps/search/?api=1&query=Delicate%20Hands%20Mobile%20Lab%20L.L.C~Your%20lab%20on%20Wheels&query_place_id=ChIJ1btfFoav2YgRIgySavRDXtw
R&J Louis Mobile Phlebotomist,,0,,"Broward County, Miami-Dade County",,Florida,US,,,Laboratory,https://www.google.com/maps/search/?api=1&query=R%26J%20Louis%20Mobile%20Phlebotomist&query_place_id=ChIJ5YHASkApba8R-eQzrp1v2lA
Mobile Phlebotomy Services of Miami,,0,,"Broward County, Miami-Dade County",,Florida,US,http://mobilephlebotomyservicesfl.com/,(754) 227-9238,Medical laboratory,https://www.google.com/maps/search/?api=1&query=Mobile%20Phlebotomy%20Services%20of%20Miami&query_place_id=ChIJiX6N6aUX54gRGFzOPNrqfmM
Concierge Mobile Phlebotomy,5,24,,"Broward County, Miami-Dade County",,Florida,US,https://www.conciergemobilephlebotomy.com/,(954) 994-9869,Medical laboratory,https://www.google.com/maps/search/?api=1&query=Concierge%20Mobile%20Phlebotomy&query_place_id=ChIJmXPt7RWtBmQRKbFMCANE9-k
Swift Lab Solutions,5,2,,Bay Area,,California,US,https://swiftlabsolutions.com/,(925) 450-3500,Medical laboratory,https://www.google.com/maps/search/?api=1&query=Swift%20Lab%20Solutions&query_place_id=ChIJq4xh2KC6D28ROAJgsgeXjQg
Treasure Coast Mobile Phlebotomy,,0,,Treasure Coast,,Florida,US,,(954) 839-7873,Laboratory,https://www.google.com/maps/search/?api=1&query=Treasure%20Coast%20Mobile%20Phlebotomy&query_place_id=ChIJzS45HPtSEUERO67MKTuhSQo
Pleasant Stick Mobile Lab,5,1,,,Fort Myers,Florida,US,https://www.pleasantstick.com/,(941) 500-9359,Medical laboratory,https://www.google.com/maps/search/?api=1&query=Pleasant%20Stick%20Mobile%20Lab&query_place_id=ChIJ9R60G_L63K8RDatOvAMch0w
Phleb Cares Mobile Phlebotomy & IV Vitamin Therapy,5,45,,"Collier County, Lee County",,Florida,US,https://www.phlebcares.com/,(239) 351-7389,Blood testing service,https://www.google.com/maps/search/?api=1&query=Phleb%20Cares%20Mobile%20Phlebotomy%20%26%20IV%20Vitamin%20Therapy&query_place_id=ChIJUVCbaQoH24gRYPTwSgZmY04
On demand mobile phlebotomy,5,1,,"Broward County, Miami-Dade County",,Florida,US,https://odmobilephlebotomy.com/,(347) 695-6261,Local medical services,https://www.google.com/maps/search/?api=1&query=On%20demand%20mobile%20phlebotomy&query_place_id=ChIJ2byQPrE2kIsRj83de15GGYE
On the Go Phlebotomy,5,8,,"Broward County, Miami-Dade County",,Florida,US,,(561) 725-0250,Blood testing service,https://www.google.com/maps/search/?api=1&query=On%20the%20Go%20Phlebotomy&query_place_id=ChIJBSwjnZBssA8RUbrSfMYt9pM
Bloodlink Mobile Laboratory Services LLC,4.3,6,,,,Oregon,US,https://sites.google.com/view/bloodlinkmobile/home,(503) 887-7992,Medical laboratory,https://www.google.com/maps/search/?api=1&query=Bloodlink%20Mobile%20Laboratory%20Services%20LLC&query_place_id=ChIJ9WSmMMkCzSURHJBrsJJ1eJY
Northwest Mobile Phlebotomy,,0,,,Portland,Oregon,US,,(503) 662-7000,Home health care service,https://www.google.com/maps/search/?api=1&query=Northwest%20Mobile%20Phlebotomy&query_place_id=ChIJuxWyxhYLlVQRY3RqD8q5tFs
"Professional Mobile Phlebotomist, LLC",,0,,,"Naples. Marco Island, Bonita Springs",Florida,US,https://www.phlemobile.com/,(239) 571-0639,Blood testing service,https://www.google.com/maps/search/?api=1&query=Professional%20Mobile%20Phlebotomist%2C%20LLC&query_place_id=ChIJO5wjXt1Xq6URuKY_6j86DnQ
Arms & Tourniquets LLC,5,9,,,San Jose,California,US,https://armstourniquets.com/,(831) 319-7099,Home health care service,https://www.google.com/maps/search/?api=1&query=Arms%20%26%20Tourniquets%20LLC&query_place_id=ChIJmbVXJxVbf4ERCPk4B0RsITc
"QuickStick Mobile Phlebotomy Services,LLC",5,3,,"Manatee County, Sarasota County, Pinellas County, Hillsborough County",,Florida,US,http://quickstickmobile.com/,(941) 681-1291,Laboratory,https://www.google.com/maps/search/?api=1&query=QuickStick%20Mobile%20Phlebotomy%20Services%2CLLC&query_place_id=ChIJpf0DBp0fQ48RQlinfZjOuDk
Sufficient Mobile Labs,5,3,,,Hartford,Connecticut,US,,(475) 281-9394,Blood testing service,https://www.google.com/maps/search/?api=1&query=Sufficient%20Mobile%20Labs&query_place_id=ChIJY1vOwuA_ogIRF21fblAfrqc
BIO- STREET Mobile Phlebotomy,,0,,"Essex County, Union County, Passaic County, Hudson County, Middlesex County",,New Jersey,US,https://www.bio-street.com/,(800) 674-0417,Laboratory,https://www.google.com/maps/search/?api=1&query=BIO-%20STREET%20Mobile%20Phlebotomy&query_place_id=ChIJkWjIW0Z2A64R9vok0ZGtqK8
Excell Mobile Phlebotomy Services,,0,,,Philadelphia,Pennsylvania,US,,(201) 287-5115,Laboratory,https://www.google.com/maps/search/?api=1&query=Excell%20Mobile%20Phlebotomy%20Services&query_place_id=ChIJv9i-z3QZAwURgIKGN1ERUSg
Mama Love's Mobile Phlebotomy & EKG Services LLC,,0,,,Long Island,New Jersey,US,,(845) 683-5683,Health consultant,https://www.google.com/maps/search/?api=1&query=Mama%20Love's%20Mobile%20Phlebotomy%20%26%20EKG%20Services%20LLC&query_place_id=ChIJXRVMahW-p68R_Pc9J8Wbtnk
Soft Sticks (Mobile Phlebotomy),5,8,,,Philadelphia,Pennsylvania,US,,(201) 396-3608,Blood testing service,https://www.google.com/maps/search/?api=1&query=Soft%20Sticks%20(Mobile%20Phlebotomy)&query_place_id=ChIJ12uejxUQ428RLCRIgCh5x_A
Sederick Mobile Med | Mobile Phlebotomy & At-Home Medical Services in New York,5,1,,,"Bronx, Westchester, Queens, Manhatten, Brooklyn",New York,US,http://www.sederickmobilemed.com/,(914) 200-4452,Blood testing service,https://www.google.com/maps/search/?api=1&query=Sederick%20Mobile%20Med%20%7C%20Mobile%20Phlebotomy%20%26%20At-Home%20Medical%20Services%20in%20New%20York&query_place_id=ChIJXUG-VOQb-yoRXq3yYk37LYE
Vital Veins Mobile Phlebotomy,5,9,,,Santa Rosa ,California,US,,(707) 890-2377,Blood testing service,https://www.google.com/maps/search/?api=1&query=Vital%20Veins%20Mobile%20Phlebotomy&query_place_id=ChIJxfTZAaoweS4R-PoqIF6UL8A
LabPros Phlebotomy,,0,,Bay Area,,California,US,,(510) 545-3196,Blood testing service,https://www.google.com/maps/search/?api=1&query=LabPros%20Phlebotomy&query_place_id=ChIJw8p8tLKPj4ARew5ppITdIIE
R&B Labs Mobile Phlebotomy Services,5,18,,Nassau County,"Brooklyn, Queens",New York,US,https://www.rbmobilelabs.com/,(917) 859-4704,Medical laboratory,https://www.google.com/maps/search/?api=1&query=R%26B%20Labs%20Mobile%20Phlebotomy%20Services&query_place_id=ChIJG0pVaSkrxQ4RVfk_qf44BOo
Natural Flow Mobile Phlebotomy LLC,5,9,,,,New York,US,,(631) 278-3209,Home health care service,https://www.google.com/maps/search/?api=1&query=Natural%20Flow%20Mobile%20Phlebotomy%20LLC&query_place_id=ChIJdQYnCc5Q40IRYLH4oTJ5Ars
Moss Care Services LLC (Mobile Phlebotomist),3.7,3,2821 S Parker Rd,,Aurora,Colorado,US,http://mosscareservices.com/,(720) 441-3371,Blood testing service,https://www.google.com/maps/search/?api=1&query=Moss%20Care%20Services%20LLC%20(Mobile%20Phlebotomist)&query_place_id=ChIJKyAlFdFLxEkRiJ8fDn9I5ZI
ON POINT MOBILE PHLEBOTOMY SERVICES,,0,,,Philadelphia,Pennsylvania,US,,(848) 223-8692,Laboratory,https://www.google.com/maps/search/?api=1&query=ON%20POINT%20MOBILE%20PHLEBOTOMY%20SERVICES&query_place_id=ChIJswmCN110hAIR7Ik88H6DaIE
Burdier Mobile Phlebotomy,5,1,,,,New York,US,https://burdiermobilephlebotomy.com/,(516) 508-1898,Home health care service,https://www.google.com/maps/search/?api=1&query=Burdier%20Mobile%20Phlebotomy&query_place_id=ChIJgwX2nlbNnWwR3hLkFcU7_pE
Passion-stic mobile phlebotomy,,0,,,,Tennessee,US,https://passion-stic.com/,(615) 806-2753,Local medical services,https://www.google.com/maps/search/?api=1&query=Passion-stic%20mobile%20phlebotomy&query_place_id=ChIJt1bDOCxhCyARoe6DmiBIHR8
Confident Care Mobile Phlebotomy,5,8,,,Nashville,Tennessee,US,http://confidentcaremp.net/,(615) 500-4464,Laboratory,https://www.google.com/maps/search/?api=1&query=Confident%20Care%20Mobile%20Phlebotomy&query_place_id=ChIJeUmS3OxBZIgRNdskRyDjOhc
Main Vein Mobile Phlebotomy,,0,,,"Louisville, Lexington, Bowling Green",Kentucky,US,https://www.mainveinky.com/,(502) 354-3359,Local medical services,https://www.google.com/maps/search/?api=1&query=Main%20Vein%20Mobile%20Phlebotomy&query_place_id=ChIJeUJgSgMa5IkR8D9zHoMb5yA
Helping Hand Mobile Services LLC,5,14,,,Nashville,Tennessee,US,,(615) 852-5486,Blood testing service,https://www.google.com/maps/search/?api=1&query=Helping%20Hand%20Mobile%20Services%20LLC&query_place_id=ChIJE8Y4xIHyyiURxcWT8n_rTYQ
TMP Mobile Phlebotomy Service,5,1,,,,Kentucky,US,,(270) 300-1709,Medical laboratory,https://www.google.com/maps/search/?api=1&query=TMP%20Mobile%20Phlebotomy%20Service&query_place_id=ChIJpfJf98jhaIgREYUlGeNpEMs
Blood Vessel Mobile Phlebotomy,5,2,,,Phoenix,Arizona,US,https://mobilephlebotomytechnician.com/,(602) 702-0603,Home health care service,https://www.google.com/maps/search/?api=1&query=Blood%20Vessel%20Mobile%20Phlebotomy&query_place_id=ChIJ5caK3ZMpuyIROFsurmtFFTc
Soft Touch Mobile Labs LLC,5,34,,,Phoenix,Arizona,US,https://softtouchmobilelabs.com/,(480) 323-9609,Medical clinic,https://www.google.com/maps/search/?api=1&query=Soft%20Touch%20Mobile%20Labs%20LLC&query_place_id=ChIJd7onQRbUhgYReKGQclHR0Gk
"OptiVena Mobile Phlebotomy, LLC",5,25,,,Phoenix,Arizona,US,http://www.optivena.com/,(623) 692-0527,Blood testing service,https://www.google.com/maps/search/?api=1&query=OptiVena%20Mobile%20Phlebotomy%2C%20LLC&query_place_id=ChIJp-64-dqvMAERpxox3lPy_YQ
On The Go Mobile Phlebotomy Services,4.7,3,,,,"North Carolina, South Carolina",US,https://onthegomobilephlebotomy.com/?utm_campaign=gmb,(980) 434-9891,Local medical services,https://www.google.com/maps/search/?api=1&query=On%20The%20Go%20Mobile%20Phlebotomy%20Services&query_place_id=ChIJy4cRqnj5cQYROMXCqAS36hI
House of Labs Llc Mobile Phlebotomy,5,6,,,Houston,Texas,US,,(346) 673-3263,Medical laboratory,https://www.google.com/maps/search/?api=1&query=House%20of%20Labs%20Llc%20Mobile%20Phlebotomy&query_place_id=ChIJl1aPo0DdQIYRcMNxIODwGwk
"Stat Mobile Labs, LLC",5,1,,,"Monument, Colorado Springs, Fountain",Colorado,US,https://statmobilelabsllc.godaddysites.com/,(719) 209-7770,Laboratory,https://www.google.com/maps/search/?api=1&query=Stat%20Mobile%20Labs%2C%20LLC&query_place_id=ChIJSTzfPRM-rGoR0dlhMISv4RI
"Order of Draw Mobile Phlebotomy Service, LLC",,0,,,Mobile,Alabama,US,,(251) 301-2142,Diagnostic center,https://www.google.com/maps/search/?api=1&query=Order%20of%20Draw%20Mobile%20Phlebotomy%20Service%2C%20LLC&query_place_id=ChIJOz-OwjdFfKARjRXhgIkPqmg
Fairy Wings Mobile Phlebotomy Service LLC,5,2,,,Jackson,Mississippi,US,,(228) 224-1685,Laboratory,https://www.google.com/maps/search/?api=1&query=Fairy%20Wings%20Mobile%20Phlebotomy%20Service%20LLC&query_place_id=ChIJAz2zG-sXnIgR7nM-8DmYb6k
One Stick That's It Mobile Phlebotomy,,0,,,,New Orleans,US,http://onesticknola.com/,(504) 517-2422,Laboratory,https://www.google.com/maps/search/?api=1&query=One%20Stick%20That's%20It%20Mobile%20Phlebotomy&query_place_id=ChIJdXDwB04BUwMRXre2tl_fQVg
Stick And Draw Mobile Phlebotomy,4.5,2,,,,New Orleans,US,https://mobilephlebotomistneworleans.com/,(504) 490-3561,Laboratory,https://www.google.com/maps/search/?api=1&query=Stick%20And%20Draw%20Mobile%20Phlebotomy&query_place_id=ChIJffjmRFXXFaQRb7u458vgVb0
Good Faith Phlebotomy Services,,0,,,Mobile,Alabama,US,,(251) 802-1882,Local medical services,https://www.google.com/maps/search/?api=1&query=Good%20Faith%20Phlebotomy%20Services&query_place_id=ChIJbQ9LospNmogRi6m9djjTygs
Phlebo Mobile LLC,5,1,,,Farmington ,New Mexico,US,,(505) 278-0473,Medical laboratory,https://www.google.com/maps/search/?api=1&query=Phlebo%20Mobile%20LLC&query_place_id=ChIJBQJavyA-Aq8RjK52GG8_xQ4
B+ Mobile Phlebotomy,5,1,,,Phoenix,Arizona,US,,(602) 579-5094,Home health care service,https://www.google.com/maps/search/?api=1&query=B%2B%20Mobile%20Phlebotomy&query_place_id=ChIJPZQWDFrwWSsRT1tYTVyDJ5U
Mobile Lab Buddy,5,33,,,Charlotte,North Carolina,US,http://www.mobilelabbuddy.com/,(704) 226-3086,Medical laboratory,https://www.google.com/maps/search/?api=1&query=Mobile%20Lab%20Buddy&query_place_id=ChIJc3Q0zC0XxYERr6bcvRKmbis
PHLEBX INC,,0,,,,"New York, New Jersey, Florida, Maryland, Pennsylvania",US,http://www.phlebx.com/,,Home health care service,https://www.google.com/maps/search/?api=1&query=PHLEBX%20INC&query_place_id=ChIJMy-DOVuf2YYRt-nmjJnLqjA
"Lee & Associates Mobile Phlebotomy, L.L.C.",5,3,,,Chicago,Illinois,US,,(708) 390-8066,Blood testing service,https://www.google.com/maps/search/?api=1&query=Lee%20%26%20Associates%20Mobile%20Phlebotomy%2C%20L.L.C.&query_place_id=ChIJ869nmMAbDogRTvmd9ddigHQ
Caring Touch Phlebotomy,4.4,14,,,Chicago,Illinois,US,,(630) 259-2677,Laboratory,https://www.google.com/maps/search/?api=1&query=Caring%20Touch%20Phlebotomy&query_place_id=ChIJ3bguIS5VDogRXjiX3FYztME
"Ovalle Mobile Medical, LLC",5,4,,,Syracuse,New York,US,,(845) 390-0769,Home health care service,https://www.google.com/maps/search/?api=1&query=Ovalle%20Mobile%20Medical%2C%20LLC&query_place_id=ChIJzZ556w0KQ0ERb8sTK0Ek78g
Phlebotomy On Demand LLC,,0,,Baldwin County,,Alabama,US,https://phlebotomyondemandllc.com/,(251) 325-0513,Blood testing service,https://www.google.com/maps/search/?api=1&query=Phlebotomy%20On%20Demand%20LLC&query_place_id=ChIJLxiV6bmMdYsRFWAXKRcshjM
Concierge Lab Service,5,14,,Summit County,,Colorado,US,http://www.conciergelabco.com/,(970) 343-5227,Medical laboratory,https://www.google.com/maps/search/?api=1&query=Concierge%20Lab%20Service&query_place_id=ChIJw4Y0PF33OCsR6KB7wrkjdZk
Coast Phlebotomy Services LLC,,0,,,Carlsbad,California,US,,(833) 882-6278,Blood testing service,https://www.google.com/maps/search/?api=1&query=Coast%20Phlebotomy%20Services%20LLC&query_place_id=ChIJhzq48I7BYVMRPFeUYX_3XJc
VAMPS ON WHEELS,5,14,,,,Mississippi,US,https://vampsonwheels.com/,(844) 826-7724,Blood testing service,https://www.google.com/maps/search/?api=1&query=VAMPS%20ON%20WHEELS&query_place_id=ChIJtWhhIn3fQoYRiZwBOoP4EyM
Stick With Us Mobile Phlebotomy Specialist,5,1,,,Jackson,Mississippi,US,,(228) 300-9073,Laboratory,https://www.google.com/maps/search/?api=1&query=Stick%20With%20Us%20Mobile%20Phlebotomy%20Specialist&query_place_id=ChIJcwB7gODhIicRzSQ7WDd8nvk
LabCollective Mobile Phlebotomy Services,,0,,,Houston,Texas,US,https://labcollectivetx.com/,(713) 670-8189,Medical laboratory,https://www.google.com/maps/search/?api=1&query=LabCollective%20Mobile%20Phlebotomy%20Services&query_place_id=ChIJbR-QgoTvt60RroMwDmw_vH8
Personal Touch Phlebotomy LLC,5,22,,,Houston,Texas,US,https://www.personaltouchphlebotomy.com/,(346) 454-2247,Blood testing service,https://www.google.com/maps/search/?api=1&query=Personal%20Touch%20Phlebotomy%20LLC&query_place_id=ChIJkf-0WnJQPiIRSNtNkoDbhWI
E Labs Mobile Phlebotomy & Vitals,,0,,,Houston,Texas,US,https://e-labs-mobile-phlebotomy-vitals.square.site/,(832) 902-4172,Drug testing service,https://www.google.com/maps/search/?api=1&query=E%20Labs%20Mobile%20Phlebotomy%20%26%20Vitals&query_place_id=ChIJDyyYpD8crC8RO1gzZgv3W1U
"Elite ProLab Mobile Services, LLC",5,7,,,Houston,Texas,US,http://eliteprolabms.com/,(346) 255-2192,Medical laboratory,https://www.google.com/maps/search/?api=1&query=Elite%20ProLab%20Mobile%20Services%2C%20LLC&query_place_id=ChIJRRPLZYDFQIYRULqfHbmlE0o
Klarity Mobile Phlebotomy,5,6,,,"Dallas, Garland, Mesquite, Rowlett, Rockwall, Forney, Sachese, Murphy, Wylie, Richardson, Plano",Texas,US,https://www.klaritymobilephlebotomy.com/?utm_source=google&utm_medium=wix_google_business_profile&utm_campaign=15053900108533893758,(972) 316-9787,Medical laboratory,https://www.google.com/maps/search/?api=1&query=Klarity%20Mobile%20Phlebotomy&query_place_id=ChIJb5TDF2EIaAgRIP_VcLSO8y0
Kardynal Mobile Phlebotomy LLC,5,2,,Bay County,,Florida,US,https://www.facebook.com/profile.php?id=61578578032983,(850) 890-2174,Medical laboratory,https://www.google.com/maps/search/?api=1&query=Kardynal%20Mobile%20Phlebotomy%20LLC&query_place_id=ChIJgb83JRLkPCERzA1kDPyNRV4
Butterfly Stick Mobile Phlebotomy,5,55,,,Sacramento ,California,US,https://butterflystickmobilephlebotomy.godaddysites.com/,(916) 889-1819,Home health care service,https://www.google.com/maps/search/?api=1&query=Butterfly%20Stick%20Mobile%20Phlebotomy&query_place_id=ChIJ_5Ss_OCzbWYRpFNKJWeYxb0
Flash Drive Mobile Phlebotomy,5,31,,,Chicago,Illinois,US,http://flashdrivemobilelab.com/,(331) 725-2755,Laboratory,https://www.google.com/maps/search/?api=1&query=Flash%20Drive%20Mobile%20Phlebotomy&query_place_id=ChIJ8R9f22XvDogR28V5oVQu00s
Quick Draw Mobile Phlebotomy Service PLLC,5,4,,,,Washington,US,https://quickdrawmobile.com/,(509) 760-6843,Blood testing service,https://www.google.com/maps/search/?api=1&query=Quick%20Draw%20Mobile%20Phlebotomy%20Service%20PLLC&query_place_id=ChIJx7lb0O5E-W0RgwyMwWOLV44
Blue heart mobile phlebotomy services LLC,,0,,Western Pennsylvania,,Pennsylvania,US,https://blueheartphleb.com/,(724) 415-5127,Medical laboratory,https://www.google.com/maps/search/?api=1&query=Blue%20heart%20mobile%20phlebotomy%20services%20LLC&query_place_id=ChIJEQ9Hp8_JeiwRoYROlQ_unv8
The Gauge LLC Mobile Phlebotomy,,0,12333 Sowden Rd Suite B #895974,,Houston,Texas,US,https://www.thegaugellc.com/?utm_source=google&utm_medium=wix_google_business_profile&utm_campaign=8066628730406551938,(832) 510-9394,Medical clinic,https://www.google.com/maps/search/?api=1&query=The%20Gauge%20LLC%20Mobile%20Phlebotomy&query_place_id=ChIJq6eb2sTRTGgRrjxboqJHPD8
SSR Mobile Phlebotomy and Services,,0,,,,Washington,US,,(240) 459-8945,Medical laboratory,https://www.google.com/maps/search/?api=1&query=SSR%20Mobile%20Phlebotomy%20and%20Services&query_place_id=ChIJM0SiwNLFt4kRhnVjmIYtsj4
Ultimate Healthcare LLC (Mobile Phlebotomy),5,9,,,,"Washington DC, Maryland, Virginia",US,https://www.uhphlebotomy.com/,(301) 778-4758,Laboratory,https://www.google.com/maps/search/?api=1&query=Ultimate%20Healthcare%20LLC%20(Mobile%20Phlebotomy)&query_place_id=ChIJsecYYdXmFEQRuwI2xj5rSwo
Hunt Medical Services Inc,4.7,25,,,,"Washington DC, Maryland, Virginia",US,http://huntmedicalservices.com/,(301) 840-2125,Blood testing service,https://www.google.com/maps/search/?api=1&query=Hunt%20Medical%20Services%20Inc&query_place_id=ChIJMdVpj4XSt4kRP7SMpIpEIU0
"Express Mobile Lab, LLC",,0,,,,Maryland,US,http://www.expressmobilelab.com/,(800) 282-9033,Blood testing service,https://www.google.com/maps/search/?api=1&query=Express%20Mobile%20Lab%2C%20LLC&query_place_id=ChIJ5ylI580Jt4kRcnib_cbsVlo
Michigan Mobile Collection Services,,0,,Northern Michigan,,Michigan,US,https://mimobilecollectionservices.com/,(231) 818-5344,Laboratory,https://www.google.com/maps/search/?api=1&query=Michigan%20Mobile%20Collection%20Services&query_place_id=ChIJ55PB8iykNQIR2Bc6WlunOWQ
Graham Mobile Phlebotomy,,0,,,,Virginia,US,,(757) 524-1191,Local medical services,https://www.google.com/maps/search/?api=1&query=Graham%20Mobile%20Phlebotomy&query_place_id=ChIJ_czNFEwBt4kRqrLemBNUN7I
Venistat Mobile Phlebotomy LLC,,0,,,Dayton,Ohio,US,,(937) 307-9639,Laboratory,https://www.google.com/maps/search/?api=1&query=Venistat%20Mobile%20Phlebotomy%20LLC&query_place_id=ChIJPSNBbeR_QIgRBh3_tiuuH2k
Empress Mobile Phlebotomy Services LLC,5,3,,,Cincinnati,Ohio,US,,(513) 512-2272,Medical laboratory,https://www.google.com/maps/search/?api=1&query=Empress%20Mobile%20Phlebotomy%20Services%20LLC&query_place_id=ChIJcVTxqXz5eKMR6EZaRbeST6w
Surepoint Solutions,4.3,46,,,Cincinnati,Ohio,US,https://surepointsolutions.square.site/,(513) 400-4005,Blood testing service,https://www.google.com/maps/search/?api=1&query=Surepoint%20Solutions&query_place_id=ChIJ76Xsfn9PQIgRuepfgVCxYFk
Assurance Mobile Labs,5,1,,,,Washington,US,,(443) 517-7714,Blood testing service,https://www.google.com/maps/search/?api=1&query=Assurance%20Mobile%20Labs&query_place_id=ChIJWYbA0ndNc64RckcUqQKUc4s
Tender Touch Mobile Labs,,,13428 Maxella Ave #833,,Marina Del Rey,California,US,https://tendertouchmobilelabs.com/,(800) 875-5960,,
GetBlood Mobile Phlebotomy,5,87,,Riverside County,,California,US,https://phlebotomy-fast-mobile-phlebotomy.square.site/s/appointments,(323) 948-2555,,
Eze Mobile Phlebotomy Services LLC,,,1704 W. Manchester Ave Suite 206 F,,Los Angeles,California,US,https://ezemobphleb.com/,(310) 565-8321,,
Just Little Poke Mobile Phlebotomy,4.5,8,1230 Rosecrans Ave,Los Angeles,Manhatten Beach,California,US,https://justlittlepoke.com/,(310) 283-6712,,
Veinpro Mobile Phlebotomy Services,5,8,,"Orange County, Los Angeles County",,California,US,https://www.veinpromobilephlebotomy.com/,(714) 756-1642,,
Lab dash Mobile LLC Mobile Phlebotomy Services,5,2,,Los Angeles County,,California,US,https://labdashmobile.com/,(661) 714-9505,,
Angels on wheels Mobile Phlebotomy,5,11,,,"Riverside, San Bernardino, Ontario",California,US,,(424) 370-9778 ,,
BioDraw Mobile Phlebotomy Service,5,1,,South Bay,,California,US,https://biodrawp.wixsite.com/biodrawphlebotomy,(909) 248-8647,,
American Mobile Phlebotomy Service,4.5,8,,Los Angeles County,,California,US,https://americanmobilephlebotomyservice.com/,(323) 806-7204,,
"PhlebotXpress, LLC",5,79,,Los Angeles County,tlanta,California,US,https://www.phlebotxpress.com/,(818) 946-9443,,
Atria Mobile Blood Draw,4.1,41,,Los Angeles County,,California,US,http://atriamobile.com/,(808) 404-9005,,
MC Mobile Phlebotomist,5,4,,San Fernando Valley,,California,US,http://mcmobilephlebotomist.com/,(213) 451-7497,,
RMV Mobile Phlebotomy,,,2700 W Main St,Beverlywood,Beverlywood,California,US,https://www.rmvmobilephlebotomy.com/,(310) 757-7506,,
EZ Draw Mobile Phlebotomy,5,2,,Orange County,Alhambra,California,US,http://ezdrawmobilephlebotomy.com/,(714) 679-7064,,
Express Tech Mobile Phlebotomy,2.8,4,,,La Crescenta,California,US,http://expresstechphleb.com/,(800) 400-4118,,
Phlebotomy Experts,4.8,37,,Los Angeles County,,California,US,https://phlebotomyexperts.com/,(424) 378-1120,,
We Are Vien Pros,5,5,11799 Sebastian Way,Rancho Cucamonga,,CaliforniaUS,,https://www.weareveinpros.com/,(833) 522-8346,,
